nom,adresse,code_postal,latitude,longitude
SG AUVERGNE RHÔNE ALPES,"140 RUE DE LA REPUBLIQUE, 69220 BELLEVILLE EN BEAUJOLAIS",69220,46.1106172,4.7402162
SG AUVERGNE RHÔNE ALPES,"15/17 RUE DE JANICU, 69530 BRIGNAIS",69530,45.6755639,4.7582867
SG AUVERGNE RHÔNE ALPES,"70 AV DE LATTRE DE TASSIGNY, 69500 BRON",69500,45.7364409,4.916927
SG AUVERGNE RHÔNE ALPES,"166 AV FRANKLIN ROOSEVELT, 69500 BRON",69500,45.7372832,4.8974769
SG AUVERGNE RHÔNE ALPES,"84 RUE PASTEUR, 69300 CALUIRE ET CUIRE",69300,45.7923657,4.844458
SG AUVERGNE RHÔNE ALPES,"71 AV LANESSAN, 69410 CHAMPAGNE AU MONT D OR",69410,45.795629,4.7917661
SG AUVERGNE RHÔNE ALPES,"5 RUE DE LA REPUBLIQUE, 69680 CHASSIEU",69680,45.7385226,4.9693409
SG AUVERGNE RHÔNE ALPES,"95 AV EDOUARD MILLAUD, 69290 CRAPONNE",69290,45.747267,4.7240691
SG AUVERGNE RHÔNE ALPES,"11 CHE DE GARGANTUA, 69570 DARDILLY",69570,45.8191571,4.7586528
SG AUVERGNE RHÔNE ALPES,"134 AV JEAN JAURES, 69150 DECINES CHARPIEU",69150,45.7694738,4.9488026
SG AUVERGNE RHÔNE ALPES,"PL DE LA LIBERATION, 69130 ECULLY",69130,45.7757209,4.7783074
SG AUVERGNE RHÔNE ALPES,"39 RUE DE LA REPUBLIQUE, 69740 GENAS",69740,45.7318835,5.001028
SG AUVERGNE RHÔNE ALPES,"198 RTE DE TREVOUX, 69730 GENAY",69730,45.8886848,4.8296059
SG AUVERGNE RHÔNE ALPES,"4 RUE GAMBETTA, 69700 GIVORS",69700,45.5820026,4.773637
SG AUVERGNE RHÔNE ALPES,"38 R CHARLES DE GAULLE, 69210 L ARBRESLE",69210,45.8361392,4.6162978
SG AUVERGNE RHÔNE ALPES,"1 BD DES BROTTEAUX, 69006 LYON",69006,45.769422,4.8572178
SG AUVERGNE RHÔNE ALPES,"56 CRS CHARLEMAGNE, 69002 LYON",69002,45.7448921,4.8224621
SG AUVERGNE RHÔNE ALPES,"11 PL CROIX ROUSSE, 69004 LYON",69004,45.7744305,4.8255454
SG AUVERGNE RHÔNE ALPES,"62 BD DES ETATS-UNIS, 69008 LYON",69008,45.7340087,4.8636238
SG AUVERGNE RHÔNE ALPES,"100 RUE DE GERLAND, 69007 LYON",69007,45.7360729,4.8395206
SG AUVERGNE RHÔNE ALPES,"7 PL JEAN MACE, 69007 LYON",69007,45.7458279,4.842947
SG AUVERGNE RHÔNE ALPES,"181 AV THIERS, 69006 LYON 06EM-ARRONDISSEMENT",69006,,
SG AUVERGNE RHÔNE ALPES,"188 AV FRERES LUMIERE, 69008 LYON",69008,45.7455671,4.8646329
SG AUVERGNE RHÔNE ALPES,"96 B CRS DU DR LONG, 69003 LYON",69003,45.7513435,4.8760361
SG AUVERGNE RHÔNE ALPES,"12 PL CARNOT, 69002 LYON",69002,45.7507371,4.8289423
SG AUVERGNE RHÔNE ALPES,"72 AV DU POINT DU JOUR, 69005 LYON",69005,45.7564877,4.7971148
SG AUVERGNE RHÔNE ALPES,"6 RUE DE LA REPUBLIQUE, 69001 LYON",69001,45.7663744,4.8358437
SG AUVERGNE RHÔNE ALPES,"28 CRS FRANKLIN ROOSEVELT, 69006 LYON",69006,45.7687299,4.846294
SG AUVERGNE RHÔNE ALPES,"34 T AV LACASSAGNE, 69003 LYON",69003,45.7436486,4.8944424
SG AUVERGNE RHÔNE ALPES,"1/3 PL VICTOR BASCH, 69003 LYON",69003,45.7535867,4.8479193
SG AUVERGNE RHÔNE ALPES,"18 RUE DU CHAPEAU ROUGE, 69009 LYON",69009,45.7726742,4.8077313
SG AUVERGNE RHÔNE ALPES,"19 RUE VICTOR HUGO, 69002 LYON",69002,45.7552279,4.8306283
SG AUVERGNE RHÔNE ALPES,"23 RUE LOUIS SAULNIER, 69330 MEYZIEU",69330,45.7655584,5.0033322
SG AUVERGNE RHÔNE ALPES,"10 RUE DU 19 MARS 1962, 69780 MIONS",69780,45.6656664,4.9576582
SG AUVERGNE RHÔNE ALPES,"112 GRANDE RUE, 69600 OULLINS",69600,45.7148643,4.8075147
SG AUVERGNE RHÔNE ALPES,"2843 RTE DE STRASBOURG, 69140 RILLIEUX LA PAPE",69140,45.8203261,4.895426
SG AUVERGNE RHÔNE ALPES,"65 AV JEAN JAURES, 69190 ST FONS",69190,45.710639,4.8552411
SG AUVERGNE RHÔNE ALPES,"13 PL DES TERREAUX, 69590 ST SYMPHORIEN SUR COISE",69590,45.6321488,4.4566408
SG AUVERGNE RHÔNE ALPES,"MONTEE DU CHATEAU, 69720 ST BONNET DE MURE",69720,45.691883,5.0289816
SG AUVERGNE RHÔNE ALPES,"24 RUE HENRI MARECHAL, 69800 ST PRIEST",69800,45.6918402,4.9388803
SG AUVERGNE RHÔNE ALPES,"4 PLACE DU MARECHAL JOFFRE, 69230 ST GENIS LAVAL",69230,45.6924386,4.7919903
SG AUVERGNE RHÔNE ALPES,"12 BD BARON DU MARAIS, 69110 STE FOY LES LYON",69110,45.7356323,4.8047435
SG AUVERGNE RHÔNE ALPES,"PL COLLIO, 69170 TARARE",69170,45.8953365,4.43255
SG AUVERGNE RHÔNE ALPES,"4 AV GENERAL LECLERC, 69160 TASSIN LA DEMI LUNE",69160,45.7611936,4.7753088
SG AUVERGNE RHÔNE ALPES,"48 RUE DE LA REPUBLIQUE, 69120 VAULX EN VELIN",69120,45.7862695,4.9247791
SG AUVERGNE RHÔNE ALPES,"32 RUE CARNOT, 69200 VENISSIEUX",69200,45.705024,4.8785692
SG AUVERGNE RHÔNE ALPES,"78 RUE PAUL BERT, 69400 VILLEFRANCHE SUR SAONE",69400,45.9899017,4.7175078
SG AUVERGNE RHÔNE ALPES,"34 AV ROGER SALENGRO, 69100 VILLEURBANNE",69100,45.7758859,4.8710326
SG AUVERGNE RHÔNE ALPES,"50 CRS EMILE ZOLA, 69100 VILLEURBANNE",69100,45.7707079,4.8667908
SG AUVERGNE RHÔNE ALPES,"158 CRS EMILE ZOLA, 69100 VILLEURBANNE",69100,45.7695165,4.8786113
SG AUVERGNE RHÔNE ALPES,"234 RUE DU 4 AOUT 1789, 69100 VILLEURBANNE",69100,45.7659843,4.8977983
SG AUVERGNE RHÔNE ALPES,"41 CRS TOLSTOI, 69100 VILLEURBANNE",69100,45.7636796,4.8746383
