nom,adresse,code_postal,latitude,longitude
SG SOCIETE GENERALE,"34 RUE AUGUSTE MOUNIE, 92160 ANTONY",92160,48.7540437,2.3024314
SG SOCIETE GENERALE,"34 GD RUE CH DE GAULLE, 92600 ASNIERES SUR SEINE",92600,48.9137215,2.2880315
SG SOCIETE GENERALE,"4 AV DE LA PAIX, 92600 ASNIERES SUR SEINE",92600,48.9185393,2.312691
SG SOCIETE GENERALE,"356 AV D ARGENTEUIL, 92600 ASNIERES SUR SEINE",92600,48.9051352,2.2877259
SG SOCIETE GENERALE,"2 AV HENRI RAVERA, 92220 BAGNEUX",92220,48.7961992,2.3017303
SG SOCIETE GENERALE,"3 RUE FELIX FAURE, 92270 BOIS COLOMBES",92270,48.9150078,2.2722959
SG SOCIETE GENERALE,"40 BD JEAN JAURES, 92100 BOULOGNE BILLANCOURT",92100,48.842086,2.2385838
SG SOCIETE GENERALE,"102 AV GENERAL LECLERC, 92100 BOULOGNE BILLANCOURT",92100,48.8309498,2.234325
SG SOCIETE GENERALE,"92 AV J-BAPTISTE CLEMENT, 92100 BOULOGNE BILLANCOURT",92100,48.837494,2.2378546
SG SOCIETE GENERALE,"2 RUE MOREAU VAUTHIER, 92100 BOULOGNE BILLANCOURT",92100,48.8449132,2.2450129
SG SOCIETE GENERALE,"3 AV DU GAL LECLERC, 92100 BOULOGNE BILLANCOURT",92100,48.837494,2.2378546
SG SOCIETE GENERALE,"7 RUE RENE ROECKEL, 92340 BOURG LA REINE",92340,48.7796716,2.3140005
SG SOCIETE GENERALE,"71 RUE JEAN LONGUET, 92290 CHATENAY MALABRY",92290,48.7719277,2.2809456
SG SOCIETE GENERALE,"44 AV DE PARIS, 92320 CHATILLON",92320,48.8057306,2.2918301
SG SOCIETE GENERALE,"4 RUE PAVE DE MEUDON, 92370 CHAVILLE",92370,48.8090026,2.1924797
SG SOCIETE GENERALE,"743 AV SALENGRO, 92370 CHAVILLE",92370,48.8145555,2.1933012
SG SOCIETE GENERALE,"16 AV JEAN JAURES, 92140 CLAMART",92140,48.8010008,2.2638564
SG SOCIETE GENERALE,"3 PL MARTYRS OCC.ALLE., 92110 CLICHY",92110,48.90271,2.3092705
SG SOCIETE GENERALE,"2 RUE DE LA LIBERTE, 92700 COLOMBES",92700,48.9221847,2.2540358
SG SOCIETE GENERALE,"53 AV PASTEUR, 92400 COURBEVOIE",92400,48.9047667,2.2689335
SG SOCIETE GENERALE,"CTRE CIAL CHARRAS, 92400 COURBEVOIE",92400,48.9010419,2.266358
SG SOCIETE GENERALE,"41 AV LEONARD DE VINCI, 92400 COURBEVOIE",92400,48.8970264,2.2374567
SG SOCIETE GENERALE,"83 RUE DE BEZONS, 92400 COURBEVOIE",92400,48.8976315,2.2474918
SG SOCIETE GENERALE,"10 AV MARCEAU, 92400 COURBEVOIE",92400,48.8987924,2.246836
SG SOCIETE GENERALE,"3 PL VICTOR HUGO, 92400 COURBEVOIE",92400,48.8923442,2.2537516
SG SOCIETE GENERALE,"64 RUE BOUCICAUT, 92260 FONTENAY AUX ROSES",92260,48.7917669,2.2863251
SG SOCIETE GENERALE,"28 AV DU MAL JOFFRE, 92380 GARCHES",92380,48.8469068,2.1893546
SG SOCIETE GENERALE,"140 AV GABRIEL PERI, 92230 GENNEVILLIERS",92230,48.924793,2.294638
SG SOCIETE GENERALE,"3 ALL SAINTE LUCIE, 92130 ISSY LES MOULINEAUX",92130,48.8209112,2.2519011
SG SOCIETE GENERALE,"1 RUE ANDRE CHENIER, 92130 ISSY LES MOULINEAUX",92130,48.8237109,2.2726889
SG SOCIETE GENERALE,"39 RUE ERNEST RENAN, 92130 ISSY LES MOULINEAUX",92130,48.8269591,2.2794666
SG SOCIETE GENERALE,"27 CRS DE L'ANCIENNE BOULANGERIE, 92130 ISSY LES MOULINEAUX",92130,48.8243742,2.2595944
SG SOCIETE GENERALE,"2 BD FRANCK KUPKA, 92800 PUTEAUX",92800,48.8826783,2.2410408
SG SOCIETE GENERALE,"15 PARVIS DE LA DEFENSE, 92800 PUTEAUX",92800,48.8906441,2.2376555
SG SOCIETE GENERALE,"5 PL DE LA PYRAMIDE, 92800 PUTEAUX",92800,48.8893271,2.2436847
SG SOCIETE GENERALE,"19 CRS VALMY, 92800 PUTEAUX",92800,48.8922598,2.232953
SG SOCIETE GENERALE,"3 AV JOSEPH FROMENT, 92250 LA GARENNE COLOMBES",92250,48.9120593,2.2561013
SG SOCIETE GENERALE,"3 PL DES CHAMPS PHILIPPE, 92250 LA GARENNE COLOMBES",92250,48.903867,2.233978
SG SOCIETE GENERALE,"62 AV FOCH, 92250 LA GARENNE COLOMBES",92250,48.9091984,2.2459444
SG SOCIETE GENERALE,"7 PL CHARLES PASQUA, 92350 LE PLESSIS ROBINSON",92350,48.77913,2.260716
SG SOCIETE GENERALE,"9 PL DU GAL LECLERC, 92300 LEVALLOIS PERRET",92300,48.8937068,2.2888286
SG SOCIETE GENERALE,"51 RUE MARIUS AUFAN, 92300 LEVALLOIS PERRET",92300,48.8905567,2.2844025
SG SOCIETE GENERALE,"80 RUE VICTOR HUGO, 92300 LEVALLOIS PERRET",92300,48.8992331,2.2935107
SG SOCIETE GENERALE,"27 AV GEORGES POMPIDOU, 92300 LEVALLOIS PERRET",92300,48.8981238,2.2798491
SG SOCIETE GENERALE,"96 RUE DE VILLIERS, 92300 LEVALLOIS PERRET",92300,48.894087,2.2756654
SG SOCIETE GENERALE,"18 RUE BERANGER, 92240 MALAKOFF",92240,48.8210608,2.3029313
SG SOCIETE GENERALE,"24 RUE MARCEL ALLEGOT, 92190 MEUDON",92190,48.8203839,2.2285601
SG SOCIETE GENERALE,"36 RUE DE LA REPUBLIQUE, 92190 MEUDON",92190,48.8072329,2.2355969
SG SOCIETE GENERALE,"10 GALERIE DU PATIO, 92360 MEUDON",92360,48.7867825,2.2273835
SG SOCIETE GENERALE,"24 PL JEAN JAURES, 92120 MONTROUGE",92120,48.8158837,2.3116349
SG SOCIETE GENERALE,"31 RUE GABRIEL PERI, 92120 MONTROUGE",92120,48.8180897,2.3215561
SG SOCIETE GENERALE,"48 RUE M. THOREZ, 92000 NANTERRE",92000,48.8927571,2.2073555
SG SOCIETE GENERALE,"195 AV CHARLES DE GAULLE., 92200 NEUILLY SUR SEINE",92200,48.8842265,2.2610677
SG SOCIETE GENERALE,"33 RUE DE CHEZY, 92200 NEUILLY SUR SEINE",92200,48.8869863,2.2698812
SG SOCIETE GENERALE,"122 AV CH. DE GAULLE, 92200 NEUILLY SUR SEINE",92200,48.8800377,2.2574686
SG SOCIETE GENERALE,"44 AV CH. DE GAULLE, 92200 NEUILLY SUR SEINE",92200,48.8800377,2.2574686
SG SOCIETE GENERALE,"9 RUE ERNEST DELOISON, 92200 NEUILLY SUR SEINE",92200,48.8769168,2.2496609
SG SOCIETE GENERALE,"148 AV ACHILLE PERETTI, 92200 NEUILLY SUR SEINE",92200,48.8859004,2.2631561
SG SOCIETE GENERALE,"22 RUE ANATOLE France, 92800 PUTEAUX",92800,48.8851358,2.239257
SG SOCIETE GENERALE,"81 AV DU GL DE GAULLE, 92800 PUTEAUX",92800,48.8826783,2.2410408
SG SOCIETE GENERALE,"21 BD RICHARD WALLACE, 92800 PUTEAUX",92800,48.8797192,2.2399638
SG SOCIETE GENERALE,"155 RUE LT CL MONTBRISON, 92500 RUEIL MALMAISON",92500,48.8718031,2.1801931
SG SOCIETE GENERALE,"89 AV PAUL DOUMER, 92500 RUEIL MALMAISON",92500,48.8801689,2.1817648
SG SOCIETE GENERALE,"3 RUE ROGER JOURDAIN, 92500 RUEIL MALMAISON",92500,48.8762588,2.2014226
SG SOCIETE GENERALE,"3 AV EDOUARD BELIN, 92500 RUEIL MALMAISON",92500,48.8879466,2.1689295
SG SOCIETE GENERALE,"106 RUE HOUDAN, 92330 SCEAUX",92330,48.7784347,2.2919225
SG SOCIETE GENERALE,"62 GRANDE RUE, 92310 SEVRES",92310,48.8244656,2.2121121
SG SOCIETE GENERALE,"2 AV DU MAL FOCH, 92210 ST CLOUD",92210,48.8471949,2.2135855
SG SOCIETE GENERALE,"9 PROMENADE ST LEUFROY, 92150 SURESNES",92150,48.8688068,2.2257586
SG SOCIETE GENERALE,"60 AV JEAN JAURES, 92150 SURESNES",92150,48.864142,2.2085405
SG SOCIETE GENERALE,"41 RUE JEAN JAURES, 92170 VANVES",92170,48.824898,2.294553
SG SOCIETE GENERALE,"1 RUE FONDS HUGUENOTS, 92420 VAUCRESSON",92420,48.8364225,2.1506469
SG SOCIETE GENERALE,"46 RUE DE ST-CLOUD, 92410 VILLE D AVRAY",92410,48.8272987,2.1887946
