nom,adresse,code_postal,latitude,longitude
SG SOCIETE GENERALE,"4 AV DE STALINGRAD, 78260 ACHERES",78260,48.960381,2.068619
SG SOCIETE GENERALE,"54 B AV JEAN JAURES, 78390 BOIS D ARCY",78390,48.7997094,2.0387909
SG SOCIETE GENERALE,"1 RUE DE LA REPUBLIQUE, 78270 BONNIERES SUR SEINE",78270,,
SG SOCIETE GENERALE,"CHE DEPARTEMENTAL 110, 78200 BUCHELAY",78200,48.9567026,1.6307396
SG SOCIETE GENERALE,"313 RUE E . JOLLY, 78955 CARRIERES SOUS POISSY",78955,48.9470739,2.0283635
SG SOCIETE GENERALE,"53 BD CARNOT, 78420 CARRIERES SUR SEINE",78420,48.9099022,2.1798809
SG SOCIETE GENERALE,"17 AV GUIBERT C.COMM, 78170 LA CELLE ST CLOUD",78170,48.8497878,2.1395475
SG SOCIETE GENERALE,"PL DE LA MAIRIE, 78240 CHAMBOURCY",78240,48.8973668,2.0255396
SG SOCIETE GENERALE,"4 PL MAURICE BERTEAUX, 78400 CHATOU",78400,48.8871445,2.1549929
SG SOCIETE GENERALE,"20 RUE AUGUSTE RENOIR, 78400 CHATOU",78400,48.902445,2.15624
SG SOCIETE GENERALE,"15 RUE POTTIER, 78150 LE CHESNAY ROCQUENCOURT",78150,48.8269777,2.1248218
SG SOCIETE GENERALE,"17 PL DE LA LIBERTE, 78700 CONFLANS STE HONORINE",78700,49.0058607,2.1160197
SG SOCIETE GENERALE,"54 RUE M. BERTEAUX, 78700 CONFLANS STE HONORINE",78700,49.0017356,2.0973608
SG SOCIETE GENERALE,"1 AV CARNOT, 78290 CROISSY SUR SEINE",78290,48.8788536,2.1425886
SG SOCIETE GENERALE,"R DU CHEMIN AUX BOEUFS, 78990 ELANCOURT",78990,48.7662545,1.9471493
SG SOCIETE GENERALE,"66 RTE DES 40 SOUS, 78410 FLINS-SUR-SEINE",78410,48.9573567,1.8740024
SG SOCIETE GENERALE,"7 RUE PASTEUR, 78330 FONTENAY LE FLEURY",78330,48.8125352,2.0464234
SG SOCIETE GENERALE,"4 AV MLLE DOSNE, 78440 GARGENVILLE",78440,49.021647,1.7808132
SG SOCIETE GENERALE,"10 B PL DE L'EGLISE, 78280 GUYANCOURT",78280,48.7713114,2.0699488
SG SOCIETE GENERALE,"64 GRANDE RUE, 78550 HOUDAN",78550,48.7896808,1.6010681
SG SOCIETE GENERALE,"9 AV DU MARECHAL FOCH, 78800 HOUILLES",78800,48.9229814,2.1882735
SG SOCIETE GENERALE,"10 RUE OBERKAMPF, 78350 JOUY EN JOSAS",78350,48.7639252,2.1675847
SG SOCIETE GENERALE,"4 RUE DE LA CELLE, 78150 LE CHESNAY ROCQUENCOURT",78150,48.8169547,2.1250254
SG SOCIETE GENERALE,"77 RUE EMILE FONTANIER, 78320 LE MESNIL ST DENIS",78320,48.7432295,1.9498548
SG SOCIETE GENERALE,"86 RUE DE PARIS, 78610 LE PERRAY EN YVELINES",78610,48.6992033,1.8590112
SG SOCIETE GENERALE,"81 RUE HENRI CLOPPET, 78110 LE VESINET",78110,48.8902454,2.1402654
SG SOCIETE GENERALE,"16 AV MAURICE JOUET, 78340 LES CLAYES SOUS BOIS",78340,48.8168287,1.9847828
SG SOCIETE GENERALE,"6 PL DE LA LIBERATION, 78130 LES MUREAUX",78130,48.9933291,1.9097581
SG SOCIETE GENERALE,"RUE DU GAL DE GAULLE, 78430 LOUVECIENNES",78430,48.8597363,2.1166739
SG SOCIETE GENERALE,"22 AV DE LONGUEIL, 78600 MAISONS LAFFITTE",78600,48.947212,2.146326
SG SOCIETE GENERALE,"10 AV DE LA REPUBLIQUE, 78200 MANTES LA JOLIE",78200,48.9896242,1.7136586
SG SOCIETE GENERALE,"1 RUE P. DE RONSARD, 78200 MANTES LA JOLIE",78200,48.9567026,1.6307396
SG SOCIETE GENERALE,"40 RUE DES CLOSEAUX, 78750 MAREIL MARLY",78750,48.8869835,2.0781584
SG SOCIETE GENERALE,"C.COM. GRANDES TERRES, 78160 MARLY LE ROI",78160,48.866042,2.0909777
SG SOCIETE GENERALE,"5 PL DU GENERAL DE GAULLE, 78580 MAULE",78580,48.9099365,1.8494382
SG SOCIETE GENERALE,"3 ALL DE COTE D' OR, 78310 MAUREPAS",78310,48.7593965,1.9224347
SG SOCIETE GENERALE,"5 PL BRIGITTE GROS, 78250 MEULAN EN YVELINES",78250,49.004637,1.910142
SG SOCIETE GENERALE,"1 RUE DE PARIS, 78490 MONTFORT L AMAURY",78490,48.7778972,1.8085852
SG SOCIETE GENERALE,"4 RUE ANDRE LEBOURBLANC, 78590 NOISY LE ROI",78590,48.8443048,2.0548354
SG SOCIETE GENERALE,"PL DE L'EGLISE, 78630 ORGEVAL",78630,48.9196417,1.9764532
SG SOCIETE GENERALE,"RUE GRAND PLAISIR, 78370 PLAISIR",78370,47.9269427,1.9712009
SG SOCIETE GENERALE,"86 RUE DU GAL DE GAULLE, 78300 POISSY",78300,48.9240863,2.0326949
SG SOCIETE GENERALE,"29 PL FELIX FAURE, 78120 RAMBOUILLET",78120,48.6430943,1.8265667
SG SOCIETE GENERALE,"35 RUE CH. DE GAULLE, 78730 ST ARNOULT EN YVELINES",78730,48.5652685,1.9611557
SG SOCIETE GENERALE,"2 RUE DE LA REPUBLIQUE, 78100 ST GERMAIN EN LAYE",78100,48.897997,2.0933311
SG SOCIETE GENERALE,"51 RUE DE POLOGNE, 78100 ST GERMAIN EN LAYE",78100,48.8976416,2.0887627
SG SOCIETE GENERALE,"2 AV CHARLES DE GAULLE, 78860 ST NOM LA BRETECHE",78860,48.8554649,2.0204931
SG SOCIETE GENERALE,"40 RUE GABRIEL PERI, 78210 ST CYR L ECOLE",78210,48.8028228,2.060432
SG SOCIETE GENERALE,"34 AV JEAN JAURES, 78500 SARTROUVILLE",78500,48.9410098,2.160855
SG SOCIETE GENERALE,"10/12 RUE DE PARIS, 78100 ST GERMAIN EN LAYE",78100,48.89595,2.0921136
SG SOCIETE GENERALE,"RUE DE L'AURORE, 78100 ST GERMAIN EN LAYE",78100,48.8946891,2.0713548
SG SOCIETE GENERALE,"2 PAS DES LOMBARDS, 78180 MONTIGNY LE BRETONNEUX",78180,48.784318,2.044866
SG SOCIETE GENERALE,"5 AV GENERAL LECLERC, 78470 ST REMY LES CHEVREUSE",78470,48.7065053,2.0714264
SG SOCIETE GENERALE,"54 RUE JEAN JAURES, 78190 TRAPPES",78190,48.7748378,1.997571
SG SOCIETE GENERALE,"184 RUE PAUL DOUMER, 78510 TRIEL SUR SEINE",78510,48.980677,2.0036601
SG SOCIETE GENERALE,"AV DU GAL DE GAULLE, 78140 VELIZY VILLACOUBLAY",78140,48.7838038,2.1941736
SG SOCIETE GENERALE,"RUE DES ROSIERS, 78480 VERNEUIL SUR SEINE",78480,48.9861001,1.9681566
SG SOCIETE GENERALE,"49 RUE DE LA PAROISSE, 78000 VERSAILLES",78000,48.8071075,2.1303481
SG SOCIETE GENERALE,"28 RUE DE MONTREUIL, 78000 VERSAILLES",78000,48.8048056,2.1449087
SG SOCIETE GENERALE,"93 RUE YVES LE COZ, 78000 VERSAILLES",78000,48.7951359,2.1562973
SG SOCIETE GENERALE,"3 RUE DU GENERAL LECLERC, 78000 VERSAILLES",78000,48.7996268,2.1250294
SG SOCIETE GENERALE,"92 B RTE DE MONTESSON, 78110 LE VESINET",78110,48.8995885,2.12174
SG SOCIETE GENERALE,"19 PL DE L'EGLISE, 78670 VILLENNES SUR SEINE",78670,48.9387076,1.9986673
SG SOCIETE GENERALE,"58 RUE RIEUSSEC, 78220 VIROFLAY",78220,48.7996749,2.1713213
SG SOCIETE GENERALE,"21 RUE HELENE BOUCHER, 78960 VOISINS LE BRETONNEUX",78960,48.7583835,2.0514916
