nom,adresse,code_postal,latitude,longitude
Cash Services - Loudeac 16 AVENUE DES COMBATTANTS,"16 AVENUE DES COMBATTANTS, 22600  Loudeac",22600,48.177393,-2.75394
AGENCE LOUDEAC - BNP PARIBAS,"24 avenue Des Combattants, 22600  Loudeac",22600,48.1779444,-2.7539042
AGENCE PONTIVY - BNP PARIBAS,"27 rue De Lourmel, 56300  Pontivy",56300,48.0682831,-2.9636504
AGENCE SAINT BRIEUC - BNP PARIBAS,"11 Place Duguesclin, 22000  Saint-Brieuc",22000,48.5118354,-2.7581937
AGENCE PLOERMEL - BNP PARIBAS,"2 Rue Du Val, Angle Place Lamenais, 56800  Ploermel",56800,47.9327547,-2.3995332
Cash Services - Ploermel 2 RUE DES FORGES,"2 RUE DES FORGES, 56800  Ploermel",56800,47.931507,-2.396971
AGENCE LAMBALLE - BNP PARIBAS,"7 rue De La Croix Aux Feves, 22400  Lamballe",22400,48.46888022555,-2.5168393987192
AGENCE PLERIN - BNP PARIBAS,"19 rue Du Commerce, 22190  Plerin",22190,48.535336099995,-2.7695929953048
Cash Services - Plerin 2 RUE DU GRAND QUARTIER,"2 RUE DU GRAND QUARTIER, 22190  Plerin",22190,48.534558,-2.760267
AGENCE SAINT-MEEN LE GRAND - BNP PARIBAS,"6 rue De Merdrignac, 35290  St Meen Le Grand",35290,48.1899236,-2.1932523
Cash Services - Hennebont 1 RUE ANITA CONTI,"1 RUE ANITA CONTI, 56700  Hennebont",56700,47.800788,-3.261781
Cash Services - Hennebont 10 PLACE MARECHAL FOCH,"10 PLACE MARECHAL FOCH, 56700  Hennebont",56700,47.805324,-3.276582
AGENCE GUINGAMP - BNP PARIBAS,"44 rue Notre Dame, 22200  Guingamp",22200,48.560816667877,-3.14942314124
AGENCE SAINT AVE - BNP PARIBAS,"12 rue Du Guesclin, 56890  Saint Ave",56890,47.689131088593,-2.7357034907726
AGENCE AURAY - BNP PARIBAS,"3 bis rue Aristide Briand, 56400  Auray",56400,47.670071246018,-2.9901823470721
Cash Services - Vannes 110 AVENUE DE LA MARNE,"110 AVENUE DE LA MARNE, 56000  Vannes",56000,47.660686,-2.787779
AGENCE CARHAIX - BNP PARIBAS,"2 rue Aristide Briand, 29270  Carhaix Plouguer",29270,48.276417083926,-3.5712975263893
AGENCE VANNES - BNP PARIBAS,"9 place De La Republique, 56000  Vannes",56000,47.655594201191,-2.7598464482592
Cash Services - Auray 43 AVENUE DE L OCEAN,"43 AVENUE DE L OCEAN, 56400  Auray",56400,47.663963,-3.005206
Cash Services - Sene 15 ROUTE DE NANTES,"15 ROUTE DE NANTES, 56860  Sene",56860,47.654074,-2.736508
AGENCE VANNES SENE - BNP PARIBAS,"route De Nantes, Batiment C, 56860  Sene",56860,47.651251000101,-2.7256188247452
Cash Services - Lanester 160 RUE JEAN JAURES,"160 RUE JEAN JAURES, 56600  Lanester",56600,47.76898,-3.351535
AGENCE GUER COETQUIDAN BELLEVUE - BNP PARIBAS,"7 rue De Saint Cyr, 56380  Guer",56380,47.943551604729,-2.131079398202
AGENCE LORIENT - BNP PARIBAS,"54 rue Du Port, 56100  Lorient",56100,47.747311370912,-3.3601296329916
AGENCE LORIENT QUEUDET - BNP PARIBAS,"1 rue Des Micocouliers, Za Du Bourgneuf, 56100  Lorient",56100,47.758239415082,-3.3907175209504
AGENCE PLANCOET - BNP PARIBAS,"4bis Rue Du Pont, 22130  Plancoet",22130,48.5220364,-2.2349952
AGENCE QUIMPERLE - BNP PARIBAS,"1 rue Leuriou, 29300  Quimperle",29300,47.872508828833,-3.5495996245716
AGENCE PLOEMEUR - BNP PARIBAS,"13 rue Saint Bieuzy, Residence Clair Matin, 56270  Ploemeur",56270,47.735666524741,-3.4290429383213
Cash Services - Montfort Sur Meu 2 RUE SAINT NICOLAS,"2 RUE SAINT NICOLAS, 35160  Montfort Sur Meu",35160,48.137733,-1.953239
Cash Services - Carnac 74 AVENUE DES DRUIDES,"74 AVENUE DES DRUIDES, 56340  Carnac",56340,47.573399,-3.072306
AGENCE DINAN - BNP PARIBAS,"3 Place Duclos, 22100  Dinan",22100,48.454000553,-2.0486930705696
AGENCE SARZEAU - BNP PARIBAS,"59 Rue Pere Coudrin, 56370  Sarzeau",56370,47.524521,-2.7693154
AGENCE PAIMPOL - BNP PARIBAS,"5 place Du Martray, 22500  Paimpol",22500,48.7796478,-3.0451158
Cash Services - Muzillac 8 RUE D ARMORIQUE,"8 RUE D ARMORIQUE, 56190  Muzillac",56190,47.552952,-2.483048
AGENCE MORDELLES - BNP PARIBAS,"4 avenue Du Marechal Leclerc, 35310  Mordelles",35310,48.072330730041,-1.8496159464321
Cash Services - Mordelles AVENUE DES PLATANES,"AVENUE DES PLATANES, 35310  Mordelles",35310,48.081094,-1.835869
AGENCE QUIBERON - BNP PARIBAS,"place De La Republique, 56170  Quiberon",56170,47.479335595358,-3.1231755344634
Cash Services - Loheac 28 RUE DE LA POSTE,"28 RUE DE LA POSTE, 35550  Loheac",35550,47.867003,-1.885047
AGENCE DINARD - BNP PARIBAS,"1 avenue Edouard Vii, 35800  Dinard",35800,48.633317714772,-2.056979108311
AGENCE LANNION - BNP PARIBAS,"9 quai D'Aiguillon, 22300  Lannion",22300,48.731860741855,-3.4609883969561
AGENCE REDON - BNP PARIBAS,"52 rue Des Douves, 35600  Redon",35600,47.649837272051,-2.0865080456116
AGENCE SAINT MALO SAINT SERVAN - BNP PARIBAS,"1 Rue Ville Pepin, 35400  Saint-Malo",35400,48.6372384,-2.0157371
AGENCE BRUZ VERT BUISSON - BNP PARIBAS,"1 place Du Vert Buisson, Zac Du Vert Buisson - C. Commercial, 35170  Bruz",35170,48.030044543077,-1.7594382137547
Cash Services - Cancale LA NOUVELLE VAGUE,"LA NOUVELLE VAGUE, 35260  Cancale",35260,48.633863,-1.990119
AGENCE SAINT MALO - BNP PARIBAS,"39-47 Avenue Jean Jaures, 35400  Saint-Malo",35400,48.6486692,-2.0051567
AGENCE RENNES VILLEJEAN - BNP PARIBAS,"21 cours Kennedy, 35000  Rennes",35000,48.121205427358,-1.7088945134918
AGENCE COMBOURG - BNP PARIBAS,"4 rue Notre Dame, 35270  Combourg",35270,48.409013902866,-1.750972390269
Cash Services - St Jacques De La Lande 337 RUE DE NANTES,"337 RUE DE NANTES, 35136  St Jacques De La Lande",35136,48.089274,-1.693175
AGENCE PERROS GUIREC - BNP PARIBAS,"9 Rue Du General De Gaulle, 22700  Perros-Guirec",22700,48.8143944,-3.4449319
AGENCE SAINT GREGOIRE - BNP PARIBAS,"20 rue Alphonse Milon, 35760  St Gregoire",35760,48.1536674,-1.6839506
AGENCE CONCARNEAU - BNP PARIBAS,"1 bis avenue Du Docteur Nicolas, 29900  Concarneau",29900,47.870781082439,-3.9177644143289
AGENCE RENNES QUAIS - BNP PARIBAS,"18 quai Duguay Trouin, 35000  Rennes",35000,48.110247080239,-1.682418853004
AGENCE RENNES INTERNATIONAL - BNP PARIBAS,"18 Quai Duguay Trouin, 35000  Rennes",35000,48.1103409,-1.6823605
AGENCE RENNES SAINT-MICHEL - BNP PARIBAS,"13 rue Rallier Du Baty, Residence St Michel, 35000  Rennes",35000,48.1132315,-1.6815957
AGENCE RENNES MAIRIE - BNP PARIBAS,"7 rue D'Orleans, 35000  Rennes",35000,48.110883973004,-1.6793642748501
Cash Services - Perros Guirec 128 AVENUE DU CASINO,"128 AVENUE DU CASINO, 22700  Perros Guirec",22700,48.815593,-3.458303
AGENCE RENNES LIBERTE - BNP PARIBAS,"12 rue D Isly, 35000  Rennes",35000,48.106504655845,-1.6779535329529
AGENCE MORLAIX - BNP PARIBAS,"1 place Des Viarmes, 29600  Morlaix",29600,48.577312358125,-3.8264227941398
AGENCE RENNES CENTRE ALMA - BNP PARIBAS,"5 rue De Bosphore, 35200  Rennes",35200,48.082932474832,-1.6771676690338
AGENCE RENNES VOLNEY SEVIGNE - BNP PARIBAS,"175 rue De Fougeres, 35000  Rennes",35000,48.122420900972,-1.661732417791
Cash Services - Plouezoc H PLACE DU BOURG,"PLACE DU BOURG, 29252  Plouezoc H",29252,48.639785,-3.822047
AGENCE CHANTEPIE - BNP PARIBAS,"53 Avenue Andre Bonnin, 35135  Chantepie",35135,48.089046709509,-1.6206044625961
Cash Services - Cesson Sevigne 38 B RUE DE RENNES,"38 B RUE DE RENNES, 35510  Cesson Sevigne",35510,48.114398,-1.617389
AGENCE CESSON BEAUSOLEIL - BNP PARIBAS,"rue Du Muguet, Centre Commercial Beausoleil, 35510  Cesson Sevigne",35510,48.11735701,-1.609011
AGENCE FOUESNANT - BNP PARIBAS,"6 Rue Ar Mor, 29170  Fouesnant",29170,47.8942127,-4.0110658
AGENCE DOL DE BRETAGNE - BNP PARIBAS,"1 Rue Lejamptel, 35120  Dol-De-Bretagne",35120,48.5501263,-1.7535515
Cash Services - Ergue Gaberic 83 AVENUE DU ROUILLEN,"83 AVENUE DU ROUILLEN, 29500  Ergue Gaberic",29500,47.999497,-4.054146
Cash Services - Bain De Bretagne 8 RUE DES ESTUAIRES,"8 RUE DES ESTUAIRES, 35470  Bain De Bretagne",35470,47.855733,-1.688247
AGENCE VERN SUR SEICHE - BNP PARIBAS,"place Hotel De Ville, 35770  Vern Sur Seiche",35770,48.045057228794,-1.6028740741896
AGENCE CHATEAULIN - BNP PARIBAS,"11 quai Jean Moulin, 29150  Chateaulin",29150,48.1957103,-4.0937113
AGENCE QUIMPER - BNP PARIBAS,"26 Rue Du Parc, 29000  Quimper",29000,47.9944766,-4.105498
Cash Services - Quimper 97 ROUTE DE BENODET,"97 ROUTE DE BENODET, 29000  Quimper",29000,47.981947,-4.10269
Cash Services - Dineault RUE DE LA TOUR D AUVERGNE,"RUE DE LA TOUR D AUVERGNE, 29150  Dineault",29150,48.218963,-4.164349
Cash Services - Landivisiau 28 RUE PINVIDIC,"28 RUE PINVIDIC, 29402  Landivisiau",29402,48.508703,-4.070164
AGENCE LANDIVISIAU - BNP PARIBAS,"7 avenue Du Marechal Foch, 29400  Landivisiau",29400,48.51078263425,-4.0690134024468
Cash Services - Janze 23 RUE DE BEL AIR,"23 RUE DE BEL AIR, 35150  Janze",35150,47.955396,-1.502684
AGENCE SAINT POL DE LEON - BNP PARIBAS,"9 place De Guebriant, 29250  St Pol De Leon",29250,48.684312842106,-3.986366291996
Cash Services - Santec PLACE DE MESCREN,"PLACE DE MESCREN, 29250  Santec",29250,48.703061,-4.025828
AGENCE PONT L'ABBE - BNP PARIBAS,"26 place Gambetta, 29120  Pont L Abbe",29120,47.86462310438,-4.2228823619018
Cash Services - Chateaubourg 1 BIS CC BRETONNIERE,"1 BIS CC BRETONNIERE, 35220  Chateaubourg",35220,48.105564,-1.390231
AGENCE LANDERNEAU - BNP PARIBAS,"13 rue De La Tour D'Auvergne, 29800  Landerneau",29800,48.450989467867,-4.2487495652331
Cash Services - Landerneau 34 QUAI DE LEON,"34 QUAI DE LEON, 29800  Landerneau",29800,48.449683,-4.252235
AGENCE DOUARNENEZ - BNP PARIBAS,"12 rue Jean Bart, 29100  Douarnenez",29100,48.093782342523,-4.3295371896613
AGENCE PLOUGASTEL DAOULAS - BNP PARIBAS,"7 place Du Calvaire, 29470  Plougastel Daoulas",29470,48.374284492336,-4.3689357022243
AGENCE VITRE - BNP PARIBAS,"21 rue Garengeot, 35500  Vitre",35500,48.123522066066,-1.2120059006511
AGENCE CROZON - BNP PARIBAS,"5 rue De Reims, 29160  Crozon",29160,48.246342645773,-4.4900192124287
AGENCE FOUGERES - BNP PARIBAS,"14 boulevard Marechal Leclerc, 35300  Fougeres",35300,48.3537144,-1.1994134
Cash Services - Brest 146 RUE JEAN JAURES,"146 RUE JEAN JAURES, 29200  Brest",29200,48.396786,-4.476415
AGENCE BREST JEAN JAURES - BNP PARIBAS,"1 Rue Victor Hugo, 29200  Brest",29200,48.3924848,-4.4822192
AGENCE BREST - BNP PARIBAS,"28 rue D'Aiguillon, 29200  Brest",29200,48.385781114726,-4.4891139803566
Cash Services - Brest 11 PLACE DES F F I,"11 PLACE DES F F I, 29200  Brest",29200,48.417782,-4.492825
AGENCE BREST BELLEVUE - BNP PARIBAS,"16 avenue De Tarente, 29200  Brest",29200,48.4038754,-4.5091574
