nom,adresse,code_postal,latitude,longitude
AGENCE LUNEVILLE - BNP PARIBAS,"36 rue Gambetta, 54300  Luneville",54300,48.590690825986,6.495547784798
Cash Services - Dombasle Sur Meurthe 57 RUE CARNOT,"57 RUE CARNOT, 54110  Dombasle Sur Meurthe",54110,48.623382,6.34994
Cash Services - Essey Les Nancy AVENUE DE SAULXURES,"AVENUE DE SAULXURES, 54270  Essey Les Nancy",54270,48.705559,6.245608
Cash Services - Jarville La Malgrange 113 RUE DE LA REPUBLIQUE,"113 RUE DE LA REPUBLIQUE, 54140  Jarville La Malgrange",54140,48.668462,6.208628
Cash Services - Tomblaine AVENUE EUGENE POTTIER,"AVENUE EUGENE POTTIER, 54510  Tomblaine",54510,48.688727,6.216089
Cash Services - St Max 105 AVENUE CARNOT,"105 AVENUE CARNOT, 54130  St Max",54130,48.702287,6.21305
AGENCE SAINT MAX - BNP PARIBAS,"17-19 avenue Carnot, 54130  Saint-Max",54130,48.7000452,6.2053166
AGENCE VANDOEUVRE LES NANCY - BNP PARIBAS,"5 rue De Remich, Residence Montet-europe, 54500  Vandoeuvre Les Nancy",54500,48.667304225336,6.1680137471692
AGENCE NANCY ST JEAN - BNP PARIBAS,"58 rue Saint Jean, 54000  Nancy",54000,48.6896787,6.1787334
Cash Services - Nancy 31 RUE GUSTAVE SIMON,"31 RUE GUSTAVE SIMON, BP 70228, 54004  Nancy",54004,48.69335,6.179279
AGENCE NANCY TROIS MAISONS - BNP PARIBAS,"4 bis rue De La Citadelle, 54000  Nancy",54000,48.700654127814,6.1781332829132
AGENCE NANCY ANATOLE FRANCE - BNP PARIBAS,"2 avenue Anatole France, 54000  Nancy",54000,48.688211864472,6.1654194738775
AGENCE LAXOU VILLERS - BNP PARIBAS,"1 avenue De La Liberation, 54520  Laxou",54520,48.677407180181,6.1564960196434
AGENCE CHAMPIGNEULLES - BNP PARIBAS,"1 rue De Nancy, 54250  Champigneulles",54250,48.73417842479,6.1690354059638
Cash Services - Laxou 11 AVENUE DE LA RESISTANCE,"11 AVENUE DE LA RESISTANCE, 54520  Laxou",54520,48.693539,6.131965
Cash Services - Frouard 22 RUE DE METZ,"22 RUE DE METZ, 54390  Frouard",54390,48.759517,6.133673
Cash Services - Baccarat 25 RUE ADRIEN MICHAUT,"25 RUE ADRIEN MICHAUT, 54120  Baccarat",54120,48.448301,6.736861
Cash Services - Dieuze 5 PLACE DU MARCHE,"5 PLACE DU MARCHE, 57260  Dieuze",57260,48.811291,6.720528
AGENCE TOUL - BNP PARIBAS,"20 rue Du Docteur Chapuis, 54200  Toul",54200,48.674715676879,5.8913443
AGENCE PONT A MOUSSON - BNP PARIBAS,"3 place Duroc, 54700  Pont A Mousson",54700,48.902838722375,6.0539932378899
AGENCE SARREBOURG - BNP PARIBAS,"15 avenue Poincare, 57400  Sarrebourg",57400,48.736448164931,7.0524708472908
AGENCE GOLBEY - BNP PARIBAS,"21 rue D Epinal, 88190  Golbey",88190,48.196353514448,6.4380588779098
Cash Services - Golbey 31 RUE DES ACACIAS,"31 RUE DES ACACIAS, 88190  Golbey",88190,48.194231,6.448093
Cash Services - Sarrebourg ROUTE DE PHALSBOURG,"ROUTE DE PHALSBOURG, 57400  Sarrebourg",57400,48.739297,7.067996
Cash Services - Epinal 8 B ROUTE DE JEUXEY,"8 B ROUTE DE JEUXEY, 88000  Epinal",88000,48.192923,6.45332
Cash Services - Faulquemont 14 RUE DE METZ,"14 RUE DE METZ, 57380  Faulquemont",57380,49.041662,6.599814
Cash Services - Sarraltroff 1 RUE DE FENETRANGE,"1 RUE DE FENETRANGE, 57400  Sarraltroff",57400,48.773729,7.061371
Cash Services - Epinal 108 FAUBOURG D AMBRAIL,"108 FAUBOURG D AMBRAIL, 88000  Epinal",88000,48.175865,6.462761
AGENCE EPINAL - BNP PARIBAS,"12 Quai Des Bons Enfants, 88000  Epinal",88000,48.1752926,6.445373
Cash Services - Crehange 3 RUE DE METZ,"3 RUE DE METZ, 57690  Crehange",57690,49.061928,6.579816
Cash Services - Reding 63 RUE DE PHALSBOURG,"63 RUE DE PHALSBOURG, 57445  Reding",57445,48.744674,7.102042
AGENCE BRUYERES - BNP PARIBAS,"51 rue Du Cameroun, 88600  Bruyeres",88600,48.209295811652,6.7217883391479
AGENCE SAINT DIE DES VOSGES - BNP PARIBAS,"1 place Saint Martin, 88100  St Die Des Vosges",88100,48.2844901,6.9497907
Cash Services - Montigny Les Metz 28 RUE DE NOMENY,"28 RUE DE NOMENY, 57950  Montigny Les Metz",57950,49.087961,6.156177
AGENCE METZ TECHNOPOLE - BNP PARIBAS,"219 bis avenue De Strasbourg, 57070  Metz",57070,49.103848792182,6.2119790889467
Cash Services - Jouy Aux Arches 14 ALLEE DES TILLEULS,"14 ALLEE DES TILLEULS, 57130  Jouy Aux Arches",57130,49.073791,6.096308
Cash Services - Metz AVENUE SEBASTOPOL,"AVENUE SEBASTOPOL, 57070  Metz",57070,49.111151,6.230752
Cash Services - Moulins Les Metz ZI TOURNEBRIDE RTE JOUY,"ZI TOURNEBRIDE RTE JOUY, 57160  Moulins Les Metz",57160,49.085465,6.113875
AGENCE SAINT AVOLD - BNP PARIBAS,"5 Bis Place Saint-nabor, 57500  Saint-Avold",57500,49.1051149,6.7081178
Cash Services - Metz 2 RUE DES MESSAGERIES,"2 RUE DES MESSAGERIES, 57000  Metz",57000,49.106508,6.182268
AGENCE MONTIGNY LES METZ - BNP PARIBAS,"101 Rue De Pont-a-mousson, 57950  Montigny-Les-Metz",57950,49.1017197,6.1564558
Cash Services - Metz 17 RUE DU SABLON,"17 RUE DU SABLON, BP 80287, 57006  Metz",57006,49.107805,6.17156
Cash Services - Metz 44 AVENUE DE NANCY,"44 AVENUE DE NANCY, 57000  Metz",57000,49.106463,6.164097
AGENCE METZ DEROULEDE - BNP PARIBAS,"5 place Raymond Mondon, 57000  Metz",57000,49.111351748092,6.1731059439034
AGENCE METZ - BNP PARIBAS,"5 avenue Robert Schuman, 57000  Metz",57000,49.1149247,6.1736175999999
Cash Services - Metz 10 RUE DU PONT DES MORTS,"10 RUE DU PONT DES MORTS, 57000  Metz",57000,49.12005,6.169853
AGENCE VITTEL - BNP PARIBAS,"202 rue De Verdun, 88800  Vittel",88800,48.201478806156,5.9456448190491
Cash Services - Sarralbe 4 RUE DE L HOPITAL,"4 RUE DE L HOPITAL, BP 20010, 57430  Sarralbe",57430,48.998761,7.027966
Cash Services - Vittel 667 AVENUE GEORGES CLEMENCEAU,"667 AVENUE GEORGES CLEMENCEAU, 88800  Vittel",88800,48.196824,5.936046
Cash Services - Boulay 21 PLACE DE LA REPUBLIQUE,"21 PLACE DE LA REPUBLIQUE, 57220  Boulay",57220,49.18419,6.49528
AGENCE REMIREMONT - BNP PARIBAS,"68 rue Charles De Gaulle, 88200  Remiremont",88200,48.016233910413,6.5929660445876
AGENCE SAVERNE - BNP PARIBAS,"64 Grand Rue, 67700  Saverne",67700,48.741528211125,7.3621013802447
Cash Services - Saverne 15 RUE DES BAINS,"15 RUE DES BAINS, 67700  Saverne",67700,48.737473,7.36645
AGENCE GERARDMER - BNP PARIBAS,"50 rue Francois Mitterrand, 88400  Gerardmer",88400,48.070037815338,6.8746320527787
Cash Services - Remiremont 26 ROUTE DE BUSSANG,"26 ROUTE DE BUSSANG, 88200  Remiremont",88200,48.003458,6.612059
Cash Services - Ville 10 RUE LOUIS PASTEUR,"10 RUE LOUIS PASTEUR, 67220  Ville",67220,48.343824,7.304464
Cash Services - Vagney 11 A RUE DU GENERAL DE GAULLE,"11 A RUE DU GENERAL DE GAULLE, 88120  Vagney",88120,48.012205,6.715381
Cash Services - Sarreguemines RUE RAYMOND POINCARE,"RUE RAYMOND POINCARE, 57200  Sarreguemines",57200,49.10722,7.07146
AGENCE SARREGUEMINES - BNP PARIBAS,"7 rue De La Chapelle, 57200  Sarreguemines",57200,49.109733330013,7.0678014834934
Cash Services - Oeting IMPASSE SIGMA,"IMPASSE SIGMA, 57600  Oeting",57600,49.177704,6.919526
AGENCE FORBACH - BNP PARIBAS,"53 rue Nationale, 57600  Forbach",57600,49.187138564188,6.901320527616
Cash Services - Ville RUE DE L UNGERSBERG,"RUE DE L UNGERSBERG, 67220  Ville",67220,48.338386,7.316429
Cash Services - Amneville Les Thermes RUE DES THERMES,"RUE DES THERMES, 57360  Amneville Les Thermes",57360,49.242778,6.135319
AGENCE HAGONDANGE - BNP PARIBAS,"29 rue De La Gare, 57300  Hagondange",57300,49.251488238521,6.1674107218139
Cash Services - Westhoffen 2 RUE DU STAEDTEL,"2 RUE DU STAEDTEL, 67310  Westhoffen",67310,48.604382,7.441982
Cash Services - Wasselonne 24 PLACE DU MARCHE,"24 PLACE DU MARCHE, 67310  Wasselonne",67310,48.637225,7.448119
Cash Services - Conflans En Jarnisy 14 RUE DE VERDUN,"14 RUE DE VERDUN, 54800  Conflans En Jarnisy",54800,49.167707,5.855827
Cash Services - Mutzig 1 A AVENUE DU GENERAL DE GAULLE,"1 A AVENUE DU GENERAL DE GAULLE, 67190  Mutzig",67190,48.53822,7.458469
Cash Services - Clouange 52 RUE CLEMENCEAU,"52 RUE CLEMENCEAU, 57185  Clouange",57185,49.260126,6.095266
AGENCE MOLSHEIM - BNP PARIBAS,"2 avenue De La Gare, 67120  Molsheim",67120,48.539965060043,7.4921461408599
Cash Services - Barr 55 RUE DE LA KIRNECK,"55 RUE DE LA KIRNECK, 67140  Barr",67140,48.408278,7.45305
AGENCE OBERNAI - BNP PARIBAS,"19 rue Du Marche, 67210  Obernai",67210,48.462023785534,7.4828197276126
Cash Services - Willgottheim 10 RUE PRINCIPALE,"10 RUE PRINCIPALE, 67370  Willgottheim",67370,48.668584,7.514591
AGENCE BRIEY - BNP PARIBAS,"10 rue Marechal Foch, 54150  Val De Briey",54150,49.248055305524,5.9406796571473
Cash Services - Gertwiller 2 ROUTE DE BOURGHEIM,"2 ROUTE DE BOURGHEIM, 67140  Gertwiller",67140,48.415766,7.475884
Cash Services - Ingwiller 12 RUE DU COMMERCE,"12 RUE DU COMMERCE, 67340  Ingwiller",67340,48.863054,7.46556
Cash Services - Ribeauville PLACE DE L HOTEL DE VILLE,"PLACE DE L HOTEL DE VILLE, 68150  Ribeauville",68150,48.233415,7.36804
Cash Services - Kaysersberg Vignoble 44 RUE DU GENERAL DE GAULLE,"44 RUE DU GENERAL DE GAULLE, KAYSERSBERG, 68240  Kaysersberg Vignoble",68240,48.138809,7.262627
Cash Services - Ribeauville 12 RUE DE L INDUSTRIE,"12 RUE DE L INDUSTRIE, 68150  Ribeauville",68150,48.191665,7.337677
Cash Services - Munster 30 GRAND RUE,"30 GRAND RUE, 68140  Munster",68140,48.041688,7.134814
Cash Services - Orschwiller AIRE DU HAUT KOENIGSBOURG,"AIRE DU HAUT KOENIGSBOURG, 67600  Orschwiller",67600,48.232196,7.403821
Cash Services - Meistratzheim 273 A RUE DE L EGLISE,"273 A RUE DE L EGLISE, 67210  Meistratzheim",67210,48.447625,7.541356
AGENCE HAYANGE - BNP PARIBAS,"6 rue Du General De Gaulle, 57700  Hayange",57700,49.330310755756,6.0631878411392
AGENCE YUTZ - BNP PARIBAS,"31 esplanade De La Brasserie, 57970  Yutz",57970,49.357912241792,6.185632574401
AGENCE SELESTAT - BNP PARIBAS,"4 avenue De La Liberte, 67600  Selestat",67600,48.258676329861,7.4477883267507
Cash Services - Thionville 1 PLACE CLAUDE ARNOULT,"1 PLACE CLAUDE ARNOULT, 57100  Thionville",57100,49.359146,6.167539
AGENCE THIONVILLE - BNP PARIBAS,"33 place Turenne, 57100  Thionville",57100,49.359111302924,6.1639445619713
Cash Services - Turckheim 4 PLACE TURENNE,"4 PLACE TURENNE, 68230  Turckheim",68230,48.086716,7.277864
Cash Services - Colmar 16 B AVENUE DE LA LIBERTE,"16 B AVENUE DE LA LIBERTE, 68000  Colmar",68000,48.076534,7.340869
AGENCE COLMAR - BNP PARIBAS,"6 avenue De La Republique, 68000  Colmar",68000,48.07775575865,7.3533489120941
AGENCE BOURBONNE LES BAINS - BNP PARIBAS,"19 Grande Rue, 52400  Bourbonne Les Bains",52400,47.95297,5.7483298
Cash Services - Colmar 1 AVENUE D ALSACE,"1 AVENUE D ALSACE, 68000  Colmar",68000,48.080772,7.364575
AGENCE COLMAR GRAND RUE - BNP PARIBAS,"4 Grand Rue, 68000  Colmar",68000,48.077489441877,7.3604757153443
Cash Services - Colmar 28 RUE TURENNE,"28 RUE TURENNE, 68000  Colmar",68000,48.073189,7.358907
Cash Services - Lingolsheim 80 RUE DU MARECHAL FOCH,"80 RUE DU MARECHAL FOCH, 67380  Lingolsheim",67380,48.558001,7.683308
Cash Services - Bernolsheim ROUTE DE BRUMATH,"ROUTE DE BRUMATH, 67170  Bernolsheim",67170,48.748235,7.689876
Cash Services - Strasbourg 84 ROUTE DES ROMAINS,"84 ROUTE DES ROMAINS, BP 94030, 67034  Strasbourg",67034,48.579377,7.713819
Cash Services - Ostwald 3 RUE DE LA CHAPELLE,"3 RUE DE LA CHAPELLE, 67540  Ostwald",67540,48.555041,7.712129
Cash Services - Brumath 1 RUE DU GENERAL DE GAULLE,"1 RUE DU GENERAL DE GAULLE, 67170  Brumath",67170,48.731268,7.70807
AGENCE ILLKIRCH GRAFFENSTADEN - BNP PARIBAS,"207 route De Lyon, 67400  Illkirch Graffenstaden",67400,48.526583082867,7.7094379272494
Cash Services - Mundolsheim ROUTE NATIONALE 63,"ROUTE NATIONALE 63, 67450  Mundolsheim",67450,48.651444,7.723744
Cash Services - Gundershoffen 2 RUE DU MAIRE SPIESS,"2 RUE DU MAIRE SPIESS, 67110  Gundershoffen",67110,48.906179,7.655177
Cash Services - Strasbourg 25 RUE DU VIEUX MARCHE AUX VINS,"25 RUE DU VIEUX MARCHE AUX VINS, 67000  Strasbourg",67000,48.584075,7.741913
Cash Services - Marckolsheim 16 RUE CLEMENCEAU,"16 RUE CLEMENCEAU, 67390  Marckolsheim",67390,48.167067,7.54569
AGENCE SCHILTIGHEIM - BNP PARIBAS,"63 route De Bischwiller, 67300  Schiltigheim",67300,48.60680263167,7.7491038266614
AGENCE STRASBOURG - BNP PARIBAS,"2 rue Du Dome, 67000  Strasbourg",67000,48.584037576507,7.7493038081609
AGENCE STRASBOURG INTERNATIONAL - BNP PARIBAS,"2 Rue Du Dome, 67000  Strasbourg",67000,48.584037576507,7.7493038081609
AGENCE BAR LE DUC - BNP PARIBAS,"37 Rue Jean-jacques Rousseau, 55000  Bar-Le-Duc",55000,48.773145,5.1597302
Cash Services - Marckolsheim 14 AVENUE DE L EUROPE,"14 AVENUE DE L EUROPE, 67390  Marckolsheim",67390,48.164942,7.555903
Cash Services - Strasbourg 9 QUAI DES PECHEURS,"9 QUAI DES PECHEURS, 67000  Strasbourg",67000,48.583007,7.758036
AGENCE STRASBOURG NEUDORF - BNP PARIBAS,"79 route Du Polygone, 67000  Strasbourg",67000,48.56695454126,7.7584450432174
Cash Services - Hoenheim 13 ROUTE DE LA WANTZENAU,"13 ROUTE DE LA WANTZENAU, 67800  Hoenheim",67800,48.630395,7.762338
AGENCE STRASBOURG PLACE BRANT - BNP PARIBAS,"2 place Sebastien Brant, 67000  Strasbourg",67000,48.586054846358,7.7626265709307
AGENCE STRASBOURG ESPLANADE - BNP PARIBAS,"12 rue De Rome, 67000  Strasbourg",67000,48.577179990484,7.7671433825667
AGENCE GUEBWILLER - BNP PARIBAS,"55 rue De La Republique, 68500  Guebwiller",68500,47.908655330113,7.2119145484794
AGENCE STRASBOURG BOULEVARD D'ANVERS - BNP PARIBAS,"11 rue De Verdun, 67000  Strasbourg",67000,48.586427268782,7.7713224075059
AGENCE VERDUN - BNP PARIBAS,"5 place Foch, 55100  Verdun",55100,49.1599255,5.3842594
Cash Services - Strasbourg 75 RUE BOECKLIN,"75 RUE BOECKLIN, 67000  Strasbourg",67000,48.600857,7.781275
Cash Services - Strasbourg 93 RUE BOECKLIN,"93 RUE BOECKLIN, 67000  Strasbourg",67000,48.602052,7.782583
AGENCE STRASBOURG ROBERTSAU - BNP PARIBAS,"92 rue Boecklin, 67000  Strasbourg",67000,48.602980227264,7.782967773554
AGENCE HAGUENAU - BNP PARIBAS,"14 rue Saint Georges, 67500  Haguenau",67500,48.813457269634,7.7862689092419
AGENCE THANN - BNP PARIBAS,"5 rue Saint Thiebaut, 68800  Thann",68800,47.811657355981,7.1015261431666
Cash Services - Haguenau ROUTE DU RHIN,"ROUTE DU RHIN, 67500  Haguenau",67500,48.815245,7.809583
Cash Services - Nogent 13 PL DU GENERAL CHARLES DE GAULLE,"13 PL DU GENERAL CHARLES DE GAULLE, 52800  Nogent",52800,48.027515,5.34137
Cash Services - Cernay 1 RUE DU MARECHAL FOCH,"1 RUE DU MARECHAL FOCH, 68700  Cernay",68700,47.808608,7.175192
AGENCE CERNAY - BNP PARIBAS,"27 rue Raymond Poincare, 68700  Cernay",68700,47.8072628,7.1756359999999
Cash Services - Hussigny Godbrange 6 RUE DU MARECHAL FOCH,"6 RUE DU MARECHAL FOCH, 54590  Hussigny Godbrange",54590,49.493373,5.872811
Cash Services - Gambsheim RTE DE HERRLISHEIM,"RTE DE HERRLISHEIM, 67760  Gambsheim",67760,48.716524,7.914699
AGENCE SAINT DIZIER - BNP PARIBAS,"12 avenue De La Republique, 52100  Saint-Dizier",52100,48.637459006317,4.9461850134918
AGENCE LONGWY HAUT - BNP PARIBAS,"14-16 rue De Mercy, 54400  Longwy",54400,49.5234065,5.7645853
AGENCE WITTENHEIM - BNP PARIBAS,"44 rue De Kingersheim, 68270  Wittenheim",68270,47.805744486668,7.3369723393223
AGENCE CHAUMONT - BNP PARIBAS,"31 rue De Verdun, 52000  Chaumont",52000,48.111044764652,5.1358640964927
Cash Services - Baldersheim RUE PRINCIPALE,"RUE PRINCIPALE, 68390  Baldersheim",68390,47.801541,7.381349
Cash Services - Mulhouse 120 RUE LEFEBVRE,"120 RUE LEFEBVRE, 68100  Mulhouse",68100,47.764998,7.337806
Cash Services - Illzach 14 RUE DE BERNE,"14 RUE DE BERNE, 68110  Illzach",68110,47.771849,7.387361
Cash Services - Mulhouse 1 BOULEVARD DE L EUROPE,"1 BOULEVARD DE L EUROPE, 68100  Mulhouse",68100,47.749485,7.340579
AGENCE MULHOUSE PLACE DE LA REUNION - BNP PARIBAS,"16 place De La Reunion, 68100  Mulhouse",68100,47.7471116,7.3380169
AGENCE MULHOUSE MITTELBACH - BNP PARIBAS,"6-8 rue De Mittelbach, 68100  Mulhouse",68100,47.745281648699,7.3361208171967
AGENCE WISSEMBOURG - BNP PARIBAS,"7 rue Nationale, 67160  Wissembourg",67160,49.036791138495,7.9451412202377
AGENCE RIXHEIM - BNP PARIBAS,"15 Grand Rue, 68170  Rixheim",68170,47.744255,7.3993412
Cash Services - Seltz ROUTE DE HATTEN,"ROUTE DE HATTEN, 67470  Seltz",67470,48.89582,8.093399
Cash Services - Altkirch 5 RUE DE GIVET,"5 RUE DE GIVET, 68130  Altkirch",68130,47.625079,7.242081
Cash Services - Hirsingue 7 RUE DE BETTENDORF,"7 RUE DE BETTENDORF, 68560  Hirsingue",68560,47.586847,7.259781
Cash Services - Sierentz ZONE ARTISANALE,"ZONE ARTISANALE, 68510  Sierentz",68510,47.654234,7.45379
Cash Services - Bar Sur Aube 149 RUE NATIONALE,"149 RUE NATIONALE, 10200  Bar Sur Aube",10200,48.23443,4.705041
AGENCE BAR SUR AUBE - BNP PARIBAS,"7 rue Du Theatre, 10200  Bar Sur Aube",10200,48.2330116,4.7055195
AGENCE VITRY LE FRANCOIS - BNP PARIBAS,"17 Place D'armes, 51300  Vitry-Le-Francois",51300,48.7255689,4.5844673
AGENCE SAINT LOUIS - BNP PARIBAS,"3 avenue De Bale, 68300  St Louis",68300,47.585286892144,7.5641061343933
AGENCE CHALONS EN CHAMPAGNE - BNP PARIBAS,"31-33 rue De La Marne, 51000  Chalons En Champagne",51000,48.9561202,4.3604138
AGENCE SEDAN - BNP PARIBAS,"5 avenue Du Marechal Leclerc, 5 Avenue Du Mal Leclerc 08200 Sedan, 08200  Sedan",08200,49.699546219407,4.9453561165329
AGENCE BAR SUR SEINE - BNP PARIBAS,"20 rue De La Republique, 10110  Bar Sur Seine",10110,48.114428788917,4.3749157599251
AGENCE PONT SAINTE MARIE - BNP PARIBAS,"2 Avenue Jules Guesde, 10150  Pont-Sainte-Marie",10150,48.3143915,4.0989889
Cash Services - Charleville Mezieres 2 RUE BAUDIN,"2 RUE BAUDIN, 08000  Charleville Mezieres",08000,49.752584,4.73006
Cash Services - St Julien Les Villas 105 AVENUE MICHEL BAROIN,"105 AVENUE MICHEL BAROIN, 10800  St Julien Les Villas",10800,48.280439,4.094754
Cash Services - Troyes 4 BOULEVARD GAMBETTA,"4 BOULEVARD GAMBETTA, 10000  Troyes",10000,48.300741,4.075045
AGENCE TROYES BROSSOLETTE - BNP PARIBAS,"120 avenue Pierre Brossolette, 10000  Troyes",10000,48.287911052629,4.0768138685805
AGENCE TROYES - BNP PARIBAS,"53 rue Du General De Gaulle, 10000  Troyes",10000,48.298248870434,4.0723854920307
AGENCE CHARLEVILLE MEZIERES - BNP PARIBAS,"2 cours Aristide Briand, 08000  Charleville Mezieres",08000,49.77040374917,4.7191834711639
AGENCE SAINTE SAVINE - BNP PARIBAS,"41 avenue Du General Gallieni, Batiment D 22, 10300  Sainte Savine",10300,48.294045041125,4.0579284644181
AGENCE RETHEL - BNP PARIBAS,"6 rue Pierre Curie, 08300  Rethel",08300,49.509601824118,4.3652741235123
Cash Services - Charleville Mezieres 3 RUE DE LA REPUBLIQUE,"3 RUE DE LA REPUBLIQUE, 08000  Charleville Mezieres",08000,49.77089,4.681384
Cash Services - Reims RUE JACQUES DE LA GIRAUDIERE,"RUE JACQUES DE LA GIRAUDIERE, 51100  Reims",51100,49.240441,4.083033
AGENCE CORMONTREUIL - BNP PARIBAS,"36 rue Aristide Briand, 51350  Cormontreuil",51350,49.217278906742,4.0505620221804
Cash Services - Cormontreuil 7 AVENUE DU ROUSSILLON,"7 AVENUE DU ROUSSILLON, 51350  Cormontreuil",51350,49.220282,4.041639
AGENCE EPERNAY - BNP PARIBAS,"13 place De La Republique, 51200  Epernay",51200,49.043888137914,3.9574266710106
AGENCE REIMS JEAN JAURES - BNP PARIBAS,"33 avenue Jean Jaures, 51100  Reims",51100,49.258269491971,4.0414939945488
AGENCE REIMS CARNOT - BNP PARIBAS,"10 rue Carnot, 51100  Reims",51100,49.25524590253,4.0330530144462
AGENCE REIMS PORTE DE PARIS - BNP PARIBAS,"37 rue Du Colonel Fabien, 51100  Reims",51100,49.249053186361,4.0164814234747
AGENCE REIMS AVENUE DE LAON - BNP PARIBAS,"167 avenue De Laon, 51100  Reims",51100,49.268382060513,4.0234721299258
Cash Services - Reims 45 AVENUE DE PARIS,"45 AVENUE DE PARIS, 51100  Reims",51100,49.24819,4.010547
AGENCE ROMILLY SUR SEINE - BNP PARIBAS,"56 rue De La Boule D Or, 10100  Romilly Sur Seine",10100,48.517327790121,3.7259854104041
Cash Services - Montmirail 41 PLACE REMY PETIT,"41 PLACE REMY PETIT, 51210  Montmirail",51210,48.870895,3.538785
AGENCE NOGENT SUR SEINE - BNP PARIBAS,"26 rue De L Hotel Dieu, 10400  Nogent Sur Seine",10400,48.493582229561,3.5000455516506
