nom,adresse,code_postal,latitude,longitude
Cash Services - Ancenis St Gereon 131 RUE DES GRANDS CHAMPS,"131 RUE DES GRANDS CHAMPS, ANCENIS, 44150  Ancenis St Gereon",44150,47.371919,-1.180908
AGENCE ANCENIS - BNP PARIBAS,"283 avenue Francis Robert, 44150  Ancenis",44150,47.371799790787,-1.1791312435165
Cash Services - Thouare Sur Loire 1 PLACE DE LA REPUBLIQUE,"1 PLACE DE LA REPUBLIQUE, 44470  Thouare Sur Loire",44470,47.266636,-1.440822
Cash Services - Mesanger 185 RUE DE LA VIEILLE COUR,"185 RUE DE LA VIEILLE COUR, 44522  Mesanger",44522,47.431918,-1.229759
Cash Services - Vallet 18 RUE FRANCOIS LUNEAU,"18 RUE FRANCOIS LUNEAU, 44330  Vallet",44330,47.162451,-1.266728
AGENCE CARQUEFOU CENTRE - BNP PARIBAS,"22 place Aristide Briand, 44470  Carquefou",44470,47.297503848076,-1.4950264873987
AGENCE SAINTE LUCE SUR LOIRE - BNP PARIBAS,"3 rue Louis Gaudin, 44980  Sainte Luce Sur Loire",44980,47.250035396354,-1.4874045754631
Cash Services - Basse Goulaine 2 RUE DE LA POSTE,"2 RUE DE LA POSTE, BP 3, 44115  Basse Goulaine",44115,47.216986,-1.464978
Cash Services - Nantes 461 ROUTE DE SAINT JOSEPH,"461 ROUTE DE SAINT JOSEPH, 44300  Nantes",44300,47.268648,-1.521051
AGENCE SAINT PIERRE MONTLIMART - BNP PARIBAS,"5 place Saint Pierre, 49110  Montrevault Sur Evre",49110,47.27066974969,-1.0261604944949
Cash Services - Nantes 17 ROUTE DE PARIS,"17 ROUTE DE PARIS, 44300  Nantes",44300,47.250363,-1.519626
Cash Services - La Haie Fouassiere 9 RUE DU BOIS GEFFRAY,"9 RUE DU BOIS GEFFRAY, 44690  La Haie Fouassiere",44690,47.154302,-1.398925
Cash Services - Vertou 1 ALLEE DES 5 CONTINENTS,"1 ALLEE DES 5 CONTINENTS, 44120  Vertou",44120,47.185617,-1.462931
AGENCE SAINT SEBASTIEN CENTRE - BNP PARIBAS,"10 Rue Maurice Daniel, 44230  St Sebastien Sur Loire",44230,47.2069181,-1.5050529
AGENCE LA CHAPELLE SUR ERDRE - BNP PARIBAS,"30 rue Olivier De Sesmaisons, 44240  La Chapelle Sur Erdre",44240,47.298966880659,-1.5510224971852
AGENCE NANTES ROND POINT DE PARIS - BNP PARIBAS,"33 rue Du Général Buat, 44000  Nantes",44000,47.231889127936,-1.5376281997793
AGENCE VERTOU - BNP PARIBAS,"7 place Saint Martin, 44120  Vertou",44120,47.16812770431,-1.4737617715111
AGENCE NORT SUR ERDRE - BNP PARIBAS,"16 Rue De L'erdre, 44390  Nort-Sur-Erdre",44390,47.4406506,-1.49764
Cash Services - Nort Sur Erdre 6 RUE DU GENERAL LECLERC,"6 RUE DU GENERAL LECLERC, 44390  Nort Sur Erdre",44390,47.439622,-1.499154
Cash Services - Nantes 26 MAIL PABLO PICASSO,"26 MAIL PABLO PICASSO, 44000  Nantes",44000,47.215023,-1.537382
Cash Services - Nantes 2 BOULEVARD HENRY ORRION,"2 BOULEVARD HENRY ORRION, 44000  Nantes",44000,47.233255,-1.556801
AGENCE NANTES DECRE - BNP PARIBAS,"19 rue De Strasbourg, 44000  Nantes",44000,47.21700857084,-1.5522366300968
Cash Services - Nantes 7 CHAUSSEE DE LA MADELEINE,"7 CHAUSSEE DE LA MADELEINE, 44000  Nantes",44000,47.211953,-1.552081
AGENCE NANTES 50 OTAGES HOTEL DE VILLE - BNP PARIBAS,"3 allée Jean Bart, 44000  Nantes",44000,47.214693785816,-1.5554972291998
AGENCE ORVAULT PONT DU CENS - BNP PARIBAS,"21 route De Rennes, 44700  Orvault",44700,47.248763486695,-1.5773572260246
AGENCE NANTES PLACE ROYALE - BNP PARIBAS,"10 place Royale, 44000  Nantes",44000,47.214156940442,-1.5582840033567
AGENCE NANTES GRASLIN - BNP PARIBAS,"1 rue Gresset, 44000  Nantes",44000,47.2128833,-1.5626849
AGENCE NANTES MONSELET - BNP PARIBAS,"5 place Anatole France, Immeuble Le Cinq, 44000  Nantes",44000,47.224219764948,-1.5710994255908
AGENCE NANTES SAINTE THERESE - BNP PARIBAS,"66 boulevard Jean Xxiii, 44000  Nantes",44000,47.232429054583,-1.576341046948
Cash Services - Nantes 29 BOULEVARD DES ANGLAIS,"29 BOULEVARD DES ANGLAIS, 44100  Nantes",44100,47.229123,-1.57465
AGENCE ILOT 43 - BNP PARIBAS,"43 rue De La Tour D'Auvergne, 44000  Nantes",44000,47.205852166696,-1.560535217791
Cash Services - Beaupreau En Mauges 54 RUE ALFRED NOBEL,"54 RUE ALFRED NOBEL, BEAUPREAU, 49600  Beaupreau En Mauges",49600,47.211672,-0.983031
AGENCE REZE PONT ROUSSEAU - BNP PARIBAS,"51 avenue De La Liberation, 44400  Reze",44400,47.190628875472,-1.5500271281435
Cash Services - Nantes 63 ROUTE DE VANNES,"63 ROUTE DE VANNES, 44100  Nantes",44100,47.235025,-1.582603
AGENCE CLISSON - BNP PARIBAS,"19 place Des Douves, 44190  Clisson",44190,47.085926794855,-1.2837778730163
AGENCE NANTES ZOLA - BNP PARIBAS,"2 place Emile Zola, 44000  Nantes",44000,47.2141898,-1.5855116
Cash Services - Nantes 130 BOULEVARD DE LA LIBERTE,"130 BOULEVARD DE LA LIBERTE, 44100  Nantes",44100,47.205716,-1.587669
Cash Services - Les Sorinieres 3 RUE DU GENERAL DE GAULLE,"3 RUE DU GENERAL DE GAULLE, 44840  Les Sorinieres",44840,47.149528,-1.532933
Cash Services - Orvault 6 PROMENADE DE L EUROPE,"6 PROMENADE DE L EUROPE, 44700  Orvault",44700,47.272558,-1.62602
Cash Services - Sautron 42 RUE DE BRETAGNE,"42 RUE DE BRETAGNE, 44880  Sautron",44880,47.262213,-1.670228
Cash Services - Pont St Martin 91 RUE DE NANTES,"91 RUE DE NANTES, 44860  Pont St Martin",44860,47.131187,-1.580387
AGENCE SAINT HERBLAIN BOURG - BNP PARIBAS,"28 rue Pierre Blard, 44800  St Herblain",44800,47.2121134,-1.6534685
Cash Services - Coueron 48 BOULEVARD DE LA LIBERATION,"48 BOULEVARD DE LA LIBERATION, 44220  Coueron",44220,47.215547,-1.685042
Cash Services - La Romagne 68 BIS RUE NATIONALE,"68 BIS RUE NATIONALE, 49740  La Romagne",49740,47.060722,-1.021156
Cash Services - La Montagne 62 RUE DU DROUILLARD,"62 RUE DU DROUILLARD, 44620  La Montagne",44620,47.176048,-1.681746
Cash Services - Coueron 17 RUE ALEXANDRE OLIVIER,"17 RUE ALEXANDRE OLIVIER, 44220  Coueron",44220,47.213993,-1.725691
Cash Services - Bouaye 10 PLACE DES ECHOPPES,"10 PLACE DES ECHOPPES, 44830  Bouaye",44830,47.143853,-1.686272
Cash Services - Nozay 3 PLACE DE L EGLISE,"3 PLACE DE L EGLISE, 44170  Nozay",44170,47.566538,-1.623725
Cash Services - Le Temple De Bretagne 8 RUE DE NANTES,"8 RUE DE NANTES, 44360  Le Temple De Bretagne",44360,47.327811,-1.79063
AGENCE CHALONNES SUR LOIRE - BNP PARIBAS,"10 rue Carnot, 49290  Chalonnes Sur Loire",49290,47.35156695825,-0.76018011693441
AGENCE CHOLET - BNP PARIBAS,"6-8 avenue Gambetta, 49300  Cholet",49300,47.0623669,-0.8771114
Cash Services - Blain 2 AVENUE DE SORTAIS,"2 AVENUE DE SORTAIS, 44130  Blain",44130,47.475563,-1.762197
AGENCE BLAIN - BNP PARIBAS,"12 rue Du Chateau, 44130  Blain",44130,47.475018960738,-1.7647386192077
Cash Services - Chemille En Anjou 13 RUE DE LORRAINE,"13 RUE DE LORRAINE, CHEMILLE MELAY, 49120  Chemille En Anjou",49120,47.215492,-0.722831
Cash Services - Bouvron 29 RUE LOUIS GUIHOT,"29 RUE LOUIS GUIHOT, 44130  Bouvron",44130,47.418544,-1.848245
AGENCE CHATEAUBRIANT - BNP PARIBAS,"24 rue Pasteur, 44110  Chateaubriant",44110,47.718175861069,-1.3755720881286
Cash Services - Ste Pazanne 4 RUE DU VERDELET,"4 RUE DU VERDELET, 44680  Ste Pazanne",44680,47.103783,-1.812198
Cash Services - Savenay LA COLLERAYE,"LA COLLERAYE, 44260  Savenay",44260,47.372244,-1.936419
Cash Services - Savenay 5 PLACE DE L HOTEL DE VILLE,"5 PLACE DE L HOTEL DE VILLE, 44260  Savenay",44260,47.35954,-1.943241
AGENCE SEGRE - BNP PARIBAS,"13 place De La Republique, 49500  Segre En Anjou Bleu",49500,47.684642612067,-0.87098623566976
AGENCE ANGERS MOLLIERE - BNP PARIBAS,"rue Michel Seurat, Centre Commercial Molliere, 49000  Angers",49000,47.460147900917,-0.61663112004147
AGENCE LES HERBIERS - BNP PARIBAS,"2 rue Des Arts, 85500  Les Herbiers",85500,46.8704883,-1.010450982209
Cash Services - Guemene Penfao 1 RUE DE L EGLISE,"1 RUE DE L EGLISE, 44290  Guemene Penfao",44290,47.628693,-1.832917
AGENCE AVRILLE - BNP PARIBAS,"118-120 avenue Pierre Mendes France, 49240  Avrille",49240,47.506819612471,-0.58947475585441
AGENCE ANGERS SUD - BNP PARIBAS,"avenue Winston Churchill, Cc Du Chapeau De Gendarme, 49000  Angers",49000,47.452123730371,-0.55558870527955
Cash Services - Angers 67 BOULEVARD EUGENE CHAUMIN,"67 BOULEVARD EUGENE CHAUMIN, 49000  Angers",49000,47.4507,-0.554983
Cash Services - Angers 6 PLACE DE LA VISITATION,"6 PLACE DE LA VISITATION, BP 1805, 49018  Angers",49018,47.466958,-0.557062
AGENCE ANGERS - BNP PARIBAS,"41 boulevard Du Marechal Foch, 49000  Angers",49000,47.467356270067,-0.55141876676419
Cash Services - Angers 1 PLACE DE LORRAINE,"1 PLACE DE LORRAINE, 49100  Angers",49100,47.47005,-0.546853
AGENCE ANGERS SAINT MICHEL - BNP PARIBAS,"23-27 Boulevard Saint-michel, Residence Les Plantes, 49000  Angers",49000,47.4736971,-0.544231
Cash Services - Bellevigne En Layon 1 PLACE DU CHAMP DE FOIRE,"1 PLACE DU CHAMP DE FOIRE, THOUARCE, 49380  Bellevigne En Layon",49380,47.267322,-0.500539
Cash Services - Angers PLACE CAMILLE CLAUDEL,"PLACE CAMILLE CLAUDEL, 49100  Angers",49100,47.475146,-0.528314
Cash Services - Trelaze 220 AVENUE PIERRE MENDES FRANCE,"220 AVENUE PIERRE MENDES FRANCE, 49800  Trelaze",49800,47.448016,-0.509046
AGENCE SAINT BARTHELEMY D'ANJOU - BNP PARIBAS,"11 rue De Verdun, 49124  Saint Barthelemy D'Anjou",49124,47.468208402423,-0.49360891944525
Cash Services - Pontchateau 15 RUE MAURICE SAMBRON,"15 RUE MAURICE SAMBRON, 44160  Pontchateau",44160,47.436613,-2.091434
AGENCE PORNIC - BNP PARIBAS,"28 rue Du Marechal Foch, 44210  Pornic",44210,47.115950216112,-2.1020863754632
Cash Services - St Brevin Les Pins ALLEE DE LA TOUR CARREE,"ALLEE DE LA TOUR CARREE, 44250  St Brevin Les Pins",44250,47.247915,-2.146598
Cash Services - Pornic 40 QUAI LERAY,"40 QUAI LERAY, 44210  Pornic",44210,47.114994,-2.102594
AGENCE SAINT BREVIN LES PINS - BNP PARIBAS,"12 place Henri Basle, 44250  St Brevin Les Pins",44250,47.246752456412,-2.1646257283112
AGENCE CHALLANS - BNP PARIBAS,"9 rue General Leclerc, 85300  Challans",85300,46.847109378489,-1.8793574580626
Cash Services - Aizenay 4 PLACE DE L EGLISE,"4 PLACE DE L EGLISE, 85190  Aizenay",85190,46.755202,-1.685615
Cash Services - Trignac 7 B AVENUE BARBARA,"7 B AVENUE BARBARA, 44570  Trignac",44570,47.296183,-2.206744
AGENCE SAINT NAZAIRE - BNP PARIBAS,"52 Avenue Du General De Gaulle, 44600  Saint-Nazaire",44600,47.2743366,-2.2126169
AGENCE CHATEAU GONTIER - BNP PARIBAS,"62 Avenue Carnot, 53200  Chateau-Gontier",53200,47.8267199,-0.7081045
Cash Services - Chantonnay 12 PLACE DE L HOTEL DE VILLE,"12 PLACE DE L HOTEL DE VILLE, 85110  Chantonnay",85110,46.686712,-1.049603
AGENCE LA ROCHE SUR YON - BNP PARIBAS,"4 Rue Sadi Carnot, 85000  La Roche-Sur-Yon",85000,46.670365,-1.424883
Cash Services - St Nazaire 2 ROUTE DU PETIT LERIOUX,"2 ROUTE DU PETIT LERIOUX, 44600  St Nazaire",44600,47.256175,-2.27116
AGENCE DOUE LA FONTAINE - BNP PARIBAS,"2-4 Place Theophane Venard, 49700  Doue-En-Anjou",49700,47.1943043,-0.276575
Cash Services - Doue En Anjou 9 PLACE DU CHAMP DE FOIRE,"9 PLACE DU CHAMP DE FOIRE, DOUE LA FONTAINE, 49700  Doue En Anjou",49700,47.19261,-0.275566
Cash Services - Maze Milon 94 RUE PRINCIPALE,"94 RUE PRINCIPALE, MAZE, 49630  Maze Milon",49630,47.456376,-0.272307
Cash Services - Maze Milon CHEMIN DE LA MACHEFERRIERE,"CHEMIN DE LA MACHEFERRIERE, MAZE, 49630  Maze Milon",49630,47.454299,-0.270236
Cash Services - Pornichet 15 AVENUE DES PALUDIERS,"15 AVENUE DES PALUDIERS, 44380  Pornichet",44380,47.260469,-2.333796
Cash Services - Pornichet 33 AVENUE DU GENERAL DE GAULLE,"33 AVENUE DU GENERAL DE GAULLE, 44380  Pornichet",44380,47.268123,-2.341941
AGENCE PORNICHET - BNP PARIBAS,"30 avenue Du General De Gaulle, 44380  Pornichet",44380,47.268845029965,-2.342817340447
Cash Services - La Baule 44 AVENUE LOUIS LAJARRIGE,"44 AVENUE LOUIS LAJARRIGE, 44500  La Baule",44500,47.280595,-2.368914
Cash Services - St Jean De Monts 62 RUE DU GENERAL DE GAULLE,"62 RUE DU GENERAL DE GAULLE, CS 80434, 85164  St Jean De Monts",85164,46.793913,-2.061872
AGENCE LA BAULE - BNP PARIBAS,"57 avenue Du Marechal Foch, 44500  La Baule",44500,47.286479788145,-2.3911754472214
Cash Services - St Gilles Croix De Vie 3 BOULEVARD GEORGES POMPIDOU,"3 BOULEVARD GEORGES POMPIDOU, 85800  St Gilles Croix De Vie",85800,46.702014,-1.938904
Cash Services - La Baule 4 AVENUE DE NOIRMOUTIER,"4 AVENUE DE NOIRMOUTIER, 44500  La Baule",44500,47.284561,-2.395414
AGENCE SAINT GILLES CROIX DE VIE - BNP PARIBAS,"6 Place Kergoustin, 85800  Saint-Gilles-Croix-De-Vie",85800,46.696554,-1.939008
Cash Services - Guerande 25 RUE DE LA FUIE,"25 RUE DE LA FUIE, 44350  Guerande",44350,47.329345,-2.412833
AGENCE GUERANDE - BNP PARIBAS,"5 faubourg Saint Michel, 44350  Guerande",44350,47.3271256,-2.4264462
AGENCE SAUMUR - BNP PARIBAS,"30 rue Dacier, 49400  Saumur",49400,47.259073670817,-0.076912731314447
Cash Services - Batz Sur Mer 2 RUE DU GRAND CHEMIN,"2 RUE DU GRAND CHEMIN, 44740  Batz Sur Mer",44740,47.277748,-2.479445
Cash Services - Mesquer AV PLAGE QUIMIAC,"AV PLAGE QUIMIAC, 44420  Mesquer",44420,47.407075,-2.48475
Cash Services - Sable Sur Sarthe 12 RUE CARNOT,"12 RUE CARNOT, 72300  Sable Sur Sarthe",72300,47.841021,-0.335442
AGENCE SABLE SUR SARTHE - BNP PARIBAS,"32 Place Raphael Elize, 72300  Sable-Sur-Sarthe",72300,47.8399076,-0.3334585
Cash Services - Vivy 43 ROUTE NATIONALE,"43 ROUTE NATIONALE, 49680  Vivy",49680,47.325573,-0.055341
AGENCE LAVAL - BNP PARIBAS,"34 allée De Cambrai, 53000  Laval",53000,48.072961002982,-0.772505031121
Cash Services - Piriac Sur Mer 7 RUE DES CAPS HORNIERS,"7 RUE DES CAPS HORNIERS, 44420  Piriac Sur Mer",44420,47.37985,-2.548329
AGENCE LES SABLES D'OLONNE - BNP PARIBAS,"5 rue Du Marechal Leclerc, Immeuble Le Galion, 85100  Les Sables D Olonne",85100,46.497330882389,-1.784343362635
AGENCE LA FLECHE - BNP PARIBAS,"8 Rue Carnot, 72200  La Fleche",72200,47.6996908,-0.0756104
Cash Services - Montsoreau AVENUE DE LA LOIRE,"AVENUE DE LA LOIRE, 49730  Montsoreau",49730,47.218643,0.050766
AGENCE FONTENAY LE COMTE - BNP PARIBAS,"23 rue De La République, 85200  Fontenay Le Comte",85200,46.465608048391,-0.80415380429918
Cash Services - St Vincent Sur Jard PLACE CLEMENT NEAU,"PLACE CLEMENT NEAU, 85520  St Vincent Sur Jard",85520,46.416483,-1.548215
Cash Services - Jard Sur Mer 7 PLACE DE L HOTEL DE VILLE,"7 PLACE DE L HOTEL DE VILLE, 85520  Jard Sur Mer",85520,46.417233,-1.576504
Cash Services - St Hilaire Des Loges 4 RUE DU DOCTEUR BON,"4 RUE DU DOCTEUR BON, 85240  St Hilaire Des Loges",85240,46.47076,-0.665064
AGENCE MAYENNE - BNP PARIBAS,"10 place Georges Clemenceau, 53100  Mayenne",53100,48.30367157692,-0.62030470616924
Cash Services - Le Mans 1 RUE CHARLES FABRY,"1 RUE CHARLES FABRY, 72000  Le Mans",72000,48.02039,0.160769
AGENCE LE MANS PONTLIEUE - BNP PARIBAS,"2 avenue Du Docteur Jean Mac, 72000  Le Mans",72000,47.9828088,0.2113533
AGENCE LE MANS REPUBLIQUE - BNP PARIBAS,"1 Place De La Republique, 72000  Le Mans",72000,48.0043412,0.1957458
AGENCE LE MANS CHASSE ROYALE - BNP PARIBAS,"14 avenue Louis Cordelet, 72000  Le Mans",72000,48.0122863,0.188662
Cash Services - Le Mans 51 BOULEVARD WINSTON CHURCHILL,"51 BOULEVARD WINSTON CHURCHILL, 72100  Le Mans",72100,47.990844,0.220655
Cash Services - St Saturnin BOULEVARD DE MAULE,"BOULEVARD DE MAULE, 72650  St Saturnin",72650,48.060825,0.164941
AGENCE LA CHARTRE SUR LE LOIR - BNP PARIBAS,"29 Rue Nationale, 72340  La Chartre-Sur-Le-Loir",72340,47.7277887,0.5746998
Cash Services - Montfort Le Gesnois 31 RUE HONORE BROUTELLE,"31 RUE HONORE BROUTELLE, 72450  Montfort Le Gesnois",72450,48.047859,0.413764
AGENCE LA FERTE BERNARD - BNP PARIBAS,"17 Rue Denfert Rochereau, 72400  La Ferte-Bernard",72400,48.187217272015,0.65291637738493
