nom,adresse,code_postal,latitude,longitude,region_source
ARLYSERE UGINE,"75, Pl du Val d'Arly, nan, UGINE",73400,,,nan
BELLEDONNE DOMENE,"6, pl Matussière, nan, DOMENE",38420,,,nan
MONTELIMAR SUD,"140, Avenue Jean Jaurès, nan, MONTELIMAR",26200,,,nan
MANOSQUE SUD,"Axe Sud ZI Saint Joseph, nan, MANOSQUE",04100,,,nan
SUD BELLEDONNE EYBENS,"142, Avenue Jean Jaurès, nan, EYBENS",38320,,,nan
MONTFLEURY MEYLAN,"1, Allée des Centaurées, nan, MEYLAN",38240,,,nan
AURILLAC SUD ARPAJON,"9, Place de l'Eglise, nan, ARPAJON SUR CERE",15130,,,nan
VIENNE ESTRABLIN,"Rue du Centre, nan, ESTRABLIN",38780,,,nan
LES AQUEDUCS CHAPONOST,"53, Avenue Paul Doumer, nan, CHAPONOST",69630,,,nan
MONTS D'OR ST CYR,"6, pl Charles de Gaulle, nan, ST CYR AU MONT D'OR",69450,,,nan
ST ETIENNE SUD BIZILLON,"9, rue des Docteurs Charcot, nan, ST ETIENNE",42100,,,nan
FOREZ MONTROND LES BAINS,"4, Avenue des Sources, nan, MONTROND LES BAINS",42210,,,nan
TOURS THIERS,"117, Avenue de Grammont, nan, TOURS",37000,,,nan
VALENCE D'AGEN,"Pl Nationale, nan, VALENCE D'AGEN",82400,,,nan
BAGNOLET BEL EST,"28, Avenue du Général de Gaulle, Ctre Cial, BAGNOLET",93170,,,nan
CAYENNE,"5, Avenue du Général de Gaulle, Ctre Cial Eldorado, CAYENNE",97300,,,nan
COLLEGIEN BAY 2,"36, mail Est, Ctre Cial, COLLEGIEN",77090,,,nan
STE SUZANNE DE LA REUNION,"Rues Albany, Cayenne et Mendès France, Les Badamiers, STE SUZANNE",97441,,,nan
COLOMBES,"130, bd Charles de Gaulle, Ctre Cial Leclerc, COLOMBES",92700,,,nan
SAVIGNY-LE-TEMPLE,"15, rue de l'Orée du Bois, Ctre Cial Boissénart, SAVIGNY-LE-TEMPLE",77176,,,nan
RUNGIS MIN,"84, rue de la Tour, MIN 84, RUNGIS",94150,,,nan
LE PLESSIS ROBINSON,"3, passage de l'Escargot d'Or, ZAC du Coeur de Ville - Ilot H, LE PLESSIS ROBINSON",92350,,,nan
GONESSE,"1, Avenue Georges Pompidou, Ctre Cial La Grande Vallée, GONESSE",95500,,,nan
MONTHOLON AILLANT SUR THOLON,"31, rue Grande Saint Antoine, Aillant sur Tholon, MONTHOLON",89110,,,nan
DIJON AGENCE DE VALMY,"3E, rue Jeanne Barret, ZAC Parc Valmy, DIJON",21000,,,nan
BORDEAUX PEY BERLAND,"2, rue Dufour Dubergier, Place Pey Berland, BORDEAUX",33000,,,nan
VENDIN LE VIEIL LENS 2,"2, rte de la Bassée, Ctre Cial Cora, VENDIN LE VIEIL",62880,,,nan
COQUELLES,"20, bd du Parc, 1er étage, COQUELLES",62231,,,nan
LE MANS LES MAILLETS,"138-140, rue des Maillets, Résidence Richelieu, LE MANS",72000,,,nan
CAGNES SUR MER,"24-26, rue du Brigadier Claverie, Le Tamango, CAGNES SUR MER",06800,,,nan
NICE NAPOLEON III,"170, bd Napoléon III, Résidence Stanesco, NICE",06200,,,nan
MONTEUX,"9, Avenue de la Libération, Immeuble le Saphir, MONTEUX",84170,,,nan
TARASCON,"3bis, rue des Charpentiers, ZAC le Roubian, TARASCON",13150,,,nan
ST CYPRIEN PLAGE,"27, bd Desnoyer, Résidence Les Portes du Soleil, ST CYPRIEN PLAGE",66750,,,nan
CARCASSONNE PONT ROUGE,"13, rue de Magellan, ZI Pont Rouge, CARCASSONNE",11000,,,nan
BEZIERS VERDIER,"7, Avenue Pierre Verdier, Les Tuileries, BEZIERS",34500,,,nan
AGENCE ENTREPRISES CENTR'ALP,"196, rue du Rocher de Lorzier, Centr'Alp, MOIRANS",38430,,,nan
AGENCE ENTREPRISES MONTBONNOT,"445, rue Lavoisier, NOVESPARC, MONTBONNOT ST MARTIN",38330,,,nan
AGENCE ENTREPRISES LYON OUEST,"5, rue Gorge de Loup - CS 2035, Immeuble Le Carré de St Pierre, LYON CEDEX 9",69337,,,nan
PINSAGUEL,"94, rte d'Andorre, Résidence Le Confluent - Bât B, PINSAGUEL",31120,,,nan
ECQUEVILLY,"45, rue de la République, ZAC Centre Village, ECQUEVILLY",78920,,,nan
CHAMBRAY LES TOURS,"3/5, rue Thomas Edison, ZAC de la Vrillonnerie, CHAMBRAY LES TOURS",37170,,,nan
POITIERS LAFAYETTE,"2, Avenue Lafayette, Ctre Cial Géant Casino, POITIERS",86000,,,nan
PARIS BD MONTMARTRE,"15, bd Montmartre, nan, PARIS 02",75002,,,nan
PARIS REPUBLIQUE,"41 bis, boulevard Voltaire, nan, PARIS 11",75011,,,nan
PARIS MENILMONTANT,"72, Avenue de la République, nan, PARIS 11",75011,,,nan
PARIS ST LAZARE,"1, rue du Havre, nan, PARIS 08",75008,,,nan
PARIS CHAMPERRET,"15, Avenue Stéphane Mallarmé, nan, PARIS 17",75017,,,nan
PARIS LEDRU ROLLIN,"111, Avenue Ledru Rollin, nan, PARIS 11",75011,,,nan
PARIS DAUMESNIL,"250, Avenue Daumesnil, nan, PARIS 12",75012,,,nan
PARIS QUAI DE LA RAPEE,"18, quai de la Rapée, nan, PARIS 12",75012,,,nan
PARIS VOLTAIRE LEON FROT,"204, bd Voltaire, nan, PARIS 11",75011,,,nan
PARIS CHARENTON,"239/241, rue de Charenton, nan, PARIS 12",75012,,,nan
PARIS KLEBER,"82, Avenue Kléber, nan, PARIS 16",75016,,,nan
PARIS REUILLY DIDEROT,"22, rue de Reuilly, nan, PARIS 12",75012,,,nan
PARIS MAUBEUGE,"80, rue de Maubeuge, nan, PARIS 09",75009,,,nan
PARIS BEL AIR,"31, rue du Rendez-Vous, nan, PARIS 12",75012,,,nan
PARIS NIEL,"29 ter, rue Pierre Demours, nan, PARIS 17",75017,,,nan
PARIS LOUVRE,"24, rue du Louvre, 131, rue Saint Honoré, PARIS 01",75001,,,nan
ST PIERRE,"Pl Félix Boisson, Rue Bouillé, ST PIERRE",97250,,,nan
ALFORTVILLE,"156, rue Paul Vaillant Couturier, nan, ALFORTVILLE",94140,,,nan
COURBEVOIE LA DEFENSE,"5, place de la Défense, nan, COURBEVOIE",92400,,,nan
LA TRINITE,"27, rue Victor Hugo, nan, LA TRINITE",97220,,,nan
BEZONS,"72 bis, rue Edouard Vaillant, nan, BEZONS",95870,,,nan
BOULOGNE BILLANCOURT,"284, bd Jean Jaurès, nan, BOULOGNE BILLANCOURT",92100,,,nan
NEUILLY PLAISANCE,"21, rue du Général de Gaulle, nan, NEUILLY PLAISANCE",93360,,,nan
NOISY LE GRAND,"167, rue Pierre Brossolette, nan, NOISY LE GRAND",93160,,,nan
VILLIERS SUR MARNE,"87, rue du Général de Gaulle, nan, VILLIERS SUR MARNE",94350,,,nan
CHAMPIGNY,"79, rue Jean Jaurès, nan, CHAMPIGNY SUR MARNE",94500,,,nan
CHARENTON MAIRIE,"67, rue de Paris, nan, CHARENTON LE PONT",94220,,,nan
VINCENNES RIGOLLOTS,"138, rue Defrance, nan, VINCENNES",94300,,,nan
VINCENNES BERAULT,"49, Avenue de Paris, nan, VINCENNES",94300,,,nan
CRETEIL ECHAT,"68-70, Avenue du Général de Gaulle, nan, CRETEIL",94000,,,nan
GRAND QUEVILLY,"85 bis, Avenue des Provinces, nan, GRAND QUEVILLY",76120,,,nan
PARIS BATIGNOLLES,"14, rue des Batignolles, nan, PARIS 17",75017,,,nan
LE MARIN,"Lieu dit Habitation Montgérarld, Lotissement Marine Bay, LE MARIN",97290,,,nan
LE FRANCOIS,"Ancienne Usine du François, Centre Eucalyptus, LE FRANCOIS",97240,,,nan
ST JOSEPH,"263, rue Raphaêl Babet, Rue Joseph de Souville, ST JOSEPH",97480,,,nan
ST MAUR THEATRE,"110, bd de Créteil, nan, ST MAUR DES FOSSES",94100,,,nan
NEUILLY SUR SEINE PLACE DE MADRID,"166 bis, Avenue Charles de Gaulle, nan, NEUILLY SUR SEINE",92200,,,nan
COURBEVOIE BECON,"46, Avenue Pasteur, nan, COURBEVOIE",92400,,,nan
NEUILLY SUR SEINE CERCLE PATRIMONIAL,"17, rue Madeleine Michelis, nan, NEUILLY SUR SEINE",92200,,,nan
LE LORRAIN,"20, rue Schoelcher, nan, LE LORRAIN",97214,,,nan
SOISSONS,"13, rue Saint Martin, nan, SOISSONS",02200,,,nan
CHATEAU THIERRY,"Pl Jean de La Fontaine, nan, CHATEAU THIERRY",02400,,,nan
BRY SUR MARNE,"48, Grande Rue Charles de Gaulle, nan, BRY SUR MARNE",94360,,,nan
CAEN COURTONNE,"23-25, rue des Prairies Saint Gilles, nan, CAEN",14000,,,nan
NANGIS,"40, rue du Général Leclerc, nan, NANGIS",77370,,,nan
GRETZ ARMAINVILLIERS,"46, rue de Paris, nan, GRETZ ARMAINVILLIERS",77220,,,nan
MAROMME,"144, rue des Martyrs de la Résistance, nan, MAROMME",76150,,,nan
BRIE COMTE ROBERT,"9, rue Gambetta, nan, BRIE COMTE ROBERT",77170,,,nan
COULOMMIERS,"8, pl Saint Denis, nan, COULOMMIERS",77120,,,nan
CAEN REPUBLIQUE,"22, rue de Strasbourg, nan, CAEN",14000,,,nan
ROUEN JEANNE D'ARC,"25, rue Jeanne d'Arc, nan, ROUEN",76000,,,nan
LE HAVRE ROND POINT,"171, cours de la République, nan, LE HAVRE",76600,,,nan
MELUN NORD,"8, Avenue du 31e Régimentt d'Infanterie, nan, MELUN",77000,,,nan
PONTHIERRY,"61, Avenue de Fontainebleau, nan, ST FARGEAU PONTHIERRY",77310,,,nan
DARNETAL,"88, rue Sadi Carnot, nan, DARNETAL",76160,,,nan
CHELLES,"7, Avenue de la Résistance, nan, CHELLES",77500,,,nan
BRAY SUR SEINE,"27, rue du Général Leclerc, nan, BRAY SUR SEINE",77480,,,nan
LE HAVRE COTY,"43, Avenue René Coty, nan, LE HAVRE",76600,,,nan
LA FERTE GAUCHER,"6, pl du Général de Gaulle, nan, LA FERTE GAUCHER",77320,,,nan
COMBS LA VILLE,"68, rue Sommeville, nan, COMBS LA VILLE",77380,,,nan
SOTTEVILLE LES ROUEN,"34, pl Voltaire, nan, SOTTEVILLE LES ROUEN",76300,,,nan
ROZAY EN BRIE,"5, pl Charles de Gaulle, nan, ROZAY EN BRIE",77540,,,nan
LE GOSIER,"Ctre Cial Cora, Bas du Fort, LE GOSIER",97190,,,nan
LA PROVIDENCE,"5, avenue Jean Paul II, nan, ST DENIS DE LA REUNION",97400,,,nan
ST LEU,"72, rue du Général Lambert, nan, ST LEU",97436,,,nan
FORT DE FRANCE CATHEDRALE,"Pl Msg Romero, nan, FORT DE FRANCE",97200,,,nan
FALAISE,"29, pl Belle Croix, nan, FALAISE",14700,,,nan
CAPESTERRE,"Rues Perrinon et Schoelcher, nan, CAPESTERRE BELLE EAU",97130,,,nan
LE TAMPON,"216-220, rue Hubert Delisle, nan, LE TAMPON",97430,,,nan
LE NEUBOURG,"67, rue Dupont de l'Eure, nan, LE NEUBOURG",27110,,,nan
ST MARTIN,"7, rue de la République - MARIGOT, nan, ST MARTIN",97150,,,nan
BUSSY ST GEORGES,"13, rue Conrad Adenauer, Ave du Général de Gaulle, BUSSY ST GEORGES",77600,,,nan
CARRIERES SUR SEINE,"43 bis, rue du Moulin, nan, CARRIERES SUR SEINE",78420,,,nan
CAYENNE BADUEL,"700, rte de Baduel, nan, CAYENNE",97300,,,nan
CHARENTON LIBERTE,"3, pl des Marseillais, nan, CHARENTON",94220,,,nan
MAMOUDZOU KAWENI,"ZI, Résidence Espace - RN 1, MAMOUDZOU",97600,,,nan
CAYENNE 2,"Ctre Cial Hyper, ZI Collery, CAYENNE",97300,,,nan
DOUVRES LA DELIVRANDE,"6, Avenue de la Basilique, nan, DOUVRES LA DELIVRANDE",14440,,,nan
LIEUSAINT,"37, pl du Colombier, nan, LIEUSAINT",77127,,,nan
BARENTIN,"23, rue L Leseigneur, nan, BARENTIN",76360,,,nan
LES ANDELYS,"23, pl Nicolas Poussin, nan, LES ANDELYS",27700,,,nan
OUISTREHAM,"6, rue de Lion - 2, rue Pasteur, nan, OUISTREHAM",14150,,,nan
SERRIS,"Pl de Toscane, nan, SERRIS",77400,,,nan
MONTIVILLIERS,"22, pl François Mitterand, nan, MONTIVILLIERS",76290,,,nan
MORNE A L'EAU,"25, rue du Cimetière, Point Cial de Rigaud, MORNE A L'EAU",97111,,,nan
NEUFCHATEL EN BRAY,"Rue de la Grande Flandre, nan, NEUFCHATEL EN BRAY",76270,,,nan
PARIS CP OPERA ANTENNE,"1, pl de l'Opéra, nan, PARIS",75002,,,nan
SAINT MARCEL,"15-21, bd de Gaull, nan, SAINT MARCEL",27950,,,nan
POINTE A PITRE CMMOM,"36, rue Achille René Boisneuf, nan, POINTE A PITRE",97110,,,nan
BOUILLANTE CMMOM,"Le Bourg, nan, BOUILLANTE",97215,,,nan
NANTERRE MONT VALERIEN,"99, rue Paul Vaillant Couturier, nan, NANTERRE",92000,,,nan
SAINT LAURENT DU MARONI,"30, rue Thiers, nan, SAINT LAURENT DU MARONI",97320,,,nan
ARPAJON,"24, bd Jean Jaurès, nan, ARPAJON",91290,,,nan
VILLENEUVE ST GEORGES,"13, rue Henri Janin, nan, VILLENEUVE ST GEORGES",94190,,,nan
MONTLHERY,"22, rte d'Orléans, nan, MONTLHERY",91310,,,nan
VILLEJUIF,"141, rue Jean Jaurès, nan, VILLEJUIF",94800,,,nan
DOURDAN,"6, rue du Faubourg de Chartres, nan, DOURDAN",91410,,,nan
PARIS ST GERMAIN BAC,"226, bd Saint Germain, nan, PARIS 07",75007,,,nan
ETAMPES,"13, rue Louis Moreau, nan, ETAMPES",91150,,,nan
CLAMART,"172, Avenue Jean Jaurès, nan, CLAMART",92140,,,nan
MASSY,"1, rue des Canadiens, nan, MASSY",91300,,,nan
CORBEIL ESSONNES,"6, pl Léon Cassé, nan, CORBEIL ESSONNES",91100,,,nan
SAVIGNY SUR ORGE,"113-117, bd Aristide Briand, nan, SAVIGNY SUR ORGE",91600,,,nan
RIS ORANGIS,"40, Avenue de la Libération, nan, RIS ORANGIS",91130,,,nan
LA FERTE ALAIS,"6 bis, rue Eugène Millet, nan, LA FERTE ALAIS",91590,,,nan
PARIS ARAGO,"45, bd Arago, nan, PARIS 13",75013,,,nan
DRAVEIL,"194, boulevard Henri Barbusse, nan, DRAVEIL",91210,,,nan
VITRY SUR SEINE STALINGRAD,"28, Avenue Eugène Pelletan, nan, VITRY SUR SEINE",94400,,,nan
BALLANCOURT,"1, pl Henri Vautravers, nan, BALLANCOURT",91610,,,nan
LIMOURS,"Ctre Cial des Arcades, nan, LIMOURS",91470,,,nan
MONTROUGE REPUBLIQUE,"154 bis, Avenue de la République, nan, MONTROUGE",92120,,,nan
ETRECHY,"13, Grande Rue, nan, ETRECHY",91580,,,nan
VIRY CHATILLON,"12, rue Alexandre Dumas, nan, VIRY CHATILLON",91170,,,nan
BRETIGNY SUR ORGE,"15, rue de la Paix, nan, BRETIGNY SUR ORGE",91220,,,nan
EVRY,"92, allée des Champs Elysées, nan, EVRY CEDEX",91042,,,nan
MONTGERON,"96-98, Avenue de la République, nan, MONTGERON",91230,,,nan
PARIS ST MARCEL,"42, bd Saint Marcel, nan, PARIS 05",75005,,,nan
PARIS PTE DE VERSAILLES,"403 bis, rue de Vaugirard, nan, PARIS 15",75015,,,nan
ST MICHEL SUR ORGE,"28, rue de Montlhéry, nan, ST MICHEL SUR ORGE",91240,,,nan
ISSY MOULINEAUX CTRE AFF. HAUTS DE SEINE,"7, rue Auguste Gervais, nan, ISSY LES MOULINEAUX",92130,,,nan
BAGNEUX Centre,"3, pl de la République, nan, BAGNEUX",92220,,,nan
QUINCY SOUS SENART,"21, rue de Brunoy, nan, QUINCY SOUS SENART",91480,,,nan
GRIGNY,"62, rte de Corbeil, nan, GRIGNY",91350,,,nan
PARIS PASTEUR,"164, rue de Vaugirard, nan, PARIS 15",75015,,,nan
ORLY,"Ave des Martyrs de Chateaubriand, nan, ORLY",94310,,,nan
PARIS RENNES CENTRE D'AFFAIRES,"1, rue Coetlogon, nan, PARIS",75006,,,nan
PARIS DIDEROT,"80, Avenue de France, nan, PARIS",75013,,,nan
CENTRE D'AFFAIRES PARIS RIVE GAUCHE,"80, boulevard Auguste Blanqui, nan, PARIS CEDEX 13",75013,,,nan
SOISY SUR SEINE,"9, rue Galignani, nan, SOISY SUR SEINE",91450,,,nan
PARIS JEAN JAURES,"3, Avenue Jean Jaurès, nan, PARIS 19",75019,,,nan
PARIS MARCADET,"86, bd Barbès, nan, PARIS",75018,,,nan
AUBERVILLIERS,"3, Avenue de la République, nan, AUBERVILLIERS",93300,,,nan
PANTIN,"55, Avenue Jean Lolive, nan, PANTIN",93500,,,nan
ST OUEN,"19-23, Avenue Gabriel Péri, nan, ST OUEN",93400,,,nan
ARGENTEUIL,"57, Avenue Gabriel Péri, nan, ARGENTEUIL",95100,,,nan
LA COURNEUVE,"48, Avenue Paul Vaillant Couturier, nan, LA COURNEUVE",93120,,,nan
NOISY LE SEC,"1, rue des Bergeries, nan, NOISY LE SEC",93130,,,nan
ST OUEN L'AUMONE,"2, pl Pierre Godet, nan, ST OUEN L'AUMONE",95310,,,nan
PONTOISE,"2, rue de l'Hôtel Dieu, nan, PONTOISE",95300,,,nan
DRANCY BARBUSSE,"98 av Henri Barbusse, nan, DRANCY",93700,,,nan
ERMONT,"33, rue de la Halte, nan, ERMONT",95120,,,nan
MONTMORENCY,"3 Place Roger LEVANNEUR, nan, MONTMORENCY",95160,,,nan
LE BLANC MESNIL,"16-20, Avenue Henri Barbusse, nan, LE BLANC MESNIL",93150,,,nan
PONT STE MAXENCE,"4, rue Perronet, nan, PONT STE MAXENCE",60700,,,nan
CERGY PREFECTURE,"4, mail des Cerclades, nan, CERGY",95000,,,nan
ST MAXIMIN,"entrée en face du Conforama, Ctre Cial CORA - RN 16, ST MAXIMIN",60740,,,nan
BONDY,"16-18, rue Auguste Polissard, nan, BONDY",93140,,,nan
ARNOUVILLE,"94-96, rue Jean Jaurès, nan, ARNOUVILLE",95400,,,nan
BEAUMONT SUR OISE,"1, rue Léon Godin, nan, BEAUMONT SUR OISE",95260,,,nan
VILLEPINTE VERT GALANT,"4, pl de la Gare, nan, VILLEPINTE",93420,,,nan
L'ISLE ADAM,"31 bis, Grande Rue, nan, L'ISLE ADAM",95290,,,nan
PARIS ABBESSES,"36 rue Lepic/1, rue Tholozé, nan, PARIS 18",75018,,,nan
PARIS LAFAYETTE,"95, rue Lafayette, nan, PARIS 10",75010,,,nan
DOMONT EZANVILLE,"2, Avenue Jean Rostand, nan, EZANVILLE",95460,,,nan
PARIS JOURDAIN,"117, rue de Belleville, nan, PARIS 19",75019,,,nan
MENNECY,"47, bd Charles de Gaulle, nan, MENNECY",91540,,,nan
ATHIS-MONS ST CHARLES,"1, pl de l'Eglise, nan, ATHIS-MONS",91200,,,nan
PARIS BANQUE PRIVEE VAL DE MARNE,"35, rue du Val de Marne, nan, PARIS",75013,,,nan
FOSSES,"8, pl de la Liberté, nan, FOSSES",95470,,,nan
BRETEUIL SUR NOYE,"14, Avenue du Général Frère, nan, BRETEUIL SUR NOYE",60120,,,nan
CONFLANS STE HONORINE CHENNEVIERES,"217, Avenue du Maréchal Foch, nan, CONFLANS STE HONORINE",78700,,,nan
PARIS RENNES,"94, rue de Rennes, nan, PARIS",75006,,,nan
PARIS PROFESSIONS LIBERALES,"56, bd Saint-Michel, nan, PARIS",75006,,,nan
GENNEVILLIERS,"1, pl Jean Grandel, nan, GENNEVILLIERS",92230,,,nan
CHAMBLY,"Ctre Cial Les Hauts Vents, Rue François Truffaut, CHAMBLY",60230,,,nan
PANTIN EGLISE,"149, Avenue Jean Lolive, nan, PANTIN",93500,,,nan
CENTRE AFFAIRES OISE - VAL D'OISE,"Allée Rosa Luxembourg, Bâtiment Le Michigan - Eragny sur Oise, CERGY",95000,,,nan
PARIS RIVE DROITE CENTRE D'AFFAIRES,"3, cité Paradis, nan, PARIS 10",75010,,,nan
PARIS SUD PRO LIB,"50, avenue Aristide Briand, nan, ANTONY",92160,,,nan
CORBEIL - LE COUDRAY,"14 RUE FERAY, nan, CORBEIL ESSONNES",91100,,,nan
PARIS AG RIVES EN SIGNES,"41, Avenue des Gobelins, nan, PARIS",75013,,,nan
ISSY AG BQ PRIVEE DES HAUTS SEINE,"7-9, rue Auguste Gervais, nan, ISSY LES MOULINEAUX",92130,,,nan
CA RIVES INNOVATION,"80 BOULEVARD AUGUSTE BLANQUI, nan, PARIS CEDEX 13",75013,,,nan
BESANCON REPUBLIQUE,"9, rue de la République, nan, BESANCON",25000,,,nan
MAICHE,"1, rue de la Batheuse, nan, MAICHE",25120,,,nan
MONTBELIARD CENTRE,"27, rue Cuvier, nan, MONTBELIARD",25200,,,nan
ORNANS,"20, rue Jacques Gervais, nan, ORNANS",25290,,,nan
SALINS LES BAINS,"27-29, rue de la République, nan, SALINS LES BAINS",39110,,,nan
HAUTS DE BIENNE MOREZ,"157, rue de la République, MOREZ, HAUTS DE BIENNE",39400,,,nan
POLIGNY,"24, pl des Déportés, nan, POLIGNY",39800,,,nan
LOUHANS,"72, Grande Rue, nan, LOUHANS",71500,,,nan
VALENTIGNEY,"25, Grande Rue, nan, VALENTIGNEY",25700,,,nan
VESOUL,"11, rue Noirot, nan, VESOUL",70000,,,nan
BESANCON ST FERJEUX,"2, rue Ribot, nan, BESANCON",25000,,,nan
HERICOURT,"24, Avenue Léon Jouhaux, nan, HERICOURT",70400,,,nan
ST AMOUR,"4, pl Georges Clemenceau, nan, ST AMOUR",39160,,,nan
BELFORT JEAN JAURES,"59 bis, Avenue Jean Jaurès, nan, BELFORT",90000,,,nan
BELFORT CENTRE,"8 bis, faubourg de Montbéliard, nan, BELFORT",90000,,,nan
TAVAUX,"25, avenue du Président Kennedy, nan, TAVAUX",39500,,,nan
MONTBELIARD HEXAGONE,"4, rue Vivaldi, nan, MONTBELIARD",25200,,,nan
SOCHAUX,"7, rue d'Epinal, nan, SOCHAUX",25600,,,nan
LES ROUSSES,"1, pl Centrale, nan, LES ROUSSES",39220,,,nan
ST VIT,"1bis, rue Charles de Gaulle, nan, ST VIT",25410,,,nan
ECOLE VALENTIN,"35, rue de Chatillon, nan, ECOLE VALENTIN",25480,,,nan
ECOUSSONS,"83, rue de Salins, nan, PONTARLIER",25300,,,nan
BOURG EN BRESSE HERRIOT,"Bd Edouard Herriot, nan, BOURG EN BRESSE",01000,,,nan
BOURG EN BRESSE NOTRE DAME,"12, pl Neuve, nan, BOURG EN BRESSE",01000,,,nan
MACON GAMBETTA,"10, rue de Lyon, nan, MACON",71000,,,nan
VESOUL SUD,"2, Avenue Pasteur, nan, ECHENOZ LA MELINE",70000,,,nan
TOURNUS,"1, pl de l'Hôtel de Ville, nan, TOURNUS",71700,,,nan
DAMPIERRE SUR SALON,"4, rue Alfred Dornier, nan, DAMPIERRE SUR SALON",70180,,,nan
MONTREVEL EN BRESSE,"8, pl du 3 Septembre, nan, MONTREVEL EN BRESSE",01340,,,nan
CLAIRVAUX LES LACS,"52, Grande Rue, nan, CLAIRVAUX LES LACS",39130,,,nan
PIERRE DE BRESSE,"13, pl Comte d'Estampes, nan, PIERRE DE BRESSE",71270,,,nan
L'ISLE SUR LE DOUBS,"24, pl Aristide Briand, nan, L'ISLE SUR LE DOUBS",25250,,,nan
BESANCON HAUTS DU CHAZAL,"20, rue Paul Milleret, CS 12076, BESANCON Cedex",25051,,,nan
VILLERSEXEL,"113, rue du 13 Septembre 1944, nan, VILLERSEXEL",70110,,,nan
VESOUL NORD,"14, rue Claude Monet, nan, VESOUL",70000,,,nan
DIJON TREMOUILLE,"14, bd de la Trémouille, nan, DIJON",21000,,,nan
ARNAY LE DUC,"3, rue Jean Maire, nan, ARNAY LE DUC",21230,,,nan
BEAUNE LES HALLES,"4, pl de la Halle, nan, BEAUNE",21200,,,nan
ST JEAN DE LOSNE,"11, rue de la Liberté, nan, ST JEAN DE LOSNE",21170,,,nan
IS SUR TILLE,"10, pl du Général Leclerc, nan, IS SUR TILLE",21120,,,nan
CHABLIS,"7, pl Charles de Gaulle, nan, CHABLIS",89800,,,nan
ST AMAND EN PUISAYE,"3, pl du Marché, nan, ST AMAND EN PUISAYE",58310,,,nan
PONT SUR YONNE,"3-5, pl Eugène Petit, nan, PONT SUR YONNE",89140,,,nan
VITTEAUX,"Pl Spontin, nan, VITTEAUX",21350,,,nan
CHALON SUR SAONE DE GAULLE,"22, place Charles de Gaulle, nan, CHALON SUR SAONE",71100,,,nan
AUXERRE RUE DU PONT,"104, rue du Pont, nan, AUXERRE",89000,,,nan
VERMENTON,"1, pl Jean Jaurès, nan, VERMENTON",89270,,,nan
LONGVIC,"6, pl Aristide Briand, nan, LONGVIC",21600,,,nan
GUEUGNON,"24, rue de la Liberté, nan, GUEUGNON",71130,,,nan
NEVERS VAL DES LOGES,"24, bd du Pré Plantin, nan, NEVERS",58000,,,nan
BOURBON LANCY,"4, rue du Docteur Pain, nan, BOURBON LANCY",71140,,,nan
BORDEAUX TOURNY,"3, allée de Tourny, nan, BORDEAUX",33000,,,nan
VILLENAVE D'ORNON,"2, rue Jean Bonnardel, Bâtiment A Résidence Topaze, VILLENAVE D'ORNON",33140,,,nan
BORDEAUX FONDAUDEGE,"187, rue Fondaudège, nan, BORDEAUX",33000,,,nan
PESSAC ALOUETTE,"45, Avenue du Général Leclerc, nan, PESSAC",33600,,,nan
BORDEAUX CHARTRONS,"2, cours Portal, nan, BORDEAUX",33000,,,nan
LE BOUSCAT,"157, Avenue de la Libération, nan, LE BOUSCAT",33110,,,nan
HENDAYE,"2, Avenue des Allées, nan, HENDAYE",64700,,,nan
TALENCE,"309, cours de la Libération, nan, TALENCE",33400,,,nan
BORDEAUX BASTIDE,"4, pl Stalingrad, nan, BORDEAUX",33100,,,nan
MOURENX VILLE NOUVELLE,"12, pl du Béarn, nan, MOURENX",64150,,,nan
NAY BOURDETTES,"14, place du Marcadieu, nan, NAY",64800,,,nan
ST SEVER,"9, rue du Tribunal, nan, ST SEVER",40500,,,nan
LIBOURNE CENTRE,"29, pl Descazes, nan, LIBOURNE",33500,,,nan
MAULEON LICHARRE,"12, rue J-B Heugas, nan, MAULEON SOULE",64130,,,nan
ARUDY,"10 Bis avenue des Pyrénées, nan, ARUDY",64260,,,nan
NAVARRENX,"Pl Darralde, nan, NAVARRENX",64190,,,nan
ST PALAIS,"40, rue des Fors, nan, ST PALAIS",64120,,,nan
BIARRITZ KENNEDY,"110, avenue Kennedy, nan, BIARRITZ",64200,,,nan
ST JEAN PIED DE PORT,"14, avenue de Navarre, nan, ST JEAN PIED DE PORT",64220,,,nan
ST MEDARD EN JALLES,"22, Avenue Montesquieu, nan, ST MEDARD EN JALLES",33160,,,nan
CASTILLON LA BATAILLE,"2, pl Pierre Orus, nan, CASTILLON LA BATAILLE",33350,,,nan
CAMBLANES ET MEYNAC,"1, rte des Cités, nan, CAMBLANES ET MEYNAC",33360,,,nan
BIGANOS,"1, Avenue de la Libération, nan, BIGANOS",33380,,,nan
CASTELNAU DE MEDOC,"2, pl Aristide Briand, nan, CASTELNAU DE MEDOC",33480,,,nan
LA REOLE,"Frimont Ouest - RN 113, nan, LA REOLE",33190,,,nan
CAVIGNAC,"63, Avenue de Paris, nan, CAVIGNAC",33620,,,nan
CHASSENEUIL SUR BONNIEURE,"90, Avenue de la République, nan, CHASSENEUIL SUR BONNIEURE",16260,,,nan
LE GOND PONTOUVRE,"131, rte de Paris, nan, LE GOND PONTOUVRE",16160,,,nan
TERRASSON LAVILLEDIEU,"8, rue Rastignac, nan, TERRASSON LAVILLEDIEU",24120,,,nan
BOURGANEUF,"9, rue Emile de Girardin, nan, BOURGANEUF",23400,,,nan
AUBUSSON,"2, pl Jean Lurçat, nan, AUBUSSON",23200,,,nan
PANAZOL,"2, Avenue du Président Sadi Carnot, nan, PANAZOL",87350,,,nan
LIMOGES FRANCOIS PERRIN,"261 bis, rue François Perrin, nan, LIMOGES",87000,,,nan
LIMOGES LES HALLES,"19, pl de la Motte, nan, LIMOGES",87000,,,nan
BELLAC,"17, Avenue Denfert Rochereau, nan, BELLAC",87300,,,nan
ST YRIEIX LA PERCHE,"6, rue Victor Hugo, nan, ST YRIEIX",87500,,,nan
BERGERAC,"19, rue Sainte Catherine, nan, BERGERAC",24100,,,nan
MARSAC SUR L'ISLE,"55 ALLEE GUILLENAUD, nan, MARSAC SUR L'ISLE",24430,,,nan
THIVIERS,"1, pl de la République, nan, THIVIERS",24800,,,nan
STE FOY LA GRANDE,"64, rue de la République, nan, STE FOY LA GRANDE",33220,,,nan
ROCHEFORT,"35 bis, rue Denfert Rochereau, nan, ROCHEFORT",17300,,,nan
LA ROCHELLE CHAUDRIER,"15, rue Chaudrier, nan, LA ROCHELLE",17000,,,nan
ROYAN,"9, rue Gambetta, nan, ROYAN",17200,,,nan
ST JEAN D'ANGELY,"2, pl François Mitterrand, nan, ST JEAN D'ANGELY",17400,,,nan
BRESSUIRE,"7 bis, bd Alexandre 1er, nan, BRESSUIRE",79300,,,nan
LA ROCHELLE ST MAURICE,"143 bis, Avenue Edmond Grasset, nan, LA ROCHELLE",17000,,,nan
MELLE,"19, Place de  la Poste, nan, MELLE",79500,,,nan
PONS,"15, rue Emile Combes, nan, PONS",17800,,,nan
SURGERES,"84, rue Audry de Puyravault, nan, SURGERES",17700,,,nan
LA ROCHELLE LES MINIMES,"107, Avenue Michel Crepeau, nan, LA ROCHELLE",17000,,,nan
SAUJON,"26, pl du Gal de Gaulle, nan, SAUJON",17600,,,nan
FEYTIAT,"25, Avenue Winston Churchill, nan, FEYTIAT",87220,,,nan
BERGERAC RIVE GAUCHE,"24, bd Louis PIMOND, nan, BERGERAC",24100,,,nan
MEYSSAC,"Pl de la Poste, nan, MEYSSAC",19500,,,nan
NIORT AIFFRES,"358, rte d'Aiffres, nan, NIORT",79000,,,nan
ST CYPRIEN,"Rue Gambetta, nan, ST CYPRIEN",24220,,,nan
CAP-FERRET,"43-45, ROUTE DU CAP-FERRET, GRAND PIQUEY, LEGE CAP-FERRET",33950,,,nan
LEOGNAN,"22,COURS DU MARECHAL LECLERC, nan, LEOGNAN",33850,,,nan
ST ASTIER,"10, PLACE DE LA REPUBLIQUE, nan, ST ASTIER",24110,,,nan
AG DAX CLIENTS PROFESSIONNELS,"COURS JULIA AUGUSTA, nan, DAX",40100,,,nan
SOULAC,"6, rue Trouche, nan, SOULAC-SUR-MER",33780,,,nan
ORCHIES,"4, rue de l'Eglise, nan, ORCHIES",59310,,,nan
HAUBOURDIN,"11 bis, rue Sadi Carnot, nan, HAUBOURDIN",59320,,,nan
LINSELLES,"9, pl de la Victoire, nan, LINSELLES",59126,,,nan
SOMAIN,"14 A, pl Jean Jaurès, nan, SOMAIN",59490,,,nan
BOVES,"Bd Michel Strogoff, nan, BOVES",80440,,,nan
WATTIGNIES,"77, rue du Général de Gaulle, nan, WATTIGNIES",59139,,,nan
AIRE SUR LA LYS,"7, Grande Place, nan, AIRE SUR LA LYS",62120,,,nan
RONCHIN,"129-131, Avenue Jean Jaurès, nan, RONCHIN",59790,,,nan
MARLY,"58, Avenue Henri Barbusse, nan, MARLY",59770,,,nan
RAISMES,"13, grand place, nan, RAISMES",59590,,,nan
WAVRIN,"9A/9B, pl de la République, nan, WAVRIN",59136,,,nan
DAINVILLE,"2, Avenue Lavoisier, nan, DAINVILLE",62000,,,nan
BOULOGNE SUR MER,"87, rue Thiers, nan, BOULOGNE SUR MER",62200,,,nan
AMIENS,"4, rue des Vergeaux, nan, AMIENS",80000,,,nan
ARRAS,"31, rue Gambetta, nan, ARRAS",62000,,,nan
LILLE FAIDHERBE,"29, rue Faidherbe, nan, LILLE",59800,,,nan
HALLUIN,"103 bis, rue de Lille, nan, HALLUIN",59250,,,nan
WATTRELOS,"16, pl Jean Delvainquière, nan, WATTRELOS",59150,,,nan
LILLE FIVES,"147, rue Pierre Legrand, nan, LILLE",59800,,,nan
ARMENTIERES,"49, rue de Lille, nan, ARMENTIERES",59280,,,nan
AMIENS PLATANES,"2 bis, bd Pont Noyelles, nan, AMIENS",80090,,,nan
SEDAN,"6, pl Goulden, nan, SEDAN",08200,,,nan
MARCQ EN BAROEUL CENTRALE,"847, Avenue de la République, nan, MARCQ EN BAROEUL",59700,,,nan
LA MADELEINE,"188, rue du Général de Gaulle, nan, LA MADELEINE",59110,,,nan
MALO LES BAINS,"30, Avenue Faidherbe, nan, MALO LES BAINS",59240,,,nan
VILLENEUVE D'ASCQ ANNAPES,"1, rue de la Station, nan, VILLENEUVE D'ASCQ",59650,,,nan
CALAIS ROYALE,"27, rue Royale, nan, CALAIS",62100,,,nan
MOUVAUX,"71 bis-71 ter, rue Franklin Roosevelt, nan, MOUVAUX",59420,,,nan
LILLE JOIRE PAJOT MARTIN,"27, rue Faidherbe, nan, LILLE",59800,,,Banque Joire Pajot Martin
CARVIN,"2, pl Jean Jaurès, nan, CARVIN",62220,,,nan
DOUAI SUZANNE LANOY,"52, pl Suzanne Lanoy, nan, DOUAI",59500,,,nan
ST AMAND LES EAUX,"21-25, rue d'Orchies, nan, ST AMAND LES EAUX",59230,,,nan
BOULOGNE SUR MER BREQUERECQUE,"90-92, rue de Bréquerecque, nan, BOULOGNE SUR MER",62200,,,nan
HAZEBROUCK,"63, pl du Général de Gaulle, nan, HAZEBROUCK",59190,,,nan
ARRAS MINELLE,"1, pl de Tchécoslovaquie, nan, ARRAS",62000,,,nan
VILLENEUVE D'ASCQ FLERS,"231-233, rue Jules Guesde, nan, VILLENEUVE D'ASCQ",59650,,,nan
ARRAS SUD,"103, Avenue Fernand Lobbedez, nan, ARRAS",62000,,,nan
VALENCIENNES JOIRE PAJOT MARTIN,"2, rue Fort Mimique, nan, VALENCIENNES",59300,,,Banque Joire Pajot Martin
LE PORTEL,"8, Avenue du Maréchal Joffre, nan, LE PORTEL",62480,,,nan
QUIMPER PROFESSIONNELS,"2 rue du Frugy, nan, QUIMPER",29000,,,nan
CHOLET PROFESSIONNELS,"4, rue Roger Hostein, nan, CHOLET",49300,,,nan
OTOKTONE PATRIMOINE,"15, boulevard de la Boutière, nan, SAINT-GREGOIRE",35768,,,Crédit Maritime Grand Ouest
OTOKTONE GRANDES ENTREPRISES RENNES,"15, Boulevard de la Boutière, nan, ST-GREGOIRE",35760,,,Crédit Maritime Grand Ouest
AGENCE ENTREPRISES ST NAZAIRE,"1 BIS CHEMIN VERT, nan, SAINT NAZAIRE",44600,,,Crédit Maritime Grand Ouest
LANESTER,"Pl Jean Moulin, nan, LANESTER",56600,,,nan
PLOEMEUR,"4, rue de Larmor, nan, PLOEMEUR",56270,,,nan
LORIENT BOVE,"12, cours de la Bôve, nan, LORIENT",56100,,,nan
VANNES MARCHAIS,"9, pl Maurice Marchais, nan, VANNES",56000,,,nan
NANTES RACINE,"5, place Paul Emile Ladmirault, nan, NANTES",44000,,,nan
AUDIERNE,"1, rue du 14 Juillet, nan, AUDIERNE",29770,,,nan
QUIMPER STEIR,"6-8, quai du Steir, nan, QUIMPER",29000,,,nan
QUIMPER PRAT MARIA,"1, rue de la Liberté, nan, QUIMPER",29000,,,nan
CHATEAUBRIANT,"14C, pl de la Motte, nan, CHATEAUBRIANT",44110,,,nan
CARQUEFOU,"9, rue André Maurois, nan, CARQUEFOU",44470,,,nan
SAVENAY,"1, rue Hoche, nan, SAVENAY",44260,,,nan
QUIBERON,"8 bis, rue de Port Maria, nan, QUIBERON",56170,,,nan
AGENCE ENTREPRISES VANNES,"74 rue du Vincin, nan, VANNES",56000,,,nan
ST NAZAIRE OCEANE,"5, pl Pierre Bourdan, nan, ST NAZAIRE",44600,,,nan
COUERON,"8 bis, rue du 4 Septembre, nan, COUERON",44220,,,nan
OTOKTONE GRANDES ENTREPRISES NANTES,"24, rue de la Rabotière, nan, SAINT HERBLAIN",44800,,,nan
CARNAC,"31, rue Saint Cornely, nan, CARNAC",56340,,,nan
PLOUAY,"6, pl de l'Eglise, nan, PLOUAY",56240,,,nan
HENNEBONT,"1, rue du Maréchal Joffre, nan, HENNEBONT",56700,,,nan
ST HERBLAIN,"12, rue de l'Hôtel de Ville, nan, ST HERBLAIN",44800,,,nan
VALLET,"9-10, pl Charles de Gaulle, nan, VALLET",44330,,,nan
SENE,"60, avenue Paul Cézanne, nan, VANNES",56000,,,nan
LES SORINIERES,"31-33, rue Georges Clemenceau, nan, LES SORINIERES",44840,,,nan
LE CROISIC,"19, rue du Traict, nan, LE CROISIC",44490,,,nan
AGENCE LOIRE ATLANTIQUE AGRICULTURE,"8, rue des Bruyères, nan, REZE",44000,,,nan
BLAIN,"12, pl Jean Guihard, nan, BLAIN",44130,,,nan
QUESTEMBERT,"Pl de la Libération, nan, QUESTEMBERT",56230,,,nan
AGENCE ENTREPRISES NANTES EST,"1, Avenue de Josselin, nan, NANTES",44300,,,nan
PLERIN ARMOR BANQUE PRIVE CM,"1, rue des Mimoras, nan, PLERIN",22190,,,nan
AGENCE ENTREPRISES NANTES SUD,"8, rue des Bruyères, nan, REZE",44400,,,nan
ST NAZAIRE PRESQU'ILE BANQUE PRIVEE,"1bis, Chemin Vert, nan, ST NAZAIRE",44600,,,nan
NANTES BANQUE PRIVEE - ST HERBLAIN,"2, rue Françoise Sagan, nan, NANTES CEDEX 9",44934,,,nan
ST GILLES CROIX DE VIE,"34, quai de la République, nan, ST GILLES CROIX DE VIE",85800,,,nan
ANGERS BICHON,"5, place du docteur Bichon, nan, ANGERS",49000,,,nan
ANGERS ST SERGE,"3, Avenue Jean Joxe, nan, ANGERS",49100,,,nan
ANGERS LA ROSERAIE,"Ctre Cial Principal, Pl du Chapeau de Gendarme, ANGERS",49000,,,nan
ANGERS GRAND MAINE,"2, allée du Grand Launay, nan, ANGERS",49000,,,nan
SAUMUR ST LAMBERT,"134, Rte de Rouen St Lambert, nan, SAUMUR",49400,,,nan
DOUE EN ANJOU,"30, pl du Champ de Foire, nan, DOUE EN ANJOU",49700,,,nan
CHANTONNAY,"78, rue Nationale, nan, CHANTONNAY",85110,,,nan
MONTREUIL JUIGNE,"9, rue Victor Hugo, nan, MONTREUIL JUIGNE",49460,,,nan
BREST PONANT BANQUE PRIVEE,"430, rue Augustin Jacq, nan, BREST",29200,,,nan
TALMONT,"9 rue du Château, nan, TALMONT-SAINT-HILAIRE",85440,,,nan
LES SABLES D''OLONNE LE PORT,"8 Quai Franqueville, nan, LES SABLES D''OLONNE",85100,,,Crédit Maritime Grand Ouest
LAVAL MAYENNE BANQUE PRIVEE,"12, Allée de Cambrai, nan, LAVAL",53000,,,nan
QUIMPER PRAT MARIA,"1, rue de la Liberté, nan, QUIMPER",29000,,,Crédit Maritime Grand Ouest
QUIMPER BQUE PRIVEE,"50, rue du Président Sadate, nan, QUIMPER",29000,,,nan
PERROS GUIREC,"2 rue de la Poste, nan, PERROS GUIREC",22700,,,Crédit Maritime Grand Ouest
LORIENT BOVE,"12 Cours de la Bôve, nan, LORIENT",56100,,,Crédit Maritime Grand Ouest
PLERIN,"11 rue du Commerce, nan, PLERIN",22190,,,Crédit Maritime Grand Ouest
PORT LOUIS,"rue de la Résistance, nan, PORT-LOUIS",56290,,,Crédit Maritime Grand Ouest
AGENCE ENTREPRISES LORIENT,"12 et 14, rue du Sous-Marin Vénus, nan, LORIENT",56000,,,Crédit Maritime Grand Ouest
VANNES CM,"9, place Maurice Marchais, nan, VANNES",56000,,,Crédit Maritime Grand Ouest
SARZEAU CM,"16, rue du Général de Gaulle, nan, SARZEAU",56370,,,Crédit Maritime Grand Ouest
AGENCE ENTREPRISES NANTES OUEST,"2, rue Françoise Sagan, nan, NANTES CEDEX 9",44934,,,Crédit Maritime Grand Ouest
SENE POULFANC,"60, avenue Paul Cézanne, nan, VANNES",56000,,,Crédit Maritime Grand Ouest
L'AIGUILLON SUR MER CM,"Pl du Docteur Giraudet, nan, L'AIGUILLON SUR MER",85460,,,Crédit Maritime Grand Ouest
ST GILLES CROIX CM,"34, quai de la République, nan, ST GILLES CROIX DE VIE",85800,,,Crédit Maritime Grand Ouest
LANGUEUX,"1 rue Jules Vernes, Cellule A, LANGUEUX",22360,,,Crédit Maritime Grand Ouest
BEAUVOIR SUR MER CM,"14, ter Grand Place, nan, BEAUVOIR SUR MER",85230,,,nan
L'ILE D'YEU CM,"23, quai Carnot, nan, L'ILE D'YEU",85350,,,Crédit Maritime Grand Ouest
BAYEUX CM,"6, rue Alain Chartier, nan, BAYEUX",14400,,,Crédit Maritime Grand Ouest
CHERBOURG CM,"1, rue de l'Alma, nan, CHERBOURG",50100,,,Crédit Maritime Grand Ouest
OUISTREHAM CM,"15, pl du Général de Gaulle, nan, OUISTREHAM",14150,,,Crédit Maritime Grand Ouest
GRANDCAMP MAISY CM,"9, quai Chéron, nan, GRANDCAMP MAISY",14450,,,Crédit Maritime Grand Ouest
ERQUY CM,"19, rue Georges Clémenceau, nan, ERQUY",22430,,,Crédit Maritime Grand Ouest
DOL DE BRETAGNE CM,"19, place Toullier, nan, DOL DE BRETAGNE",35120,,,Crédit Maritime Grand Ouest
QUIMPER STEIR,"6 et 8 quai du Steir, nan, QUIMPER",29000,,,Crédit Maritime Grand Ouest
AGENCE ENTREPRISES QUIMPER,"50, rue du Président Sadate, nan, QUIMPER",29000,,,Crédit Maritime Grand Ouest
ST POL DE LEON CM,"9, rue du Colombier, nan, ST POL DE LEON",29250,,,Crédit Maritime Grand Ouest
AGENCE ENTREPRISES BREST,"430, rue Augustin Jacq, nan, BREST",29229,,,Crédit Maritime Grand Ouest
CROZON CM,"21, rue Alsace Lorraine, nan, CROZON",29160,,,Crédit Maritime Grand Ouest
DOUARNENEZ - TREBOUL CM,"6, rue Edouard Branly, ZA de Toubalan, DOUARNENEZ",29100,,,Crédit Maritime Grand Ouest
AUDIERNE CM,"1, rue du 14 juillet, nan, AUDIERNE",29770,,,Crédit Maritime Grand Ouest
PONT L'ABBE CM,"4, rue Jean Jaurès, nan, PONT L'ABBE",29120,,,Crédit Maritime Grand Ouest
CONCARNEAU CM,"2, pl du Général de Gaulle, nan, CONCARNEAU",29900,,,Crédit Maritime Grand Ouest
FOUESNANT CM,"5, rue de Cornouaille, nan, FOUESNANT",29170,,,Crédit Maritime Grand Ouest
MOELAN SUR MER CM,"21, pl de l'Eglise, nan, MOELAN SUR MER",29350,,,Crédit Maritime Grand Ouest
OTOKTONE GRANDES ENTREPRISES RENNES,"15, bd de la Boutière, nan, ST-GREGOIRE",35760,,,nan
RENNES GARE,"8, place du Parlement, nan, RENNES",35000,,,nan
DOL DE BRETAGNE,"19, pl Toullier, nan, DOL DE BRETAGNE",35120,,,nan
ST MALO REPUBLIQUE,"33, bd de la République, nan, ST MALO",35400,,,nan
ST MALO INTRA MUROS,"3, rue Porcon, nan, ST MALO",35400,,,nan
ST MALO PARAME,"13, rue Robert Schuman, nan, ST MALO",35400,,,nan
REDON,"8, pl de Bretagne, nan, REDON",35600,,,nan
ST HILAIRE DU HARCOUET,"15, rue du Bassin, nan, ST HILAIRE DU HARCOUET",50600,,,nan
GRANVILLE,"22, cours Jonville, nan, GRANVILLE",50400,,,nan
COUTANCES,"1, rue Tancrède, nan, COUTANCES",50200,,,nan
VILLEDIEU LES POELES,"6, rue du Gal de Gaulle, nan, VILLEDIEU LES POELES",50800,,,nan
CARENTAN MARAIS,"1 bis, rue de l'Abreuvoir, nan, CARENTAN LES MARAIS",50500,,,nan
DOMFRONT POIRAIE,"26, rue des Fossés Plissons, nan, DOMFRONT EN POIRAIE",61700,,,nan
L'AIGLE,"15-17, place Boislandry, nan, L'AIGLE",61300,,,nan
LE MANS CENTRE,"40, Avenue du Général de Gaulle, nan, LE MANS",72000,,,nan
LE MANS PONTLIEUE,"9, Avenue du Docteur Jean Mac, nan, LE MANS",72014,,,nan
BRUZ,"17, place Marcel Pagnol, nan, BRUZ",35170,,,nan
RENNES ST JACQUES,"258 bis, rue de Nantes, nan, ST JACQUES DE LA LANDE",35136,,,nan
MONTFORT SUR MEU,"25, rue Saint Nicolas, nan, MONTFORT SUR MEU",35160,,,nan
AGENCE ENTREPRISES RENNES OUEST,"15, boulevard de la Boutière, nan, SAINT GREGOIRE",35768,,,nan
ST MARTIN DES CHAMPS,"Ctre Cial Bretagnia, nan, ST MARTIN DES CHAMPS",29600,,,nan
PLERIN,"11, rue du Commerce, nan, PLERIN",22190,,,nan
QUINTIN,"14, Grande Rue, nan, QUINTIN",22800,,,nan
BREST LAMBEZELLEC,"18, rue Robespierre, nan, BREST",29200,,,nan
BETTON,"1, Avenue de la Haye Renaud, nan, BETTON",35830,,,nan
ST MALO AGRI I ET V NORD,"33, bd de la République, nan, ST MALO",35400,,,nan
ST-GREGOIRE AGRI I ET V SUD,"15, bd de la Boutière, nan, ST-GREGOIRE",35760,,,nan
ST LO AGRI MANCHE,"330, rue  Alexis de Tocqueville, nan, ST LO",50000,,,nan
ALENCON AGRI ORNE,"27, rue du Jeudi, nan, ALENCON",61000,,,nan
ALENCON MONTSORT,"11, Avenue du Général Leclerc, nan, ALENCON",61000,,,nan
MOELAN SUR MER,"21, place de l''Eglise, nan, MOELAN-SUR-MER",29350,,,nan
PLOUGASTEL DAOULAS,"19, rue du Pont, nan, PLOUGASTEL DAOULAS",29470,,,nan
BREST SIAM,"73, rue de Siam, nan, BREST",29200,,,nan
ST BRIEUC CENTRE,"53, rue Saint Guillaume, nan, SAINT-BRIEUC",22000,,,nan
ST MARTIN DES CHAMPS,"Centre Commercial Bretagnin, nan, SAINT MARTIN DES CHAMPS",29600,,,Crédit Maritime Grand Ouest
LANNION,"13, quai d'Aiguillon, nan, LANNION",22300,,,nan
BREST CENTRE,"8, rue Saint Saëns, nan, BREST",29200,,,nan
LANDIVISIAU,"11, rue Clemenceau, nan, LANDIVISIAU",29400,,,nan
QUIMPER PROFESSIONNELS,"2 rue du Frugy, nan, QUIMPER",29000,,,Crédit Maritime Grand Ouest
LESNEVEN,"10, rue de la Marne, nan, LESNEVEN",29260,,,nan
BREST CENTRE,"8, rue Saint Saens, nan, BREST",29200,,,Crédit Maritime Grand Ouest
ST RENAN,"30, rue Saint Yves, nan, ST RENAN",29290,,,nan
ST QUAY PORTRIEUX,"2, bd du Général de Gaulle, nan, ST QUAY PORTRIEUX",22410,,,nan
BREST ST PIERRE,"1bis rue Emile Rousse, nan, BREST",29200,,,Crédit Maritime Grand Ouest
GUIPAVAS,"10 rue Commandant Challe, nan, GUIPAVAS",29490,,,Crédit Maritime Grand Ouest
PLOUZANE,"305 bd du Général de Gaulle, nan, PLOUZANE",29280,,,Crédit Maritime Grand Ouest
ST MALO ST SERVAN,"32, rue Ville Pépin, nan, SAINT MALO",35400,,,Crédit Maritime Grand Ouest
NANTES GUIST''HAU,"5, boulevard Guist''Hau, nan, NANTES",44000,,,nan
LA TURBALLE,"45, rue du Maréchal Leclerc, nan, LA TURBALLE",44420,,,nan
GUERANDE,"2 Place du Marhallé, nan, GUERANDE",44350,,,Crédit Maritime Grand Ouest
LA BAULE,"6 Avenue Jean de Neyman, nan, LA BAULE",44500,,,Crédit Maritime Grand Ouest
CHERBOURG OCTEVILLE,"29, rue de Lorraine, nan, CHERBOURG",50100,,,Crédit Maritime Grand Ouest
AIX EN PROVENCE LES MILLES,"1140, rue André Ampère, ZI Actimart, AIX EN PROVENCE",13290,,,nan
MARSEILLE LE CABOT,"11, bd du Redon, nan, MARSEILLE",13009,,,nan
AIX EN PROVENCE FORBIN,"6 bis, cours Gambetta, nan, AIX EN PROVENCE",13100,,,nan
ISLE SUR LA SORGUE,"9, AVENUE DE LA LIBERATION, nan, L'ISLE SUR LA SORGUE",84800,,,nan
MIRAMAS,"42, avenue Charles de Gaulle, nan, MIRAMAS",13140,,,nan
GARDANNE,"12, bd Bontemps, nan, GARDANNE",13120,,,nan
AVIGNON SEMARD,"2, Avenue Pierre Sémard, nan, AVIGNON",84000,,,nan
MARSEILLE BLANCARDE,"8, bd de la Blancarde, nan, MARSEILLE",13004,,,nan
CARPENTRAS,"53, place du Général de Gaulle, nan, CARPENTRAS",84200,,,nan
AJACCIO SERAFINI,"6, Avenue Antoine Sérafini, nan, AJACCIO",20000,,,nan
CARGESE,"Route de Piana, Bât A, CARGESE",20130,,,nan
PROPRIANO,"Immeuble l'Isolottu, lieu dit San Ghjuseppu, PROPRIANO",20110,,,nan
LA PENNE SUR HUVEAUNE,"Pl Jean Pellegrin, Immeuble La Bourgade, LA PENNE SUR HUVEAUNE",13821,,,nan
SORGUES,"11, cours de la République, nan, SORGUES",84700,,,nan
MARSEILLE BAILLE,"264, bd Baille, nan, MARSEILLE",13005,,,nan
LUCCIANA,"Rte de l'Aéroport, Rond point de Crucetta, LUCCIANA",20290,,,nan
LA CIOTAT ANCRE MARINE,"Centre Commercial Ancre Marine, Chemin du Puits de Brunet, LA CIOTAT",13600,,,nan
AJACCIO MEZZAVIA,"Parc d'Activités de Mezzavia, nan, AJACCIO",20167,,,nan
ST MARTIN DE CRAU,"54, avenue de la République, nan, ST MARTIN DE CRAU",13310,,,nan
NICE JEAN JAURES,"20, bd Jean Jaurès, nan, NICE",06300,,,nan
BEAUSOLEIL,"1, bd du Général Leclerc, nan, BEAUSOLEIL",06240,,,nan
LE CANNET ROCHEVILLE,"67 bis, Avenue Franklin Roosevelt, nan, LE CANNET",06110,,,nan
JUAN LES PINS,"5, avenue de l'Esterel, nan, JUAN LES PINS - ANTIBES",06160,,,nan
NICE ILE DE BEAUTE,"8, pl Ile de Beauté, nan, NICE",06300,,,nan
ST MAXIMIN LA STE BAUME,"282, avenue Gabriel Péri, nan, ST MAXIMIN LA STE BAUME",83470,,,nan
NICE WILSON,"17, rue de l'Hôtel des Postes, nan, NICE",06000,,,nan
NICE INTERNATIONAL BRANCH,"22, bd Victor Hugo, nan, NICE",06000,,,nan
ST CYR SUR MER,"30, place Portalis, nan, ST CYR SUR MER",83270,,,nan
LA VALETTE DU VAR,"Ave des Frères Lumière, nan, LA VALETTE DU VAR",83160,,,nan
BRIGNOLES,"89, Avenue du Maréchal Foch, nan, BRIGNOLES",83170,,,nan
TOULON LA RODE,"10 rue Henri Poincaré, nan, TOULON",83100,,,nan
LA SEYNE SUR MER GARIBALDI,"13, Avenue Garibaldi, nan, LA SEYNE SUR MER",83500,,,nan
MONACO MONTE CARLO,"3/9, bd des Moulins, nan, MONACO",98000,,,nan
AVIGNON PIE,"4, Place Jerusalem, nan, AVIGNON",84000,,,nan
APT,"282, avenue de Lancon, nan, APT",84400,,,nan
CHATEAURENARD CHAPELLE,"15 AVENUE AUGUSTE CHAPELLE, nan, CHATEAURENARD",13160,,,nan
LUNEL,"40, Avenue du Vidourle, nan, LUNEL",34400,,,nan
SENAS,"7 PLACE AUGUSTE JAUBERT, nan, SENAS",13560,,,nan
AVIGNON RASPAIL,"11 Boulevard Raspail, nan, AVIGNON",84000,,,nan
VALREAS,"1, AVENUE MEYNARD, nan, VALREAS",84600,,,nan
ISTRES PRAT,"6 BOULEVARD JEAN-JACQUES PRAT, nan, ISTRES",13800,,,nan
LE THOR,"86 COURS GAMBETTA, nan, LE THOR",84250,,,nan
EPERNAY,"38, Rue Général Leclerc, nan, EPERNAY",51200,,,nan
BANQUE PRIVEE LOR,"4, place du Général De Gaulle, nan, METZ",57000,,,nan
BANQUE PRIVEE ALS,"4, place Sebastien Brant, nan, STRASBOURG",67000,,,nan
BITCHE,"17, rue du Maréchal Foch, nan, BITCHE",57230,,,nan
SARREGUEMINES,"18, rue Nationale, nan, SARREGUEMINES",57200,,,nan
SIERCK LES BAINS,"35, quai des Ducs de Lorraine, nan, SIERCK LES BAINS",57480,,,nan
DIEUZE,"10, Avenue du Général de Gaulle, nan, DIEUZE",57260,,,nan
JOEUF,"57, rue Franchepré, nan, JOEUF",54240,,,nan
PONT A MOUSSON,"10, rue Victor Hugo, nan, PONT A MOUSSON",54700,,,nan
NANCY TROIS MAISONS,"84, rue Charles Keller, nan, NANCY",54000,,,nan
LUNEVILLE,"2, rue Banaudon, nan, LUNEVILLE",54300,,,nan
FREYMING MERLEBACH,"18, rue Eugène Kloster, nan, FREYMING MERLEBACH",57800,,,nan
METZ NORD,"56, rte de Woippy, nan, METZ",57053,,,nan
COSNES ET ROMAIN,"39, rue des Maragolles, nan, COSNES ET ROMAIN",54400,,,nan
REVIGNY SUR ORNAIN,"2, rue du Général de Gaulle, nan, REVIGNY SUR ORNAIN",55800,,,nan
LAXOU CHAMP LE BOEUF,"5, rue de la Mortagne, nan, LAXOU",54520,,,nan
DOMBASLE SUR MEURTHE,"103 bis, Avenue du Général Leclerc, nan, DOMBASLE SUR MEURTHE",54110,,,nan
REMIREMONT,"62, rue Charles de Gaulle, nan, REMIREMONT",88200,,,nan
VITTEL,"115, rue de Verdun, nan, VITTEL",88800,,,nan
GERARDMER,"20, rue du Général de Gaulle, nan, GERARDMER",88400,,,nan
BRUYERES,"11, rue Léopold, nan, BRUYERES",88600,,,nan
NANCY PLACE DES VOSGES,"1, bd du Recteur Senn, nan, NANCY",54000,,,nan
FROUARD,"43, rue de Metz, nan, FROUARD",54390,,,nan
ARS SUR MOSELLE,"13, pl de la République, nan, ARS SUR MOSELLE",57130,,,nan
COMMERCY,"19-21, place de Gaulle, nan, COMMERCY",55202,,,nan
RAMBERVILLERS,"45, rue Carnot, nan, RAMBERVILLERS",88700,,,nan
ARCIS SUR AUBE,"5, rue de Châlons, nan, ARCIS SUR AUBE",10700,,,nan
FAULQUEMONT,"16, rue de Metz, nan, FAULQUEMONT",57380,,,nan
CHALONS EN CHAMPAGNE,"2, rue Garinet, nan, CHALONS EN CHAMPAGNE",51000,,,nan
VAL DE BRIEY,"14, Avenue Albert de Briey, nan, VAL DE BRIEY",54150,,,nan
LANGRES,"48, rue Diderot, nan, LANGRES",52200,,,nan
NOGENT EN BASSIGNY,"1, rue du Château, nan, NOGENT EN BASSIGNY",52800,,,nan
STE SAVINE,"79 bis, Avenue Galliéni, nan, STE SAVINE",10300,,,nan
METZ C.A.E.,"4, Place du Général de Gaule, nan, METZ",57000,,,nan
TROYES BROSSOLETTE,"242, rue du Faubourg Croncels, nan, TROYES",10000,,,nan
REIMS ST REMI,"22 bis, rue Simon, nan, REIMS",51100,,,nan
CHALONS EN CHAMPAGNE FAGNIERES,"2, rue du Docteur Fragne, nan, CHALONS EN CHAMPAGNE",51000,,,nan
CORMONTREUIL,"Rue des Alleux, nan, CORMONTREUIL",51350,,,nan
EPINAL BQ PRIVEE,"44, rue Leo Valentin, nan, EPINAL",88000,,,nan
STRASBOURG ST PIERRE,"2, rue du 22 Novembre, nan, STRASBOURG",67000,,,nan
STRASBOURG ESPLANADE,"11, rond point de l'Esplanade, nan, STRASBOURG",67000,,,nan
BISCHHEIM,"65, rte de Bischwiller, nan, BISCHHEIM",67800,,,nan
STRASBOURG CONTADES,"19 A, Avenue de la Paix, nan, STRASBOURG",67000,,,nan
BARR,"16, rue Taufflieb, nan, BARR",67140,,,nan
BENFELD,"5, rue du Général de Gaulle, nan, BENFELD",67230,,,nan
ERSTEIN,"34, rue du Général de Gaulle, nan, ERSTEIN",67150,,,nan
HAGUENAU,"4 A, rue de la Moder, nan, HAGUENAU",67500,,,nan
SARRE UNION,"2, rue du Maréchal Foch, nan, SARRE UNION",67260,,,nan
MOLSHEIM,"2-4, rue de Strasbourg, nan, MOLSHEIM",67120,,,nan
SCHILTIGHEIM,"53, rte de Bischwiller, nan, SCHILTIGHEIM",67300,,,nan
SELESTAT,"5, Avenue de la Liberté, nan, SELESTAT",67600,,,nan
SOUFFELWEYERSHEIM,"1, rue du Centre, nan, SOUFFELWEYERSHEIM",67460,,,nan
STRASBOURG MUSAU,"52, rue de Ribeauvillé, nan, STRASBOURG",67100,,,nan
ALTKIRCH,"28, rue Charles de Gaulle, nan, ALTKIRCH",68130,,,nan
BRUNSTATT,"241, Avenue d'Altkirch, nan, BRUNSTATT",68200,,,nan
RIXHEIM,"1, Grand'rue, nan, RIXHEIM",68170,,,nan
ST LOUIS,"48, rue de Mulhouse, nan, ST LOUIS",68300,,,nan
HEGENHEIM,"18, rue de Bourgfelden, nan, HEGENHEIM",68220,,,nan
THANN,"18, rue du Général de Gaulle, nan, THANN",68800,,,nan
WITTELSHEIM,"7, rue du Général de Gaulle, nan, WITTELSHEIM",68310,,,nan
WITTENHEIM,"13, rue de Kingersheim, nan, WITTENHEIM",68270,,,nan
ORBEY - CANTON VERT,"1, rue des Ecoles, nan, ORBEY",68370,,,nan
COLMAR STANISLAS,"1, rue Stanislas, nan, COLMAR",68000,,,nan
KAYSERSBERG,"22, rue du Général de Gaulle, nan, KAYSERSBERG",68240,,,nan
MUNSTER,"7, pl du Marché, nan, MUNSTER",68140,,,nan
COLMAR CURIE,"16 A rte de Sélestat, nan, COLMAR",68000,,,nan
SUD INNOVATION,"120 rue Maryam Mirzakhani, RDC, MONTPELLIER",34000,,,nan
MONTPELLIER PROF LIBERALES ET PATRIMOINE,"20, bd des Arceaux, 1er etage, MONTPELLIER",34000,,,nan
PRIVAS LE LAC,"55, Impasse du Commerce, ZAC LA FUGIERE, PRIVAS",07000,,,nan
LEZIGNAN GAUJAC,"2, rue des Romains ZI des Corbières, nan, LEZIGNAN",11200,,,nan
CENTRE D'AFFAIRES AUBENAS BM,"8 Avenue de la Roqua, nan, AUBENAS",07200,,,Banque Marze
PERPIGNAN SUD ACCOMPAGNEMENT,"38, Boulevard Georges Clemenceau, nan, PERPIGNAN",66966,,,nan
ARLES SUR TECH,"12 RUE BARI D''AVALL, nan, ARLES SUR TECH",66150,,,nan
MONTPELLIER CAMPUS PAUL VALERY,"737, route de Mende, nan, MONTPELLIER",34000,,,nan
LUNEL 4 SAISONS,"AVENUE DES 4 SAISONS, CENTRE COMMERCIAL INTERMARCHE, LUNEL",34400,,,nan
ELNE,"76, rte Nationale, nan, ELNE",66200,,,nan
ILLE SUR TET,"85, Avenue Pasteur, nan, ILLE SUR TET",66130,,,nan
PORT VENDRES,"8, quai Pierre Forgas, nan, PORT VENDRES",66660,,,nan
PERPIGNAN CLOCHE D'OR,"4, pl Jean Jaurès, nan, PERPIGNAN",66000,,,nan
LE PERTHUS,"27, Avenue de France, nan, LE PERTHUS",66480,,,nan
BOURG MADAME,"3, Avenue Emmanuel Brousse, nan, BOURG MADAME",66760,,,nan
CANET PLAGE,"7, Avenue de la Méditerranée, nan, CANET EN ROUSSILLON",66140,,,nan
THUIR,"6, pl de la République, nan, THUIR",66300,,,nan
BOMPAS,"5bis, Avenue Pasteur, nan, BOMPAS",66430,,,nan
PORT LA NOUVELLE,"193, bd du Monument aux Morts, nan, PORT LA NOUVELLE",11210,,,nan
LIMOUX,"20, avenue du Pont de France, nan, LIMOUX",11300,,,nan
QUILLAN,"5, bd Jean Jaurès, nan, QUILLAN",11500,,,nan
CARCASSONNE POINTE FERRAND,"395, boulevard Denis Papin, nan, CARCASSONNE",11000,,,nan
CARCASSONNE ROOSEVELT,"169, Avenue F. Roosevelt, nan, CARCASSONNE",11000,,,nan
NARBONNE STADE,"1 Allée Christophe Dominici, nan, NARBONNE",11100,,,nan
ST GIRONS,"62, rue de Villefranche, nan, ST GIRONS",09200,,,nan
LAVELANET,"24, rue Jean Jaurès, nan, LAVELANET",09300,,,nan
TOULOUGES,"6, Avenue Jules Ferry, nan, TOULOUGES",66350,,,nan
VERNET LES BAINS,"3, rue de la Chapelle, nan, VERNET LES BAINS",66820,,,nan
PERPIGNAN ST CHARLES,"449, Avenue de Saint Charles, nan, PERPIGNAN",66000,,,nan
LAROQUE DES ALBERES,"Ctre Cial Champion, Rte d'Argelès - D618, LAROQUE DES ALBERES",66740,,,nan
ARGELES SUR MER LES ALBERES,"Ave des Flamants Roses, ZA de la Grone, ARGELES SUR MER",66700,,,nan
BAGNOLS SUR CEZE,"17, pl Pierre Boulot, nan, BAGNOLS SUR CEZE",30200,,,nan
NIMES CASTANET,"148, rte de Sauve, nan, NIMES",30900,,,nan
PRIVAS,"19, cours du Palais, nan, PRIVAS",07000,,,nan
VALLON PONT D'ARC,"24 Avenue Jean Jaurès, nan, VALLON PONT D'ARC",07150,,,nan
LATTES,"650, Avenue de Montpellier, nan, LATTES",34970,,,nan
FRONTIGNAN,"25, Avenue du Général de Gaulle, nan, FRONTIGNAN",34110,,,nan
SETE LES METAIRIES,"Ctre Cial, Bd Camille Blanc, SETE",34200,,,nan
BEZIERS BONAVAL,"48 rue Gerry Roufs, Centre Commercial, BEZIERS",34500,,,nan
PEZENAS,"28, Avenue du Maréchal Leclerc, nan, PEZENAS",34120,,,nan
MONTPELLIER JEU DE PAUME,"26, bd du Jeu de Paume, nan, MONTPELLIER",34000,,,nan
MONTPELLIER CORUM,"7, Avenue de Nîmes, nan, MONTPELLIER",34000,,,nan
NIMES COURBET,"5, bd Amiral Courbet, nan, NIMES",30000,,,nan
BEAUCAIRE,"26 bis, quai du Général de Gaulle, nan, BEAUCAIRE",30300,,,nan
NIMES BIR HAKEIM,"125, Avenue Bir Hakeim, nan, NIMES",30000,,,nan
NIMES VILLE ACTIVE,"Immeuble Plein Cintre, rue des Lauriers, NIMES",30900,,,nan
NIMES VICTOR HUGO,"40, bd Victor Hugo, nan, NIMES",30000,,,nan
ST CHELY D'APCHER,"34, Boulevard Guerin d'Apcher, nan, ST CHELY D'APCHER",48200,,,nan
LUNEL LES PORTES DE LA MER,"Ctre Cial, nan, LUNEL",34400,,,nan
ST DIONIZY,"Ctre Cial Casino, Lieudit ""Campastier"", ST DIONIZY",30980,,,nan
FRONTIGNAN LA PEYRADE,"Ctre Cial Les Portes du Muscat, Ave du Maréchal Juin, FRONTIGNAN",34110,,,nan
VILLENEUVE-LES-BEZIERS,"205, allée des NEGADOUS, PAE Pôle Méditerranée, VILLENEUVE-LES-BEZIERS",34420,,,nan
CASTELNAU LE LEZ AUBE ROUGE,"ZA Aube Rouge, nan, CASTELNAU LE LEZ",34170,,,nan
AIGUES MORTES,"1121, rte de Nîmes, nan, AIGUES MORTES",30220,,,nan
ST MATHIEU DE TREVIERS,"Ave de la République de Montferrand, nan, ST MATHIEU DE TREVIERS",34270,,,nan
MONTPELLIER ARCEAUX,"20, bd des Arceaux, nan, MONTPELLIER",34000,,,nan
VINCA,"Immeuble Prades, Ave Général de Gaulle, VINCA",66320,,,nan
CARCASSONNE PECH MARY,"Rue Camille Flammarion, Ave Souvenir Français, CARCASSONNE",11000,,,nan
PERPIGNAN POLYGONE,"131, bd Marius Berliet, nan, PERPIGNAN",66000,,,nan
GANGES,"24, rue Pasteur, nan, GANGES",34190,,,nan
NIMES KM DELTA,"78, rue John Mac Adam, nan, NIMES",30900,,,nan
LA CALMETTE,"11, rue Fanfonne Guillierme, nan, LA CALMETTE",30190,,,nan
AG SETE BDP,"10, RUE GENERAL DE GAULLE, nan, SETE",34200,,,Banque Dupuy de Parseval
ST JEAN DU FALGA,"19, rue Mille Hommes, nan, ST JEAN DU FALGA",09100,,,nan
AG NARBONNE BDP,"16, BOULEVARD GAMBETTA, nan, NARBONNE",11100,,,Banque Dupuy de Parseval
AG LEZIGNAN CORBIERES BDP,"19, Cours de la République, nan, LEZIGNAN CORBIERES",11200,,,Banque Dupuy de Parseval
PERPIGNAN FONCTION PUBLIQUE,"87, rue Pascal Marie Agasse, Etage, PERPIGNAN",66000,,,nan
AG JUVIGNAC BDP,"INTER CENTRE, ROUTE DE ST GEORGES D'ORQUE, JUVIGNAC",34990,,,Banque Dupuy de Parseval
AG MONTPELLIER LES ARCEAUX BDP,"7, RUE DORIA, nan, MONTPELLIER",34000,,,Banque Dupuy de Parseval
AG UZES BDP,"7, AVENUE DE LA LIBERATION, nan, UZES",30700,,,Banque Dupuy de Parseval
AG MONTPELLIER SAINT MARTIN BDP,"117, AVENUE DE PALAVAS, nan, MONTPELLIER",34070,,,Banque Dupuy de Parseval
AG MONTPELLIER GRAND M BDP,"170, RUE RAIMON DE TRENCAVEL, nan, MONTPELLIER CEDEX 3",34078,,,Banque Dupuy de Parseval
AG MARSEILLAN BDP,"25, BOULEVARD LAMARTINE, nan, MARSEILLAN",34340,,,Banque Dupuy de Parseval
AG BEZIERS LA TREILLE BDP,"15, AVENUE  DU DR J.M. FABRE, nan, BEZIERS",34500,,,Banque Dupuy de Parseval
AG PUISSERGUIER BDP,"3, BOULEVARD VICTOR HUGO, nan, PUISSERGUIER",34620,,,Banque Dupuy de Parseval
AG AUBENAS BM,"BOULEVARD GAMBETTA, nan, AUBENAS",07200,,,Banque Marze
AG LE TEIL BM,"PLACE PIERRE SEMARD, nan, LE TEIL",07400,,,Banque Marze
MEZE CMM,"2, bd Paul Valéry, nan, MEZE",34140,,,Crédit Maritime Méditerranée
SETE PORT CMM,"77, Grand Rue Mario Roustan, nan, SETE",34200,,,Crédit Maritime Méditerranée
LE GRAU DU ROI CMM,"49 bis, Avenue du Commandant Marceau, nan, LE GRAU DU ROI",30240,,,Crédit Maritime Méditerranée
GRUISSAN,"786 BOULEVARD DU PECH MAYNAUD, nan, GRUISSAN",11430,,,nan
AGENCE BANQUE PRIVEE LOIRE HAUTE-LOIRE,"109, rue de la Montat, nan, SAINT ETIENNE",42000,,,nan
GRANDES ENTREPRISES ARC ALPIN,"2, avenue du Gresivaudan, nan, CORENC",38700,,,nan
AGRI DROME ARDECHE,"19, avenue des Langories, Immeuble Aquillon, Batiment B, VALENCE",26000,,,nan
CHAMBERY CENTRE,"15, Avenue des Ducs de Savoie, nan, CHAMBERY",73000,,,nan
ANNECY CENTRE BONLIEU,"8 bis, rue Président Favre, nan, ANNECY",74000,,,nan
ARAVIS LA CLUSAZ,"331, rte des Grandes Alpes, nan, LA CLUSAZ",74220,,,nan
ARAVIS THONES,"Rue Blanche, nan, THONES",74230,,,nan
ANNECY EST ALBIGNY,"2, rue Centrale, nan, ANNECY LE VIEUX",74940,,,nan
AGENCE ENTREPRISES ANNEMASSE,"18, Avenue de la Gare, nan, ANNEMASSE",74100,,,nan
VILLE LA GRAND,"1, avenue des Buchillons, nan, ANNEMASSE",74100,,,nan
PORTES DU SOLEIL AVORIAZ,"22, Promenade du Festival, nan, AVORIAZ",74110,,,nan
GRAND MASSIF TANINGES,"8, Avenue de la Glière, nan, TANINGES",74440,,,nan
LE GIFFRE MARIGNIER,"47, Avenue des 2 Gares, nan, MARIGNIER",74970,,,nan
THONON LES BAINS,"4, square Aristide Briand, nan, THONON LES BAINS",74200,,,nan
FAUCIGNY BONNEVILLE,"340, Quai du Parquet, nan, BONNEVILLE",74137,,,nan
LE GIFFRE VIUZ EN SALLAZ,"304, allée du Commerce, nan, VIUZ EN SALLAZ",74250,,,nan
BELLEY,"7, bd du Mail, nan, BELLEY",01300,,,nan
PAYS DE GEX FERNEY VOLTAIRE,"7, Grand Rue, nan, FERNEY-VOLTAIRE",01210,,,nan
DU FIER SEYSSEL,"Grande Rue, nan, SEYSSEL",74910,,,nan
PAYS DE GEX ST GENIS POUILLY,"Pl de la Fontaine, nan, ST GENIS POUILLY",01630,,,nan
CHAMBERY NORD LA MOTTE SERVOLEX,"351, avenue Costa de Beauregard, nan, LA MOTTE SERVOLEX",73290,,,nan
ARLYSERE GILLY,"239, Avenue Georges Pompidou, nan, GILLY SUR ISERE",73200,,,nan
SAINT PIERRE D'ALBIGNY,"Place de l'Eglise, nan, ST PIERRE D'ALBIGNY",73250,,,nan
MONT BLANC CHAMONIX,"42, Avenue Michel Croz, nan, CHAMONIX",74400,,,nan
AGENCE ENTREPRISES CHAMBERY,"134,rue Paulette Besson, nan, CHAMBERY",73000,,,nan
AGENCE ENTREPRISES CHAVANOD,"21, rue Andromède, Parc ALTAIS, CHAVANOD",74650,,,nan
ANNECY OUEST MEYTHET,"24, rte de Frangy, nan, MEYTHET",74960,,,nan
GRAND LAC GRESY-SUR-AIX,"Chemin du Moulin, nan, GRESY-SUR-AIX",73100,,,nan
VALS DU DAUPHINE LES ABRETS,"2-4, rue Victor Hugo, nan, LES ABRETS CEDEX",38490,,,nan
PORTES DE DROME SAINT RAMBERT,"18, rue Steinberg, nan, ST RAMBERT D'ALBON",26140,,,nan
PORTES DE DROME SAINT VALLIER,"55, rue du Président Wilson, nan, ST VALLIER",26240,,,nan
VALENCE SUD VICTOR HUGO,"350-360, Avenue Victor Hugo, nan, VALENCE",26000,,,nan
SAINT MARCELLIN,"156/160 AVENUE DE ROMANS, nan, ST MARCELLIN",38160,,,nan
VAL DE DROME CREST,"2, quai des Marronniers, nan, CREST",26400,,,nan
PIERRELATTE,"7 bis, pl du Champs de Mars, nan, PIERRELATTE",26700,,,nan
BRIANCONNAIS BRIANCON,"20, Avenue Maurice Petsche, nan, BRIANCON CEDEX",05100,,,nan
LA MURE,"19, Avenue Chion Ducollet, nan, LA MURE",38350,,,nan
GRENOBLE CENTRE NOTRE DAME,"3, pl Notre Dame, nan, GRENOBLE",38000,,,nan
CHABEUIL,"Rte de Valence, ZA Gouvernaux, CHABEUIL",26120,,,nan
LES PORTES DU VERCORS ST EGREVE,"4 bis, Avenue du Général de Gaulle, nan, ST EGREVE",38120,,,nan
VALENTINOIS BOURG LES VALENCE,"2, Avenue Marc Urtin, nan, BOURG LES VALENCE",26500,,,nan
GRESIVAUDAN SAINT ISMIER,"501, rte de Chambéry, RN 90, SAINT-ISMIER",38330,,,nan
GRENOBLE BASTILLE EUROPOLE,"10 bis, rue de l'Abbé Grégoire, nan, GRENOBLE",38000,,,nan
VALENCE LAUTAGNE,"19, avenue des Langories, Immeuble AQUILLON Bat B, VALENCE",26000,,,nan
AGENCE ENTREPRISES MONTELIMAR,"4, allée de Barjac ZA du Meyrol, Espace Bastian, MONTELIMAR",26200,,,nan
VILLARD DE LANS,"164, Avenue du Général de Gaulle, nan, VILLARD DE LANS",38250,,,nan
AGENCE BANQUE PRIVEE CHAMBERY,"15, Avenue des Ducs de Savoie, nan, CHAMBERY",73000,,,nan
THIERS,"74, Avenue du Général de Gaulle, nan, THIERS",63300,,,nan
LE MONT DORE,"23, pl du Général de Gaulle, nan, LE MONT DORE",63240,,,nan
CLERMONT SUD LA PARDIEU,"300, rue de l'Oradou, nan, CLERMONT-FERRAND",63000,,,nan
CASTEL LEMPDAISE PONT DU CHATEAU,"11, pl de la Croix Blanche, nan, PONT DU CHATEAU",63430,,,nan
TERRES DE LIMAGNE RIOM,"35, pl de la Fédération, nan, RIOM",63201,,,nan
EGLETONS,"31, Avenue Charles de Gaulle, nan, EGLETONS",19300,,,nan
L'OREE DES DOMES CHAMALIERES,"37, Avenue de Royat, nan, CHAMALIERES",63400,,,nan
PORTE DES VOLCANS BEAUMONT,"10, Avenue du Maréchal Leclerc, nan, BEAUMONT",63110,,,nan
NORD DE CLERMONT LA PLAINE,"167, bd Etienne Clémentel, nan, CLERMONT FERRAND",63100,,,nan
ISSOIRE CENTRE,"20, pl Chancelier Duprat, nan, ISSOIRE",63500,,,nan
ISSOIRE LES LISTES,"59, Avenue Jean Jaurès, nan, ISSOIRE",63500,,,nan
BILLOM,"1, pl Alfred Thomas, nan, BILLOM",63160,,,nan
AGENCE ENTREPRISES PUY DE DOME FOREZ,"18, Boulevard Jean Moulin, nan, CLERMONT FERRAND",63000,,,nan
MAURS,"8, pl de l'Europe, nan, MAURS",15600,,,nan
CASTEL LEMPDAISE LEMPDES,"10, pl Poids de Ville, nan, LEMPDES",63370,,,nan
LE PUY BRIVES CHARENSAC,"127, avenue Charles Dupuy, nan, BRIVES CHARENSAC",43700,,,nan
MONTMARAULT,"26, pl Robert Ferrandon, nan, MONTMARAULT",03390,,,nan
DOMPIERRE SUR BESBRE,"21, pl de la République BP 21, nan, DOMPIERRE SUR BESBRE",03290,,,nan
ALLIER SUD ST POURCAIN SUR SIOULE,"61, bd Ledru Rollin, nan, ST POURCAIN SUR SIOULE",03500,,,nan
USSEL,"13, Avenue Victor Hugo, nan, USSEL",19200,,,nan
MONTLUCON RIVES DE CHER J GUESDE,"91, Avenue Jules Guesde, nan, MONTLUCON",03100,,,nan
CHARLIEU,"23, rue des Moulins, nan, CHARLIEU",42190,,,nan
ROANNE CENTRE LE COTEAU,"32, Avenue de la Libération, nan, LE COTEAU",42120,,,nan
ROANNE OUEST MULSANT,"51, rue Mulsant, nan, ROANNE",42308,,,nan
ROANNE OUEST RENAISON,"10, rue Robert Barathon, nan, RENAISON",42370,,,nan
ST FLOUR,"14, cours SPY des Ternes, nan, ST FLOUR",15100,,,nan
VICHY BURNOL,"9, rue Burnol, nan, VICHY",03200,,,nan
CUSSET BELLERIVE CUSSET,"1, pl Victor Hugo, nan, CUSSET",03300,,,nan
LYON 3 MAISONS NEUVES,"240 bis, Avenue Félix Faure, nan, LYON",69003,,,nan
VIENNE CENTRE,"8, pl de Miremont, nan, VIENNE CEDEX",38217,,,nan
PAYS ROUSSILLONNAIS PEAGE,"110, rue de la République, nan, LE PEAGE DE ROUSSILLON",38556,,,nan
VILLEURBANNE CUSSET,"359, cours Emile Zola, nan, VILLEURBANNE",69100,,,nan
LYON PART DIEU GARIBALDI,"139, rue Garibaldi, nan, LYON",69003,,,nan
LYON LUMIERE BACHUT,"344, Avenue Berthelot, nan, LYON",69008,,,nan
MONTS D'OR ST DIDIER,"47, Avenue de la République, nan, ST DIDIER AU MONT D'OR",69370,,,nan
EST LYONNAIS SAINT PRIEST,"50, rue du Maréchal Leclerc, nan, ST PRIEST",69800,,,nan
VAL DE SAONE NEUVILLE,"12, rue Victor Hugo, nan, NEUVILLE SUR SAONE",69250,,,nan
PAYS DE LA TURDINE L ARBRESLE,"2, Avenue Pierre Sémard, nan, L'ARBRESLE",69210,,,nan
BELLEVILLE,"38, rue de la République, nan, BELLEVILLE",69220,,,nan
MONTS D'OR ECULLY,"2, Avenue Edouard Payen, nan, ECULLY",69130,,,nan
PORTES DE L'ISERE LA VERPILLIERE,"455, Avenue Lesdiguières, nan, LA VERPILLIERE",38290,,,nan
AGENCE GRDES ENT. AUV. RHONE ET LOIRE,"4, bd Eugène Deruelle, BP 3152, LYON CEDEX 3",69211,,,nan
VILLEFRANCHE CALADE NORD,"10, rue Ronceveaux, nan, VILLEFRANCHE SUR SAONE",69400,,,nan
COTEAUX GIVORS,"11, rue Jean Ligonnet, nan, GIVORS",69700,,,nan
AGENCE ENTREPRISES VILLEFRANCHE / SAONE,"495, Avenue Théodore Braun, CS 80460, VILLEFRANCHE SUR SAONE CEDEX",69400,,,nan
AGENCE ENTREPRISES BOURGOIN,"18, rue Joseph Cugnot, nan, BOURGOIN JALLIEU",38300,,,nan
AGENCE ENTREPRISES LYON EST,"81 BOULEVARD STALINGRAD, IMMEUBLE PARK AVENUE, VILLEURBANNE",69100,,,nan
AGENCE ENTREPRISES LOIRE SUD,"1, pl de l'Hôtel de Ville, BP 511, ST ETIENNE CEDEX 1",42007,,,nan
AGENCE ENTREPRISES DU PAYS VIENNOIS,"ZA du Verenay CNR, nan, AMPUIS",69420,,,nan
FOREZ FEURS,"Pl Antoine Drivet, nan, FEURS",42110,,,nan
ST ETIENNE OUEST JACQUARD,"3, pl Jacquard, nan, ST ETIENNE",42000,,,nan
ANNONAY,"21, Avenue de l'Europe, nan, ANNONAY",07103,,,nan
ST ETIENNE SUD BELLEVUE,"2, rue Gabriel Péri, nan, ST ETIENNE",42100,,,nan
ALBI CENTRE AFFAIRES,"51-54, place Jean-Jaurès, nan, ALBI",81012,,,nan
LOURDES,"2, Avenue du Maréchal Foch, nan, LOURDES",65100,,,nan
MERCADIEU,"1 Place Mercadieu, nan, MURET",31600,,,nan
TOULOUSE ST CYPRIEN,"12 PLACE ROGUET, nan, TOULOUSE",31300,,,nan
TOULOUSE MINIMES,"102, Avenue des Minimes, nan, TOULOUSE",31200,,,nan
LANNEMEZAN,"2, pl de la République, nan, LANNEMEZAN",65300,,,nan
TOULOUSE DUPUY,"18, pl Dupuy, nan, TOULOUSE",31000,,,nan
FLEURANCE,"7, pl de la République, nan, FLEURANCE",32500,,,nan
GRENADE,"32, rue Victor Hugo, nan, GRENADE",31330,,,nan
TOULOUSE BONNEFOY,"46, faubourg Bonnefoy, nan, TOULOUSE",31500,,,nan
TOULOUSE CROIX DE PIERRE,"2, boulevard Deodat de Severac, nan, TOULOUSE",31300,,,nan
ST ORENS DE GAMEVILLE,"36, Avenue de Gameville, nan, ST ORENS DE GAMEVILLE",31650,,,nan
VIC EN BIGORRE,"2, bd Gallieni, nan, VIC EN BIGORRE",65500,,,nan
COLOMIERS BASCULE,"26, rue d'Auch, nan, COLOMIERS",31770,,,nan
AUREILHAN,"2, Avenue Jean Jaurès, nan, AUREILHAN",65800,,,nan
BALMA GRANDS COMPTES,"33, Avenue Georges Pompidou, nan, BALMA",31130,,,nan
BLAGNAC MAIRIE,"17, rue Prosper Ferradou, nan, BLAGNAC",31700,,,nan
CASTELGINEST,"14, rue du Pont Vieil, nan, CASTELGINEST",31780,,,nan
TARBES CENTRE AFFFAIRES,"28, pl Verdun, nan, TARBES",65000,,,nan
TOULOUSE JEANNE D'ARC,"1, pl Jeanne d'Arc, nan, TOULOUSE",31000,,,nan
MURET EUROPE,"54 ter Avenue Jacques Douzans, nan, MURET",31600,,,nan
TOULOUSE JEAN CHAUBET,"2, Impasse Jean Chaubet, nan, TOULOUSE",31500,,,nan
RIEUMES,"10, pl des Marchands, nan, RIEUMES",31370,,,nan
CONDOM,"4, pl du Lion d'Or, nan, CONDOM",32100,,,nan
CAUTERETS,"24, Avenue du Général Leclerc, nan, CAUTERETS",65110,,,nan
EAUZE,"2, rue Saint July, nan, EAUZE",32800,,,nan
TOULOUSE RAMONVILLE ST AGNE,"226, route de Narbonne, nan, TOULOUSE",31400,,,nan
GRISOLLES,"20, rue Adrien Hébrard, nan, GRISOLLES",82170,,,nan
GAILLAC,"56, pl de la Libération, nan, GAILLAC",81600,,,nan
DECAZEVILLE,"9, rue Cabrol, nan, DECAZEVILLE",12300,,,nan
ST SULPICE LA POINTE,"7, pl du Grand Rond, nan, ST SULPICE LA POINTE",81370,,,nan
SEVERAC LE CHATEAU,"Ave Pierre Semard, nan, SEVERAC LE CHATEAU",12150,,,nan
CASTRES CENTRE AFFAIRES,"13, pl Soult, nan, CASTRES",81100,,,nan
RODEZ CENTRE AFFAIRES,"210, Avenue de Bourran, nan, RODEZ",12000,,,nan
ST JUERY,"20, Avenue Germain Tequi, nan, ST JUERY",81160,,,nan
LA PRIMAUBE,"21, Avenue de Rodez, nan, LA PRIMAUBE",12450,,,nan
MILLAU INDUSTRIE,"Pl des Martyrs de la Résistance, nan, MILLAU",12100,,,nan
EAUNES,"1, pl de la Croix Blanche, nan, EAUNES",31600,,,nan
LEGUEVIN,"2, allée des Cordeliers, Zac de Lengel, LEGUEVIN",31490,,,nan
FIGEAC,"Pl Léon Besombes, nan, FIGEAC",46102,,,nan
MARMANDE,"64, rue Charles de Gaulle, nan, MARMANDE",47204,,,nan
GRAMAT,"11, Avenue Gambetta, nan, GRAMAT",46500,,,nan
FUMEL MONTAYRAL,"ZAC les Portes du Quercy, nan, FUMEL",47500,,,nan
PRAYSSAC,"13, bd de la Paix, nan, PRAYSSAC",46220,,,nan
AGEN PIN,"60, cours du 14 Juillet, nan, AGEN",47000,,,nan
AIGUILLON,"25, rue Thiers, nan, AIGUILLON",47190,,,nan
CAHORS PLACE DE GAULLE,"Pl Charles de Gaulle, nan, CAHORS",46001,,,nan
ST SYLVESTRE,"2, pl de la Mairie, nan, ST SYLVESTRE",47140,,,nan
MONFLANQUIN,"Bd Clemenceau, nan, MONFLANQUIN",47150,,,nan
MARTEL,"56 Place Gambetta, nan, MARTEL",46600,,,nan
BOE,"1800, Avenue Jean Nogues, nan, BOE",47550,,,nan
CAHORS MARYSE BASTIE,"599, Avenue Maryse Bastié, nan, CAHORS",46001,,,nan
VILLENEUVE SUR LOT CENTRE AFFAIRES,"18, bd Palissy, nan, VILLENEUVE SUR LOT",47300,,,nan
NOGARO,"10, pl Jeanne d'Arc, nan, NOGARO",32110,,,nan
PONT DE SALARS,"Rue de l'Eglise, nan, PONT DE SALARS",12290,,,nan
MONTASTRUC LA CONSEILLERE,"2093, rte d'Albi, nan, MONTASTRUC LA CONSEILLERE",31380,,,nan
LAGUIOLE,"Route Nationale, nan, LAGUIOLE",12210,,,nan
MAUBOURGUET,"93, pl de la Libération, nan, MAUBOURGUET",65700,,,nan
CARAMAN,"2, avenue de Toulouse, nan, CARAMAN",31460,,,nan
FONSORBES,"8, allée de Gascogne, nan, FONSORBES",31470,,,nan
ST GENIEZ D'OLT,"13, rue de l'Hôtel de Ville, nan, ST GENIEZ D'OLT",12130,,,nan
SAINT JORY,"3, rue de l'Espérance, nan, SAINT JORY",31790,,,nan
TOULOUSE SEPT DENIERS,"96, rte de Blagnac, nan, TOULOUSE",31200,,,nan
Tours agence Profession Liberale,"7, Place Jean Jaurès, nan, Tours",37000,,,nan
LA RICHE VITICOLE INDRE ET LOIRE,"25, pl Sainte Anne, nan, LA RICHE",37520,,,nan
RUEIL ARSENAL,"70 TER RUE DES BONS RAISINS, nan, RUEIL MALMAISON",92500,,,nan
VERSAILLES POURVOIERIE,"19, rue de la Pourvoierie, nan, VERSAILLES",78000,,,nan
MANTES LA JOLIE GAMBETTA,"1, Pl Aristide Briand, Angle rues Lorraine-Division Gal Leclerc, MANTES LA JOLIE",78207,,,nan
HOUDAN,"1, rue d'Epernon, nan, HOUDAN",78550,,,nan
LES MUREAUX,"105, rue Paul Doumer, nan, LES MUREAUX",78132,,,nan
GIF SUR YVETTE,"3, rue Amodru, nan, GIF SUR YVETTE",91192,,,nan
SARTROUVILLE,"44, Avenue Jean Jaurès, nan, SARTROUVILLE",78502,,,nan
VERSAILLES HOCHE,"4, pl Hoche, nan, VERSAILLES",78000,,,nan
JOUY EN JOSAS,"13, rue Oberkampf, nan, JOUY EN JOSAS",78350,,,nan
VERSAILLES ST LOUIS,"10, rue Royale, nan, VERSAILLES",78000,,,nan
VAUCRESSON,"32, rue de la Folie, nan, VAUCRESSON",92420,,,nan
ST REMY LES CHEVREUSE,"19, pl du 14 Juillet, nan, ST REMY LES CHEVREUSE",78470,,,nan
LES ULIS,"124, Avenue des Champs Lasniers, nan, LES ULIS",91940,,,nan
PLAISIR,"Ctre Cial Brigitte, nan, PLAISIR",78371,,,nan
CHARTRES MADELEINE,"Ctre Cial Madeleine, Ave des anc. combat. d'Afrique du Nord, CHARTRES",28000,,,nan
MANTES LA VILLE,"114, rte de Houdan, nan, MANTES LA VILLE",78711,,,nan
BEYNES,"33, rue de la République, nan, BEYNES",78650,,,nan
CROISSY SUR SEINE,"38, bd Hostachy, nan, CROISSY SUR SEINE",78290,,,nan
MAUREPAS,"2, allée de la Côte d'Or, nan, MAUREPAS",78311,,,nan
SAINT QUENTIN EN YVELINES ENTREPRISES,"9, avenue Newton, nan, MONTIGNY LE BRETONNEUX",78180,,,nan
INGRE,"8, pl de la Mairie, nan, INGRE",45140,,,nan
AMILLY,"580, rue Saint Firmin, nan, AMILLY",45200,,,nan
MONTARGIS,"1, rue Jean Jaurès, nan, MONTARGIS",45200,,,nan
OLIVET ARTOIS,"183, rue d'Artois, nan, OLIVET",45160,,,nan
LA FERTE ST AUBIN,"64, rue du Général Leclerc, nan, LA FERTE ST AUBIN",45240,,,nan
ST JEAN DE BRAYE,"12, rue Danton, nan, ST JEAN DE BRAYE",45800,,,nan
PITHIVIERS,"11, rue de la Couronne, nan, PITHIVIERS",45300,,,nan
AUBIGNY SUR NERE,"15, rue du Charbon, nan, AUBIGNY SUR NERE",18700,,,nan
SANCOINS,"20, pl de la Halle, nan, SANCOINS",18600,,,nan
DEOLS,"75, Avenue du Général de Gaulle, nan, DEOLS",36130,,,nan
ARGENTON SUR CREUSE,"19, rue Gambetta, nan, ARGENTON SUR CREUSE",36200,,,nan
LE BLANC,"Rue Pierre Colin de Souvigny, nan, LE BLANC",36300,,,nan
ST FLORENT SUR CHER,"26, Avenue Gabriel Dordain, nan, ST FLORENT SUR CHER",18400,,,nan
BERRY ENTREPRISES,"102, AVENUE HAEGELIN, nan, BOURGES",18000,,,nan
TOURS JEAN JAURES,"7, pl Jean Jaurès, nan, TOURS",37000,,,nan
FONDETTES,"8, rue Eugène Gouin, nan, FONDETTES",37230,,,nan
LANGEAIS,"1, pl Léon Boyer, nan, LANGEAIS",37130,,,nan
POITIERS COURONNERIES,"11, Avenue Robert Schuman, nan, POITIERS",86000,,,nan
CHAUVIGNY,"6, rue de Geisenheim, nan, CHAUVIGNY",86300,,,nan
CHATELLERAULT,"60-62, bd Blossac, nan, CHATELLERAULT",86100,,,nan
VENDOME,"5-7, rue du Général de Gaulle, nan, VENDOME",41100,,,nan
AMBOISE,"10, quai du Général de Gaulle, nan, AMBOISE",37400,,,nan
MER,"5, pl de la Halle, nan, MER",41500,,,nan
GUYANCOURT,"57-59 RUE GEORGES HAUSSMANN, nan, GUYANCOURT",78280,,,nan
Banque Populaire Alsace Lorraine Champagne,"3, rue François Curel, nan, METZ CEDEX 1",57021,,,nan
Banque Populaire Val de France,"9, avenue Newton, nan, Saint-Quentin en Yvelines Cedex",78183,,,nan
PAYS ROCHOIS REIGNIER,"326, Grande Rue, nan, REIGNIER",74930,,,nan
CHAMBERY NORD COGNIN,"18, rte de Lyon, nan, COGNIN",73160,,,nan
GRAND LAC GRESY-SUR-AIX,"Chemin du Moulin, nan, GRESY-SUR-AIX",73100,,,nan
GRENOBLE SUD BONNE,"26 - 28, rue Berthe de Boissieux, nan, GRENOBLE",38000,,,nan
GAP TOKORO,"20, Avenue Emile Didier, nan, GAP",05000,,,nan
VALENTINOIS BOURG LES VALENCE,"2, Avenue Marc Urtin, nan, BOURG LES VALENCE",26500,,,nan
PAYS VOIRONNAIS RIVES,"101, rue de la République, nan, RIVES",38140,,,nan
PORTES HAUTE LOIRE STE SIGOLENE,"1, rue de la Victoire, nan, STE SIGOLENE",43600,,,nan
ROANNE CENTRE LE COTEAU,"32, Avenue de la Libération, nan, LE COTEAU",42120,,,nan
VILLEFRANCHE CALADE PROMENOIR,"56, pl Carnot, nan, VILLEFRANCHE SUR SAONE",69400,,,nan
ST ETIENNE CENTRE FOURNEYRON,"27, pl Fourneyron, nan, ST ETIENNE",42000,,,nan
VILLE LA GRAND,"1, avenue des Buchillons, nan, ANNEMASSE",74100,,,nan
VAL D ARVE SCIONZIER,"1, Avenue du Mont Blanc, nan, SCIONZIER",74950,,,nan
LE GIFFRE MARIGNIER,"47, Avenue des 2 Gares, nan, MARIGNIER",74970,,,nan
FAUCIGNY ST PIERRE,"52, pl des Pléiades, nan, ST PIERRE EN FAUCIGNY",74800,,,nan
ANNECY EST LES FINS,"59-61, Avenue de Genève, nan, ANNECY",74000,,,nan
VALENCE SUD PORTES LES VALENCE,"61, rue Jean Jaurès, nan, PORTES LES VALENCE",26800,,,nan
GRENOBLE BASTILLE EUROPOLE,"10 bis, rue de l'Abbé Grégoire, nan, GRENOBLE",38000,,,nan
DRAC ROMANCHE VIZILLE,"57, pl du Château, nan, VIZILLE",38220,,,nan
PORTES DU ZENITH LES MARTRES,"27, Avenue de la Gare, nan, LES MARTRES DE VEYRE",63730,,,nan
ISSOIRE LES LISTES,"59, Avenue Jean Jaurès, nan, ISSOIRE",63500,,,nan
GRAND MOULINS YZEURE,"2, bd Jean Jaurès, nan, YZEURE",03400,,,nan
MONTLUCON RIVES DE CHER J GUESDE,"91, Avenue Jules Guesde, nan, MONTLUCON",03100,,,nan
LYON PART DIEU LAFAYETTE,"300, crs Lafayette, nan, LYON",69003,,,nan
LYON SUD SAINT GENIS LAVAL,"59, Avenue Clémenceau, nan, SAINT GENIS LAVAL",69230,,,nan
VAL DE SAONE FONTAINES,"3, rue Pierre Carbon, nan, FONTAINES SUR SAONE",69270,,,nan
LA BASSEE,"2, Avenue Jean-Baptiste Lebas, nan, LA BASSEE",59480,,,nan
VAL DE DROME DIE,"49, rue Camille Buffardel, nan, DIE",26150,,,nan
IVRY SUR SEINE,"97, Avenue Georges Gosnat, Ctre Cial Jeanne Hachette, IVRY SUR SEINE",94200,,,nan
CHOISY LE ROI,"4, Avenue Anatole France, Ctre Cial du Parc, CHOISY LE ROI",94600,,,nan
LE COUDRAY MONTCEAUX,"4-6, pl de la Mairie, Le Clos Lamartine, LE COUDRAY MONTCEAUX",91830,,,nan
FRANCONVILLE,"14 bis, bd Maurice Berteaux, Résidence Le Mail du Centre, FRANCONVILLE",95130,,,nan
BELFORT LES RESIDENCES,"10, rue Baumann, Ctre Cial, BELFORT",90000,,,nan
COTEAUX DU LIZON ST LUPICIN,"2 ter, rue du Marché, St Lupicin, COTEAUX DU LIZON",39170,,,nan
AMIENS ST PIERRE,"187, chaussée Saint Pierre, Résidence Saint Pierre, AMIENS",80000,,,nan
NANTES PARIDIS,"14, rte de Paris, Ctre Cial, NANTES",44300,,,nan
NANTES JEAN MACE,"43, bd de la Liberté, Pl Jean Macé, NANTES",44100,,,nan
LA SEYNE SUR MER MAR VIVO,"22, Avenue Charles de Gaulle, Résidence Le Minerve, LA SEYNE SUR MER",83500,,,nan
DRAGUIGNAN CHABRAN,"57, avenue de la 1ère Armée, Espace Euros - Chabran, DRAGUIGNAN",83300,,,nan
ST DIDIER SOUS AUBENAS MILLET,"966, Rte de Montélimar, Quartier des Champs, SAINT DIDIER SOUS AUBENAS",07200,,,nan
AG NARBONNE EST BDP,"12, RUE ERNEST COGNACQ, ZAC DE BONNE SOURCE, NARBONNE",11100,,,Banque Dupuy de Parseval
AG COURNONSEC BDP,"210, RUE DE LA BILIERE, ZAE DU FRIGOULET, COURNONSEC",34660,,,Banque Dupuy de Parseval
GRAND MASSIF SAMOENS,"202, Grande Rue, Immeuble Les Campanules, SAMOENS",74340,,,nan
CHABLAIS OUEST THONON GRANGETTE,"95, Avenue du Général de Gaulle, Immeuble Le Magnolia, THONON LES BAINS",74200,,,nan
AGENCE ENTREPRISES GAP,"70, impasse Saint Abdon, Lotissement Saint Abdon, TALLARD",05130,,,nan
PARIS BASTILLE,"8, rue Saint Antoine, nan, PARIS 04",75004,,,nan
PARIS BERCY,"31-35, rue Joseph Kessel, nan, PARIS 12",75012,,,nan
PARIS GAMBETTA,"200, rue des Pyrénées, nan, PARIS 20",75020,,,nan
PARIS PORTE D'AUTEUIL,"105, bd de Montmorency, nan, PARIS 16",75016,,,nan
PARIS VICTOR HUGO,"94, Avenue Victor Hugo, nan, PARIS 16",75016,,,nan
PARIS ST OUEN,"117, Avenue de Saint Ouen, nan, PARIS 17",75017,,,nan
PARIS SEBASTOPOL,"56, bd Sébastopol, nan, PARIS 03",75003,,,nan
LA POSSESSION,"Rue Leconte Delisle, nan, LA POSSESSION",97419,,,nan
PARIS PELLEPORT,"135 bis, Avenue Gambetta, nan, PARIS 20",75020,,,nan
PARIS ST PAUL,"121-123, rue Saint Antoine, nan, PARIS 04",75004,,,nan
PARIS PASSY,"35, rue de Passy, nan, PARIS 16",75016,,,nan
PARIS PARMENTIER,"10-12, Avenue Parmentier, nan, PARIS 11",75011,,,nan
PARIS FRIEDLAND,"43, avenue de Friedland, nan, PARIS",75008,,,nan
ST LOUIS,"Ctre Cial Hyper U - Bel Air, nan, ST LOUIS",97450,,,nan
PARIS ST ANTOINE,"137-139, rue du Faubourg Saint Antoine, nan, PARIS 11",75011,,,nan
PARIS LA FAYETTE,"74, rue La Fayette, nan, PARIS 09",75009,,,nan
PARIS EST CERCLE PATRIMONIAL,"14, rue Jaucourt, nan, PARIS 12",75012,,,nan
MAMOUDZOU,"Pl Mariage, Immeuble Zone 3 - Lots 4 et 5, MAMOUDZOU",97600,,,nan
BRED BAILLIF,"476 RUE DES PERES BLANCS, nan, BAILLIF",97123,,,nan
PARIS BELLEVILLE,"397, rue des Pyrénées, nan, PARIS 20",75020,,,nan
ST BARTHELEMY,"Ctre Cial Saint Jean, nan, ST BARTHELEMY",97133,,,nan
PARIS LA FOURCHE,"109, Avenue de Clichy, nan, PARIS 17",75017,,,nan
PARIS AVRON,"60, rue d'Avron, nan, PARIS 20",75020,,,nan
PARIS CHATEAUDUN,"6, rue Saint Lazare, nan, PARIS 09",75009,,,nan
PARIS OPERA,"1, rue Auber, nan, PARIS",75009,,,nan
PARIS PTE ST CLOUD,"211 bis, Avenue de Versailles, nan, PARIS 16",75016,,,nan
PARIS GRANDES ECOLES,"4, route de la Pyramide, nan, PARIS",75012,,,nan
LES ABYMES MILENIS,"Ctre Cial, ZAC Dothemare, LES ABYMES",97139,,,nan
LE LAMENTIN LA LEZARDE,"ZI, nan, LE LAMENTIN",97232,,,nan
PARIS CERCLE PATRIMONIAL VIP,"49, Avenue de l'Opéra, nan, PARIS",75002,,,nan
BOULOGNE BILLANCOURT PRINCIPALE,"78 bis, rte de la Reine, nan, BOULOGNE BILLANCOURT",92100,,,nan
STALINGRAD,"2, place Simone et Antoine Veil, nan, PUTEAUX",92800,,,nan
JOINVILLE LE PONT POLANGIS,"29, Avenue Galliéni, nan, JOINVILLE LE PONT",94340,,,nan
NOGENT SUR MARNE,"160 bis, Grande Rue Charles de Gaulle, nan, NOGENT SUR MARNE",94130,,,nan
ST MANDE,"178, Avenue Galliéni, nan, ST MANDE",94160,,,nan
VINCENNES,"16 bis, Avenue du Château, nan, VINCENNES",94300,,,nan
LES LILAS,"2, bd de la Liberté, nan, LES LILAS",93260,,,nan
BAGNOLET,"2, rue Hoche, nan, BAGNOLET",93170,,,nan
LE PERREUX SUR MARNE,"123, Avenue du Général de Gaulle, nan, LE PERREUX SUR MARNE",94170,,,nan
CRETEIL,"2, rue du Général Leclerc, nan, CRETEIL",94000,,,nan
LA VARENNE ST HILAIRE,"94, avenue du Bac, nan, LA VARENNE ST HILAIRE",94210,,,nan
CHENNEVIERES SUR MARNE,"Ctre Cial du Moulin, nan, CHENNEVIERES SUR MARNE",94430,,,nan
CHENNEVIERES PINCE-VENT,"Ctre Cial, nan, CHENNEVIERES SUR MARNE",94430,,,nan
MAISONS ALFORT ECOLE VETERINAIRE,"63, Avenue du Général Leclerc, nan, MAISONS ALFORT",94700,,,nan
HOTEL DE VILLE,"52, rue du Président Wilson, nan, LEVALLOIS PERRET",92300,,,nan
BOULOGNE MARCEL SEMBAT,"175 bis, bd Jean Jaurès, nan, BOULOGNE BILLANCOURT",92100,,,nan
ASNIERES SUR SEINE GARE,"4, rue de la Station, nan, ASNIERES SUR SEINE",92600,,,nan
CENTRE,"Lieu dit Gaschette, nan, LE ROBERT",97231,,,nan
MONTREUIL BOISSIERE,"233, bd Aristide Briand, nan, MONTREUIL",93100,,,nan
MAISONS ALFORT HOTEL DE VILLE,"1, rue Pasteur, nan, MAISONS ALFORT",94700,,,nan
COLOMBES HOTEL DE VILLE,"34, rue Saint Denis, nan, COLOMBES",92700,,,nan
COURBEVOIE GARE,"44, rue de Bezons, nan, COURBEVOIE",92400,,,nan
ST MAUR NATIONALE,"3, Avenue du Bac, nan, LA VARENNE ST HILAIRE",94210,,,nan
SURESNES JARDINS,"3, place de la Halle, nan, SURESNES",92150,,,nan
STE ANNE,"41, boulevard Hegesippe Ibene, nan, SAINTE ANNE",97180,,,nan
LE LAMENTIN PLACE D'ARMES,"Ctre Cial, nan, LE LAMENTIN",97232,,,nan
NOISIEL,"100, pl Gaston Menier, nan, NOISIEL",77186,,,nan
MELUN ST JEAN,"4, pl Saint Jean, nan, MELUN",77000,,,nan
FONTAINEBLEAU HOTEL DE VILLE,"16, rue Grande, nan, FONTAINEBLEAU",77300,,,nan
BOIS GUILLAUME,"123, rue de la République, nan, BOIS GUILLAUME",76230,,,nan
LE HAVRE BLEVILLE,"1, rue Pierre Guillaume Petit, nan, LE HAVRE",76620,,,nan
VERNON,"9, pl Charles de Gaulle, nan, VERNON",27200,,,nan
MONTEREAU,"11, rue Jean Jaurès, nan, MONTEREAU",77130,,,nan
MEAUX HOTEL DE VILLE,"6, quai Victor Hugo, nan, MEAUX",77100,,,nan
MELUN ST AMBROISE,"33, rue Saint Ambroise, nan, MELUN",77000,,,nan
PROVINS,"16, rue Hugues le Grand, nan, PROVINS",77160,,,nan
EVREUX,"11, rue de Grenoble, nan, EVREUX",27000,,,nan
LE HAVRE SANVIC,"273, rue de la Cavée Verte, nan, LE HAVRE",76620,,,nan
LA FERTE SOUS JOUARRE,"7, rue Michel Fauvet, nan, LA FERTE SOUS JOUARRE",77260,,,nan
ROUEN ST SEVER,"137, rue Saint Sever, nan, ROUEN",76100,,,nan
LOUVIERS,"29, rue du Maréchal Foch, nan, LOUVIERS",27400,,,nan
MELUN VAUX,"9-11, rte de Nangis, nan, MELUN",77000,,,nan
CAEN ST ETIENNE,"52, rue Ecuyère, nan, CAEN",14000,,,nan
OZOIR LA FERRIERE,"17, avenue du Général Leclerc, nan, OZOIR LA FERRIERE",77330,,,nan
DIEPPE,"11-13, pl Nationale, nan, DIEPPE",76200,,,nan
BERNAY,"26, rue Thiers, nan, BERNAY",27300,,,nan
EU,"7, pl Guillaume le Conquérant, nan, EU",76260,,,nan
ST DENIS DE LA REUNION LA TRINITE,"5, avenue Jean Paul II, nan, ST DENIS DE LA REUNION",97400,,,nan
ST GILLES LES BAINS,"2, rue la Plage, nan, SAINT PAUL",97434,,,nan
BAIE MAHAULT DESTRELLAN,"Ctre Cial Destrellan, nan, BAIE MAHAULT",97122,,,nan
LE LAMENTIN,"ZI Les Mangles - Acajou, nan, LE LAMENTIN",97232,,,nan
RIVIERE SALEE,"ZA de l'Espérance, nan, RIVIERE SALEE",97211,,,nan
DAMMARIE LES LYS,"29, rue Charles de Gaulle, nan, DAMMARIE LES LYS",77190,,,nan
BAYEUX,"47, rue Saint Patrice, nan, BAYEUX",14400,,,nan
VIRE,"6, rue Deslongrais, nan, VIRE",14500,,,nan
POINTE A PITRE BOISNEUF,"10, rue Achille René Boisneuf, nan, POINTE A PITRE",97110,,,nan
BASSE TERRE,"Rue du Docteur Cabre, nan, BASSE TERRE",97100,,,nan
BRED JARRY,"43, rue Henri Becquerel, ZI JARRY Imm Confindor, BAIE MAHAULT",97122,,,nan
LES ABYMES GRAND CAMP,"Ctre Cial, nan, LES ABYMES",97110,,,nan
ST ANDRE DE LA REUNION,"447, avenue de la République, nan, ST ANDRE DE LA REUNION",97440,,,nan
STE CLOTILDE,"16, rue Bridet, nan, STE CLOTILDE",97490,,,nan
PARIS TRUDAINE,"52, rue des Martyrs, 2, square Trudaine, PARIS 09",75009,,,nan
LES ABYMES RAIZET,"Carrefour Raizet Baimbridge, nan, LES ABYMES",97139,,,nan
LILLEBONNE,"4, rue de la République, nan, LILLEBONNE",76170,,,nan
DAMMARTIN EN GOELE,"Rue du Général de Gaulle, nan, DAMMARTIN EN GOELE",77230,,,nan
PARIS ST FARGEAU,"136, Avenue Gambetta, nan, PARIS 20",75020,,,nan
PARIS TERNES,"5, pl Tristan Bernard, nan, PARIS 17",75017,,,nan
ASNIERES SUR SEINE G PERI,"105, bd Voltaire, nan, ASNIERES SUR SEINE",92600,,,nan
STE ADRESSE,"1, rue de Vitanval, nan, STE ADRESSE",76310,,,nan
IFS,"Pl Debussy, nan, IFS",14123,,,nan
BAIE MAHAULT MOUDONG,"Immeuble B D A, Moudong Nord, BAIE MAHAULT",97122,,,nan
LA GARENNE COLOMBES VOLTAIRE,"10, rue Voltaire, nan, LA GARENNE COLOMBES",92250,,,nan
PARIS WAGRAM,"74, rue Jouffroy d'Abbans, nan, PARIS",75017,,,nan
BRAS PANON,"7880 bis, pl Michel Debré, nan, BRAS PANON",97412,,,nan
LA CHAPELLE LA REINE,"13, pl de la République, nan, LA CHAPELLE LA REINE",77760,,,nan
VAIRES SUR MARNE,"20, bd de Lorraine, Résidence St James, VAIRES SUR MARNE",77360,,,nan
SAINT PAUL SAVANNA,"4, rue Jules Thirel, Quartier Affaire de Savanna - La Balance, SAINT PAUL",97460,,,nan
SAINT MARTIN,"9, rue Barbuda, ZAC Hope Estate, SAINT MARTIN",97150,,,nan
ST AUBIN SUR SCIE DIEPPE,"1395, Avenue de la Maison Blanche, nan, SAINT AUBIN SUR SCIE",76550,,,nan
BRED HOUELBOURG,"3429, Boulevard de Houelbourg, ZI JARRY, BAIE MAHAULT",97122,,,nan
SAINT FRANCOIS CMMOM,"Rue du Général De Gaulle, nan, SAINT FRANCOIS",97118,,,nan
JUVISY SUR ORGE,"1, Avenue d'Estienne d'Orves, nan, JUVISY SUR ORGE",91260,,,nan
ANTONY,"50, Avenue Aristide Briand, nan, ANTONY",92160,,,nan
PARIS LECOURBE,"200, rue Lecourbe, nan, PARIS 15",75015,,,nan
VITRY SUR SEINE EGLISE,"131, Avenue Paul Vaillant Couturier, nan, VITRY SUR SEINE",94400,,,nan
VILLENEUVE LE ROI,"9, pl Amédée Soupault, nan, VILLENEUVE LE ROI",94290,,,nan
PARIS PLAISANCE,"47, rue de Gergovie, nan, PARIS 14",75014,,,nan
LONGJUMEAU,"12, rue de Chilly, nan, LONGJUMEAU",91160,,,nan
PARIS BOSQUET,"24 bis, rue Cler, nan, PARIS 07",75007,,,nan
BOURG LA REINE,"99, Avenue du Général Leclerc, nan, BOURG LA REINE",92340,,,nan
SUCY EN BRIE,"7, rue Pierre Sémard, nan, SUCY EN BRIE",94370,,,nan
VERRIERES LE BUISSON,"14, rue de Paron, Bât D, VERRIERES LE BUISSON",91370,,,nan
MILLY LA FORET,"3, rue Saint Wulfran, nan, MILLY LA FORET",91490,,,nan
PARIS ST MICHEL,"88, bd Saint Michel, nan, PARIS 06",75006,,,nan
PARIS GOBELINS,"47, Avenue des Gobelins, nan, PARIS 13",75013,,,nan
PARIS GENERAL LECLERC,"38, Avenue du Général Leclerc, nan, PARIS 14",75014,,,nan
PARIS ST GERMAIN BANQUE PRIVEE,"260, bd St Germain, nan, PARIS",75007,,,nan
MARCOUSSIS,"2, rue Alfred Dubois, nan, MARCOUSSIS",91460,,,nan
SCEAUX,"8, pl du Général de Gaulle, nan, SCEAUX",92330,,,nan
L'HAY LES ROSES,"6, rue Dispan, nan, L' HAY LES ROSES",94240,,,nan
FONTENAY AUX ROSES,"91, rue Boucicaut, nan, FONTENAY AUX ROSES",92260,,,nan
LE KREMLIN BICETRE,"89, Avenue de Fontainebleau, nan, LE KREMLIN BICETRE",94270,,,nan
PARIS SEVRES DUROC,"66, rue de Sèvres, nan, PARIS 07",75007,,,nan
RUNGIS VILLE,"2, pl Louis XIII, nan, RUNGIS",94150,,,nan
PARIS ODEON,"110, bd Saint Germain, nan, PARIS 06",75006,,,nan
YERRES,"1, rue du Maréchal Juin, nan, YERRES",91330,,,nan
THIAIS,"11, pl du Marché, nan, THIAIS",94320,,,nan
CHILLY MAZARIN,"15, Avenue Pierre Brossolette, nan, CHILLY MAZARIN",91380,,,nan
MANDRES LES ROSES,"2, rue François Coppée, nan, MANDRES LES ROSES",94520,,,nan
PARIS MONTSOURIS,"1, rue de l'Amiral Mouchez, nan, PARIS 13",75013,,,nan
LONGJUMEAU CENTRE D'AFFAIRES ESSONNE,"12, rue de Chilly, nan, LONGJUMEAU",91160,,,nan
PARIS LA VILLETTE,"5, Avenue Corentin Cariou, nan, PARIS 19",75019,,,nan
PARIS GRANDS BOULEVARDS,"34, bd Bonne Nouvelle, nan, PARIS 10",75010,,,nan
PARIS PLACE DES FETES,"5, rue de Crimée, nan, PARIS",75019,,,nan
CLICHY,"21, bd Jean Jaurès, nan, CLICHY",92110,,,nan
EPINAY SUR SEINE,"21-27, Avenue de la République, nan, EPINAY SUR SEINE",93800,,,nan
PAVILLONS SOUS BOIS,"46, Avenue Victor Hugo, nan, PAVILLONS SOUS BOIS",93320,,,nan
LIVRY GARGAN,"2, pl de la Libération, nan, LIVRY GARGAN",93190,,,nan
COMPIEGNE,"21, rue Jeanne d'Arc, nan, COMPIEGNE",60200,,,nan
CREPY EN VALOIS,"46 Rue Nationale, nan, CREPY EN VALOIS",60800,,,nan
CREIL,"18, Avenue Antoine Chanut, nan, CREIL",60100,,,nan
BEAUVAIS,"19-21, pl Jeanne Hachette, nan, BEAUVAIS",60000,,,nan
LE RAINCY,"3/5/7, Avenue de la Résistance, nan, LE RAINCY",93340,,,nan
HERBLAY,"6, rue du Général de Gaulle, nan, HERBLAY",95220,,,nan
MERU,"116, rue des Martyrs de la Résistance, nan, MERU",60110,,,nan
GAGNY,"4 bis, rue Henri Maillard, nan, GAGNY",93220,,,nan
PARIS FLANDRES,"113, rue de Flandres, nan, PARIS 19",75019,,,nan
CHANTILLY,"9, rue de Paris, nan, CHANTILLY",60500,,,nan
NOYON,"58, rue de Paris, nan, NOYON",60400,,,nan
CLICHY LES ALLEES,"57, bd du Général Leclerc, nan, CLICHY",92110,,,nan
LISSES,"25, rue de Paris, nan, LISSES",91090,,,nan
SAINT LEU LA FORET,"16, rue de Paris, nan, ST LEU LA FORET",95320,,,nan
PARIS MARX DORMOY,"81, rue Riquet, nan, PARIS 18",75018,,,nan
LE PRE SAINT GERVAIS,"10, rue d'Estienne d'Orves, nan, LE PRE-SAINT-GERVAIS",93310,,,nan
PARIS BONSERGENT,"18, pl Bonsergent, nan, PARIS 10",75010,,,nan
PARIS CITE MUSIQUE,"191-193, Avenue Jean Jaurès, nan, PARIS",75019,,,nan
ROISSY CTRE AFF. SEINE-ST-DENIS ROISSY,"165, rue de l'Etoile, ZAC Paris Nord 2, ROISSY EN FRANCE",95700,,,nan
PARIS NORD PROLIB,"41, rue du Général de Gaulle, nan, ENGHIEN LES BAINS",95880,,,nan
GLACIERE,"76 BOULEVARD AUGUSTE BLANQUI, nan, PARIS CEDEX 13",75013,,,nan
CORMEILLES EN PARISIS,"1, Avenue Foch, nan, CORMEILLES EN PARISIS",95240,,,nan
AUDINCOURT,"32 bis, avenue Aristide Briand, nan, AUDINCOURT",25400,,,nan
PONTARLIER,"26, rue des Remparts, nan, PONTARLIER",25300,,,nan
PONT DE ROIDE,"7, rue François Mitterand, nan, PONT DE ROIDE",25150,,,nan
LONS LE SAUNIER COMMERCE,"38, rue du Commerce, nan, LONS LE SAUNIER",39000,,,nan
ST CLAUDE,"13, bd de la République, nan, ST CLAUDE",39200,,,nan
ARBOIS,"13, rue de l'Hôtel de Ville, nan, ARBOIS",39600,,,nan
LONS LE SAUNIER MARJORIE,"545, Avenue d'Offenbourg, nan, LONS LE SAUNIER",39000,,,nan
ST LOUP SUR SEMOUSE,"37, rue Henri Guy, nan, ST LOUP SUR SEMOUSE",70800,,,nan
GRAY,"4, pl du 4 Septembre, nan, GRAY",70100,,,nan
LURE,"24, rue de la Gare, nan, LURE",70200,,,nan
LUXEUIL LES BAINS,"3, rue Jules Jeanneney, nan, LUXEUIL LES BAINS",70300,,,nan
BESANCON ST CLAUDE,"59, rue de Vesoul, nan, BESANCON",25000,,,nan
BESANCON LAFAYETTE,"7, rue Alfred de Vigny, nan, BESANCON",25000,,,nan
ST LAURENT EN GRANDVAUX,"6, pl Pasteur, nan, ST LAURENT EN GRANDVAUX",39150,,,nan
VALDAHON,"6, rue Charles Schmitt, nan, VALDAHON",25800,,,nan
CHAUSSIN,"Pl du 11 Novembre, nan, CHAUSSIN",39120,,,nan
BLETTERANS,"36, rue Louis Le Grand, nan, BLETTERANS",39140,,,nan
MOUCHARD,"21, rue de la République, nan, MOUCHARD",39330,,,nan
OYONNAX,"142, rue Anatole France, nan, OYONNAX",01100,,,nan
MEXIMIEUX,"37, rue de Lyon, nan, MEXIMIEUX",01800,,,nan
SAONE,"12, Grande Rue, nan, SAONE",25660,,,nan
ST HIPPOLYTE,"19, Grande Rue, nan, ST HIPPOLYTE",25190,,,nan
ROUGEMONT,"9, Avenue de la Gare, nan, ROUGEMONT",25680,,,nan
JUSSEY,"52, rue Gambetta, nan, JUSSEY",70500,,,nan
PERONNAS,"33, rue de l'Europe, Bât A, PERONNAS",01960,,,nan
BEAUCOURT,"1, passage Pierre Mendès France, nan, BEAUCOURT",90500,,,nan
LAGNIEU,"20, rue Pasteur, nan, LAGNIEU",01150,,,nan
RONCHAMP,"11, pl de la Mairie, nan, RONCHAMP",70250,,,nan
LONS LE SAUNIER SULLY,"72, cours Sully, nan, LONS LE SAUNIER",39000,,,nan
VILLARS LES DOMBES,"87, rue du Commerce, nan, VILLARS LES DOMBES",01330,,,nan
ORCHAMPS VENNES,"22, Grande Rue, nan, ORCHAMPS VENNES",25390,,,nan
NEUVELLE LES CROMARY,"Route de Sorans, nan, NEUVELLE LES CROMARY",70190,,,nan
SELONCOURT,"112, rue du Général Leclerc, nan, SELONCOURT",25230,,,nan
GIROMAGNY,"3, rue Maginot, nan, GIROMAGNY",90200,,,nan
VILLERS LE LAC,"3, rue Pierre Berçot, nan, VILLERS LE LAC",25130,,,nan
DOUBS,"3 A, rue de Besançon, nan, DOUBS",25300,,,nan
VIRIAT,"45, rue du Plateau, nan, VIRIAT",01440,,,nan
CHENOVE,"131, Avenue Roland Carraz, nan, CHENOVE",21300,,,nan
DIJON CITE DE LA GASTRONOMIE ET DU VIN,"8, Allee Alice Guy, nan, DIJON",21000,,,nan
TOUCY,"1, rue Philippe Verger, nan, TOUCY",89130,,,nan
AUXONNE,"77, rue Antoine Masson, nan, AUXONNE",21130,,,nan
SEMUR EN AUXOIS,"3, rue de l'Ancienne Comédie, nan, SEMUR EN AUXOIS",21140,,,nan
VILLENEUVE SUR YONNE,"2, pl Briard, nan, VILLENEUVE SUR YONNE",89500,,,nan
SENS GRANDE RUE,"92, Grande Rue, nan, SENS",89100,,,nan
CHATEAU CHINON,"9, pl Notre Dame, nan, CHATEAU CHINON",58120,,,nan
JOIGNY,"16, quai Henri Ragobert, nan, JOIGNY",89300,,,nan
BLENEAU,"2, rue de Turenne, nan, BLENEAU",89220,,,nan
CHEVIGNY ST SAUVEUR,"38 C, Avenue de la République, nan, CHEVIGNY ST SAUVEUR",21800,,,nan
DIJON RPT DE LA NATION,"9, rond point de la Nation, nan, DIJON",21000,,,nan
NEVERS REMPART,"26 bis, Avenue Pierre Bérégovoy, nan, NEVERS",58000,,,nan
DONZY,"4, rue Notre Dame, nan, DONZY",58220,,,nan
DECIZE,"49, rue de la République, nan, DECIZE",58300,,,nan
FOURCHAMBAULT,"38, rue Gambetta, nan, FOURCHAMBAULT",58600,,,nan
LA CHARITE SUR LOIRE,"29, Grande Rue, nan, LA CHARITE SUR LOIRE",58400,,,nan
LA MACHINE,"25, Avenue de la République, nan, LA MACHINE",58260,,,nan
AUTUN,"3, Rue Jeannin, nan, AUTUN",71400,,,nan
AUXERRE ARQUEBUSE,"1 bis, rue du 24 Août, nan, AUXERRE",89000,,,nan
CHALON SUR SAONE GARE,"1, rue Charles Baudelaire, nan, CHALON SUR SAONE",71100,,,nan
PARAY LE MONIAL,"5, Avenue Jean Paul II, nan, PARAY LE MONIAL",71600,,,nan
CHAGNY,"1, rue du Bourg, nan, CHAGNY",71150,,,nan
CHALON SUR SAONE SUD,"Rue René Cassin, nan, CHALON SUR SAONE",71100,,,nan
BEAUNE CENT VIGNES,"12 A, rue Gustave Eiffel, Zac des Maladières, BEAUNE",21200,,,nan
SAINT REMY,"82, rue Auguste Martin, nan, ST REMY",71100,,,nan
CRECHES SUR SAONE,"65 départementale 906, nan, CRECHES SUR SAONE",71680,,,nan
CHARNAY LES MACON,"23, rue de la Chapelle, nan, CHARNAY LES MACON",71850,,,nan
BEGLES,"10, cours Victor Hugo, nan, BEGLES",33130,,,nan
AIRE SUR L'ADOUR,"1, rue Gambetta, nan, AIRE SUR L'ADOUR",40800,,,nan
BORDEAUX CAUDERAN,"113, Avenue Louis Barthou, nan, BORDEAUX",33200,,,nan
BAYONNE,"1, pl de Gaulle, nan, BAYONNE",64100,,,nan
ST PAUL LES DAX,"3, Avenue de la Liberté, nan, ST PAUL LES DAX",40990,,,nan
AG DAX CLIENTS PARTICULIERS,"1 rue des fusillés, nan, DAX",40100,,,nan
HOSSEGOR,"315, avenue du Touring Club, nan, SOORTS HOSSEGOR",40150,,,nan
PEYREHORADE,"264, pl Aristide Briand, nan, PEYREHORADE",40300,,,nan
ARCACHON,"270, bd de la Plage, nan, ARCACHON",33120,,,nan
ST JEAN DE LUZ,"38, bd Victor Hugo, nan, ST JEAN DE LUZ",64500,,,nan
PAU TRESPOEY,"26 bis, Avenue du Général Leclerc, nan, PAU",64003,,,nan
MONT DE MARSAN,"49, rue Léon Gambetta, nan, MONT DE MARSAN",40000,,,nan
BISCARROSSE,"24, rue Jules Ferry, nan, BISCARROSSE",40600,,,nan
GRADIGNAN,"92, cours du Général de Gaulle, nan, GRADIGNAN",33170,,,nan
CENON,"53, rue Camille Pelletan, nan, CENON",33150,,,nan
SALIES DE BEARN,"14, pl Jeanne d'Albrêt, nan, SALIES DE BEARN",64270,,,nan
BLANQUEFORT,"1, Avenue du Général de Gaulle, nan, BLANQUEFORT",33290,,,nan
ST ANDRE DE CUBZAC,"69, rue E Dantagnan, nan, ST ANDRE DE CUBZAC",33240,,,nan
MORLAAS,"14, rue Bourg Mayou, nan, MORLAAS",64160,,,nan
PESSAC CENTRE,"63, Avenue Jean Jaurès, nan, PESSAC",33600,,,nan
LA TESTE DE BUCH,"2, Avenue de Verdun, nan, LA TESTE DE BUCH",33260,,,nan
BORDEAUX GEORGE V,"66, bd George V, nan, BORDEAUX",33000,,,nan
MERIGNAC 4 CHEMINS,"245-247, Avenue de la Marne, nan, MERIGNAC",33700,,,nan
FARGUES ST HILAIRE,"Résidence Le Centre Saint Hilaire, nan, FARGUES ST HILAIRE",33370,,,nan
BLAYE,"13, cours du Port, nan, BLAYE",33390,,,nan
ST JEAN D'ILLAC,"180-192, Avenue du Las, nan, ST JEAN D'ILLAC",33127,,,nan
CARBON BLANC,"53, Avenue Austin Comte, nan, CARBON BLANC",33560,,,nan
BAZAS,"1, cours du Général de Gaulle, nan, BAZAS",33430,,,nan
CREON,"31, rue Amaury de Craon, nan, CREON",33670,,,nan
LA BREDE,"4, Avenue du Général de Gaulle, nan, LA BREDE",33650,,,nan
MARCHEPRIME,"1, Avenue Aquitaine, nan, MARCHEPRIME",33380,,,nan
MIMIZAN,"5, Avenue de Bordeaux, nan, MIMIZAN",40200,,,nan
TALENCE PACARIS,"Rue Pacaris, nan, TALENCE",33400,,,nan
BARBEZIEUX ST HILAIRE,"5 ter, bd Chanzy, nan, BARBEZIEUX",16300,,,nan
RUFFEC,"7, pl d'Armes, nan, RUFFEC",16700,,,nan
BEAULIEU SUR DORDOGNE,"60, rue du Général de Gaulle, nan, BEAULIEU SUR DORDOGNE",19120,,,nan
OBJAT,"1, pl de la République, nan, OBJAT",19130,,,nan
EYMET,"2, Avenue de Sainte Foy, nan, EYMET",24500,,,nan
GUERET,"10, bd Carnot, nan, GUERET",23000,,,nan
LA SOUTERRAINE,"4, bd Jean Moulin, nan, LA SOUTERRAINE",23300,,,nan
EYMOUTIERS,"Pl Jean Jaurès, nan, EYMOUTIERS",87120,,,nan
AIXE SUR VIENNE,"Pl de l'Eglise, nan, AIXE SUR VIENNE",87700,,,nan
ST JUNIEN,"1, bd Victor Hugo, nan, ST JUNIEN",87200,,,nan
ST LEONARD DE NOBLAT,"9, pl de la République, nan, ST LEONARD DE NOBLAT",87400,,,nan
PERIGUEUX,"23, pl Francheville, nan, PERIGUEUX",24000,,,nan
RIBERAC,"18 Place de la Liberté, nan, RIBERAC",24600,,,nan
SOYAUX,"136, Avenue du Général de Gaulle, nan, SOYAUX",16800,,,nan
THOUARS,"13, bd Pierre Curie, nan, THOUARS",79100,,,nan
CIVRAY,"33, pl du Maréchal Leclerc, nan, CIVRAY",86400,,,nan
LE BOIS PLAGE EN RE,"Rue de la Glacière, nan, LE BOIS PLAGE EN RE",17580,,,nan
JONZAC,"11, pl de la République, nan, JONZAC",17500,,,nan
PARTHENAY,"Pl du 11 Novembre, nan, PARTHENAY",79200,,,nan
LA ROCHELLE SAUTEL,"69, bd Sautel, nan, LA ROCHELLE",17000,,,nan
NIEUL SUR MER,"Avenue du Grand Large, FIEF Arnaud Centre Commercial Super U, NIEUL SUR MER",17137,,,nan
PERIGNY,"Pl Pommeraie, nan, PERIGNY",17180,,,nan
GUERET LA MARCHE,"32, Avenue d'Auvergne, nan, GUERET",23000,,,nan
VAUX SUR MER PONTAILLAC,"9, bd de la Côte de Beauté, nan, VAUX SUR MER",17640,,,nan
CHATEAUBERNARD,"2, rue de Vauzelle, nan, CHATEAUBERNARD",16100,,,nan
MARENNES,"1 bis, rue Etchebarne, nan, MARENNES",17320,,,nan
LA COTINIERE,"4, rue de l'Ancienne Criée, La Cotinière, ST-PIERRE D'OLERON",17310,,,nan
CHARRON,"4, rue du 19 mars 1962, nan, CHARRON",17230,,,nan
LA TREMBLADE,"16, bd Pasteur, nan, LA TREMBLADE",17390,,,nan
ANGLET BAHINOS,"ROND-POINT BAHINOS, RUE DE LOUSTALOT, ANGLET",64600,,,nan
CESTAS,"10 BIS, PLACE CHANOINE PATRY, nan, CESTAS",33610,,,nan
LALINDE,"10, PLACE DE LA REPUBLIQUE, nan, LALINDE",24150,,,nan
LEON,"51, RUE DE LA POSTE, nan, LEON",40550,,,nan
MONSEGUR,"34, PLACE ROBERT DARNICHE, nan, MONSEGUR",33580,,,nan
TARTAS,"5 COURS SAINT JACQUES, nan, TARTAS",40400,,,nan
ARES,"65 bis, rue du Général de Gaulle, nan, ARES",33740,,,nan
CIBOURE,"3, avenue Jean-Jaurès, nan, CIBOURE",64500,,,nan
ARRAS JPM,"31, rue Gambetta, 2ème étage, ARRAS",62000,,,Banque Joire Pajot Martin
ST POL SUR MER,"Place du Chevalier de Saint Pol, Espace Duhamel, ST POL SUR MER",59430,,,nan
BERCK SUR MER,"33, rue de l'Impératrice, nan, BERCK SUR MER",62600,,,nan
BAILLEUL,"38-40, pl Charles de Gaulle, nan, BAILLEUL",59270,,,nan
MARCQ EN BAROEUL CLEMENCEAU,"1, Boulevard Clémenceau, nan, MARCQ EN BAROEUL",59700,,,nan
LOMME,"894, Avenue de Dunkerque, nan, LOMME",59160,,,nan
CYSOING,"19, pl de la République, nan, CYSOING",59830,,,nan
GRAVELINES,"1, pl Albert Denvers, nan, GRAVELINES",59820,,,nan
SIN LE NOBLE,"153, rue de Verdun, nan, SIN LE NOBLE",59450,,,nan
LILLE ROYALE,"38 bis, rue Royale, nan, LILLE",59000,,,nan
DIEPPE CREDIT MARITIME,"68, quai Duquesne, nan, DIEPPE",76200,,,nan
TOURCOING,"182, bd Gambetta, nan, TOURCOING",59200,,,nan
LAMBERSART BOURG,"83, rue du Bourg, nan, LAMBERSART",59130,,,nan
HEM,"2, rue Jules Guesde, nan, HEM",59510,,,nan
BERGUES,"18, pl de la République, nan, BERGUES",59380,,,nan
ROUBAIX BD FOURMIES,"137, bd de Fourmies, nan, ROUBAIX",59100,,,nan
PERENCHIES,"1, rue de la Prévôté, nan, PERENCHIES",59840,,,nan
ESTAIRES,"34, rue du Général de Gaulle, nan, ESTAIRES",59940,,,nan
LILLE REPUBLIQUE,"9-11, pl Richebé, nan, LILLE",59800,,,nan
FOURMIES,"11, rue Jean Jaurès, nan, FOURMIES",59610,,,nan
TOURCOING,"13-14, pl de la République, nan, TOURCOING",59200,,,nan
AGENCE CHARLEVILLE,"19, cours Aristide Briand, nan, CHARLEVILLE MEZIERES",08000,,,nan
RETHEL,"35, rue Gambetta, nan, RETHEL",08300,,,nan
VALENCIENNES,"12-14, Avenue Georges Clemenceau, nan, VALENCIENNES",59300,,,nan
LILLE LECLERC,"16-18, pl du Maréchal Leclerc, nan, LILLE",59800,,,nan
AULNOYE AYMERIES,"151, rue de l'Hôtel de Ville, nan, AULNOYE AYMERIES",59620,,,nan
ABBEVILLE,"11, rue des Lingers, nan, ABBEVILLE",80100,,,nan
CAUDRY,"11, pl du Général de Gaulle, nan, CAUDRY",59540,,,nan
DENAIN,"97, rue de Villars, nan, DENAIN",59220,,,nan
HENIN BEAUMONT,"115, rue Elie Gruyelle, nan, HENIN BEAUMONT",62110,,,nan
CAMBRAI,"27, mail Saint Martin, nan, CAMBRAI",59400,,,nan
LILLE GAMBETTA,"215-217, rue Léon Gambetta, nan, LILLE",59000,,,nan
LILLE NATIONALE,"106, rue Nationale, nan, LILLE",59800,,,nan
LOOS LEZ LILLE,"138, rue du Maréchal Foch, nan, LOOS",59120,,,nan
COUDEKERQUE BRANCHE,"53, rue Pasteur, nan, COUDEKERQUE BRANCHE",59210,,,nan
VALENCIENNES TERTIALES,"4 bis, rue des Cents Têtes, nan, VALENCIENNES",59300,,,nan
LANNOY,"Rue Jules Guesde, nan, LANNOY",59390,,,nan
NOEUX LES MINES,"143, rue Nationale, nan, NOEUX LES MINES",62290,,,nan
ANZIN,"1 ter, pl Roger Salengro, nan, ANZIN",59410,,,nan
MAUBEUGE,"58-60, Avenue de France, nan, MAUBEUGE",59600,,,nan
HESDIN,"17, rue d'Arras, nan, HESDIN",62140,,,nan
MONTREUIL,"57, pl du Général de Gaulle, nan, MONTREUIL",62170,,,nan
AGENCE PRO SAUMUR,"71, rue du Pont Fouchard, nan, SAUMUR",49400,,,nan
ANGERS CENTRE PROF.,"7, bd de Maréchal Foch, nan, ANGERS",49100,,,nan
REZE LIBERATION,"45, Avenue de la Libération, nan, REZE",44403,,,nan
NANTES BELLEVUE,"31, rue Romain Rolland, nan, NANTES",44100,,,nan
NANTES ROND POINT DE PARIS,"1, rue du Général Buat, nan, NANTES",44300,,,nan
ANCENIS,"49, pl Charles de Gaulle, nan, ANCENIS",44150,,,nan
DOUARNENEZ,"17, rue Duguay Trouin, nan, DOUARNENEZ",29100,,,nan
CONCARNEAU,"2, place du Général de Gaulle, nan, CONCARNEAU",29900,,,nan
QUIMPERLE,"9, pl Saint Michel, nan, QUIMPERLE",29300,,,nan
QUIMPER GARE,"27 bis, Avenue de la Gare, nan, QUIMPER",29000,,,nan
ST HERBLAIN THEBAUDIERES,"11, Avenue des Thébaudières, nan, ST HERBLAIN",44800,,,nan
NANTES PONT DU CENS,"40, rte de Rennes, nan, NANTES",44300,,,nan
CLISSON,"32, Avenue du Général Leclerc, nan, CLISSON",44190,,,nan
PORNIC EUROPE,"Rue du Traité de Rome, nan, PORNIC",44210,,,nan
LORIENT KERYADO,"176, rue de Belgique, nan, LORIENT",56100,,,nan
NANTES BEAULIEU,"Ctre Cial Case 14, nan, NANTES",44200,,,nan
CROZON,"21, rue Alsace Lorraine, nan, CROZON",29160,,,nan
LE GUILVINEC,"1, rue de la Marine, nan, LE GUILVINEC",29730,,,nan
TREILLIERES,"58, rue de la Mairie, nan, TREILLIERES",44119,,,nan
SUD BRETAGNE AGRICULTURE,"36 avenue de l'Océan, nan, AURAY",56400,,,nan
LA CHAPELLE SUR ERDRE,"18, rue Martin Luther King, nan, LA CHAPELLE SUR ERDRE",44240,,,nan
SAUTRON,"33, rue de Bretagne, nan, SAUTRON",44880,,,nan
CHERBOURG PRO PL,"1, rue de l'Alma, nan, CHERBOURG",50100,,,nan
FOUESNANT,"5, rue de Cornouaille, nan, FOUESNANT",29170,,,nan
BAUD,"14, rue de la Mairie, nan, BAUD",56150,,,nan
AGENCE ENTREPRISES LORIENT,"12 et 14, rue du Sous-Marin Vénus, nan, LORIENT",56100,,,nan
AGENCE ENTREPRISES ST NAZAIRE,"1bis, Chemin Vert, nan, ST NAZAIRE",44600,,,nan
AGENCE ENTREPRISES QUIMPER,"50, rue du Président Sadate, nan, QUIMPER",29000,,,nan
ST NAZAIRE POINT DU JOUR,"1bis, Chemin Vert, nan, ST NAZAIRE",44600,,,nan
SAUMUR VOLNEY,"8, rue Volney, nan, SAUMUR",49400,,,nan
FONTENAY LE COMTE,"9, rue de la république, nan, FONTENAY LE COMTE",85200,,,nan
SEVREMOINE-ST MACAIRE EN MAUGES,"1, pl Henri Doizy, nan, SEVREMOINE",49450,,,nan
LUCON,"17-19, rue Georges Clemenceau, nan, LUCON",85400,,,nan
BEAUFORT EN VALLEE,"8, pl Boucicault, nan, BEAUFORT EN VALLEE",49250,,,nan
AGENCE ENTREPRISES ANGERS,"41, rue du Nid de Pie, nan, ANGERS",49000,,,nan
AIZENAY,"10, rue de l'Hôtel de Ville, nan, AIZENAY",85190,,,nan
LA ROCHE SUR YON SUD,"147, rue Duchesne de Denant, nan, LA ROCHE SUR YON",85000,,,nan
LA CHATAIGNERAIE,"3, rue de la Prée, nan, LA CHATAIGNERAIE",85120,,,nan
ST BARTHELEMY D'ANJOU,"7, rte d'Angers, nan, ST BARTHELEMY D'ANJOU",49124,,,nan
ANGERS ANJOU AGRICULTURE,"41, rue du Nid de Pie, nan, ANGERS",49000,,,nan
ST MALO EMERAUDE BANQUE PRIVEE,"33, bd de la République, nan, SAINT MALO",35400,,,nan
ILE D''YEU,"23, quai Carnot, nan, ILE D''YEU",85350,,,nan
LA ROCHE SUR YON PROFESSIONNELS,"1 place de la Vendée, nan, LA ROCHE SUR YON",85000,,,Crédit Maritime Grand Ouest
ST JEAN DE MONTS,"44 rue Charles de Gaulle, nan, SAINT-JEAN-DE-MONTS",85160,,,Crédit Maritime Grand Ouest
BELZ,"6 rue du Couvent, nan, BELZ",56550,,,nan
TREGUIER,"16, Place du Martray, nan, TREGUIER",22220,,,Crédit Maritime Grand Ouest
PLOUHINEC,"51 rue du Driasker, nan, PLOUHINEC",56680,,,nan
VANNES OCEANE,"60, Avenue Paul Cezanne, nan, VANNES",56000,,,Crédit Maritime Grand Ouest
MUZILLAC,"3 place Saint Julien, nan, MUZILLAC",56190,,,nan
OTOKTONE PATRIMOINE,"24, rue de la Rabotière, nan, NANTES",44000,,,nan
BAIE DE ST BRIEUC PROFESSIONNELS,"1 rue Jules Verne, Cellule A, LANGUEUX",22360,,,Crédit Maritime Grand Ouest
AURAY REPUBLIQUE,"47 Place de la République, nan, AURAY",56400,,,Crédit Maritime Grand Ouest
QUEVEN,"22, place de Toulouse, nan, QUEVEN",56530,,,Crédit Maritime Grand Ouest
ST QUAY PORTRIEUX,"2 bd du Général de Gaulle, nan, SAINT-QUAY-PORTRIEUX",22410,,,Crédit Maritime Grand Ouest
OTOKTONE GRANDES ENTREPRISES NANTES,"24, rue de la Rabotière, nan, SAINT HERBLAIN",44800,,,Crédit Maritime Grand Ouest
PLOEMEUR,"21 Place de l''Eglise, nan, PLOEMEUR",56270,,,Crédit Maritime Grand Ouest
AGENCE PROFESSIONNELS AURAY,"36, boulevard de l'Océan, nan, AURAY",56400,,,Crédit Maritime Grand Ouest
CARNAC CM,"31, rue Saint Cornely, nan, CARNAC",56340,,,Crédit Maritime Grand Ouest
QUIMPERLE,"9, place Saint Michel, nan, QUIMPERLE",29300,,,Crédit Maritime Grand Ouest
LA TURBALLE CM,"45, rue du Maréchal Leclerc, nan, LA TURBALLE",44420,,,Crédit Maritime Grand Ouest
AGENCE ENTREPRISES VANNES,"74 rue du Vincin, nan, VANNES",56000,,,Crédit Maritime Grand Ouest
NANTES CM,"5, bd Guist'Hau, nan, NANTES",44000,,,Crédit Maritime Grand Ouest
PORNIC CM,"2, rue du Maréchal Foch, nan, PORNIC",44210,,,Crédit Maritime Grand Ouest
TALMONT SAINT HIL CM,"9, rue du Château, nan, TALMONT SAINT HILAIRE",85440,,,Crédit Maritime Grand Ouest
SABLES D'OLONNE LE PORT CM,"3, rue Octave Voyer, nan, LES SABLES D'OLONNE",85100,,,Crédit Maritime Grand Ouest
CAEN CM,"2, pl de la Résistance, nan, CAEN",14000,,,Crédit Maritime Grand Ouest
AGENCE ENTREPRISES ST BRIEUC,"1, rue des Mimosas, nan, PLERIN",22190,,,Crédit Maritime Grand Ouest
ST MALO REPUBLIQUE,"33, boulevard de la République, nan, SAINT MALO",35400,,,Crédit Maritime Grand Ouest
CANCALE CM,"38, rue du Port, nan, CANCALE",35260,,,Crédit Maritime Grand Ouest
PAIMPOL CM,"Place de la République, nan, PAIMPOL",22500,,,Crédit Maritime Grand Ouest
MORLAIX CM,"2, Place du Dossen, nan, MORLAIX",29600,,,Crédit Maritime Grand Ouest
PLOUGUERNEAU CM,"13, rue du Verger, nan, PLOUGUERNEAU",29880,,,Crédit Maritime Grand Ouest
LE CONQUET CM,"6, rue du Lieutenant Jourden, nan, LE CONQUET",29217,,,Crédit Maritime Grand Ouest
PLOUGASTEL DAOULAS CM,"19, rue du Pont, nan, PLOUGASTEL DAOULAS",29470,,,Crédit Maritime Grand Ouest
DOUARNENEZ - VILLE CM,"17, rue Duguay Trouin, nan, DOUARNENEZ",29100,,,Crédit Maritime Grand Ouest
DINARD,"11, Avenue Edouard VII, nan, DINARD",35800,,,nan
FOUGERES,"1, bd du Maréchal Leclerc, nan, FOUGERES",35300,,,nan
CANCALE,"38, rue du Port, nan, CANCALE",35260,,,nan
VITRE,"4, bd Saint Martin, nan, VITRE",35500,,,nan
RENNES LORIENT,"82, rue de Lorient, nan, RENNES",35000,,,nan
ST MALO ST SERVAN,"32, rue Ville Pépin, nan, ST MALO",35400,,,nan
CHERBOURG CENTRE,"1, rue de l'Alma, nan, CHERBOURG",50100,,,nan
AVRANCHES,"18, rue de la Constitution, nan, AVRANCHES",50300,,,nan
LAVAL CENTRE,"12, rue de Cambrai, nan, LAVAL",53000,,,nan
CHERBOURG TOURLAVILLE,"10, rue des Herbages, nan, CHERBOURG EN COTENTIN",50110,,,nan
CHATEAU GONTIER,"60, Avenue Carnot, nan, CHATEAU GONTIER",53200,,,nan
ERNEE,"39, pl Renault Morlière, nan, ERNEE",53500,,,nan
CRAON,"3, rue de la Gare, nan, CRAON",53400,,,nan
ALENCON,"27, rue du Jeudi, nan, ALENCON",61000,,,nan
LA FERTE MACE,"5, rue de la Victoire, nan, LA FERTE MACE",61600,,,nan
SABLE SUR SARTHE,"10, pl Raphael Elize, nan, SABLE SUR SARTHE",72300,,,nan
MONTVAL SUR LOIR,"Place de l'Hôtel de Ville, nan, MONTVAL SUR LOIR",72500,,,nan
LA FLECHE,"19 bis, rue Carnot, nan, LA FLECHE",72200,,,nan
LE MANS LA FORESTERIE,"25, Boulevard Louis Le Prince Ringuet, Bâtiment OXXO, LE MANS",72000,,,nan
AGENCE ENTREPRISES ST MALO,"33, boulevard de la République, nan, ST MALO",35400,,,nan
AGENCE ENTREPRISES ORNE,"27, rue du Jeudi, nan, ALENCON",61000,,,nan
AGENCE ENTREPRISES MANCHE,"330, rue Alexis de Tocqueville, nan, ST LO",50000,,,nan
AGENCE ENTREPRISES MAYENNE,"12, rue de Cambrai, nan, LAVAL",53000,,,nan
AGENCE ENTREPRISES SARTHE,"25, Boulevard Louis Le Prince Ringuet, Bâtiment OXXO, LE MANS",72000,,,nan
AGENCE ENTREPRISES ST BRIEUC,"1, rue des Mimosas, nan, PLERIN",22190,,,nan
BONCHAMP-LES-LAVAL,"6, impasse du Maine, nan, BONCHAMP-LES-LAVAL",53960,,,nan
RENNES PROFESSIONNELS,"8, pl. du Parlement, nan, RENNES",35000,,,nan
GUIPAVAS,"10, rue Commandant Challe, nan, GUIPAVAS",29490,,,nan
LE MANS LE RIBAY,"57, bd Georges Méliès, nan, LE MANS",72000,,,nan
AGENCE PROFESSIONNELS AURAY,"36, Avenue de l'Océan, nan, AURAY",56400,,,nan
ST GREGOIRE,"1, rue de la Duchesse Anne, nan, ST GREGOIRE",35760,,,nan
LANGUEUX AGRI COTE D'ARMOR,"1, rue Jules Verne, nan, LANGUEUX",22360,,,nan
LAVAL AGRI MAYENNE,"12, rue de Cambrai, nan, LAVAL",53000,,,nan
CHANTEPIE,"3, pl de l'Eglise, nan, CHANTEPIE",35135,,,nan
PLOUZANE,"305, bd du Général de Gaulle, nan, PLOUZANE",29280,,,nan
PACE,"2, Avenue Charles Le Goffic, nan, PACE",35740,,,nan
ECOMMOY,"22, pl de la République, nan, ECOMMOY",72220,,,nan
CHATEAUBOURG,"4, rue de Bel Air, nan, CHATEAUBOURG",35220,,,nan
LES PIEUX,"2, rue Centrale, nan, LES PIEUX",50340,,,nan
GUICHEN,"56, rue du Général Leclerc, nan, GUICHEN",35580,,,nan
LE CONQUET,"6 rue Lieutenant Jourden, nan, LE CONQUET",29217,,,nan
ST POL DE LEON,"9, rue du Colombier, nan, ST POL DE LEON",29250,,,nan
CARHAIX,"35, rue des Martyrs, nan, CARHAIX PLOUGUER",29270,,,nan
PAIMPOL,"Pl de la République, nan, PAIMPOL",22500,,,nan
TREGUIER,"16, pl du Martray, nan, TREGUIER",22220,,,nan
ERQUY,"19, rue Georges Clemenceau, nan, ERQUY",22430,,,nan
BREST LAMBEZELLEC,"18, rue Robespierre, nan, BREST",29200,,,Crédit Maritime Grand Ouest
BREST SIAM,"73 rue de Siam, nan, BREST",29200,,,Crédit Maritime Grand Ouest
LANDERNEAU,"9 rue de la Tour d''Auvergne, nan, LANDERNEAU",29800,,,Crédit Maritime Grand Ouest
DINARD,"11, avenue Edouard VII, nan, DINARD",35800,,,Crédit Maritime Grand Ouest
ST MALO INTRA MUROS,"3, rue Porcon, nan, SAINT-MALO",35400,,,Crédit Maritime Grand Ouest
CHERBOURG PROFESSIONNELS,"1, rue de l''Alma, nan, CHERBOURG",50100,,,Crédit Maritime Grand Ouest
AVRANCHES,"18, rue de la Constitution, nan, AVRANCHES",50300,,,Crédit Maritime Grand Ouest
CARENTAN,"1 Bis rue de l''Abreuvoir, nan, CARENTAN",50500,,,Crédit Maritime Grand Ouest
GRANVILLE,"22, cours Jonville, nan, GRANVILLE",50400,,,Crédit Maritime Grand Ouest
LES PIEUX,"2, rue Centrale, nan, LES PIEUX",50340,,,Crédit Maritime Grand Ouest
LES PENNES MIRABEAU,"1, Avenue Plan de Campagne, le Logis Neuf, nan, LES PENNES MIRABEAU",13170,,,nan
MARSEILLE CLEMENCEAU,"30, bd Georges Clemenceau, nan, MARSEILLE",13004,,,nan
MARSEILLE VIEILLE CHAPELLE,"152, bd du Sablier, nan, MARSEILLE",13008,,,nan
ALLAUCH,"Immeuble ""Les Santonniers"", Ave Leï Rima, ALLAUCH",13190,,,nan
PERNES COUDOULETS,"1, ch des Coudoulets, nan, PERNES LES FONTAINES",84210,,,nan
AURIOL,"Ctre Le Pujol 2, Les Artauds Est, AURIOL",13390,,,nan
MARSEILLE CHATEAU GOMBERT,"1, rue Augustin Fresnel, nan, MARSEILLE",13013,,,nan
TRETS,"252 et 263 Pragues Nord, ZA de la Burlière - Lot n°6, TRETS",13530,,,nan
MARSEILLE PREFECTURE ROME,"105, rue de Rome, nan, MARSEILLE",13006,,,nan
BASTIA CAMPINCHI,"23-25, rue César Campinchi, nan, BASTIA",20200,,,nan
MRS PARADIS,"376, avenue du Prado, nan, MARSEILLE",13008,,,nan
BOUC BEL AIR,"1C, Avenue de Lattre de Tassigny, Lieudit ""La Mounine"", BOUC BEL AIR",13320,,,nan
CALVI,"22 bis, bd Wilson, nan, CALVI",20260,,,nan
MARIGNANE MIRABEAU,"27 bis, cours Mirabeau, nan, MARIGNANE",13700,,,nan
ORANGE BRIAND,"42, cours Aristide Briand, nan, ORANGE",84100,,,nan
AUBAGNE PIN VERT,"17, Avenue Roger Salengro, nan, AUBAGNE",13400,,,nan
AIX EN PROVENCE MIRABEAU,"36, Cours Mirabeau, nan, AIX EN PROVENCE",13090,,,nan
MARTIGUES MONGIN,"9, bd Mongin, nan, MARTIGUES",13500,,,nan
MARSEILLE BEAUMONT,"2, avenue de la Rosière, nan, MARSEILLE",13012,,,nan
SAUSSET LES PINS,"34, Avenue Siméon Gouin, nan, SAUSSET LES PINS",13960,,,nan
VELAUX,"42, avenue Marcel Pagnol, Lieu-dit Le Parterre Sud, VELAUX",13880,,,nan
MARIGNANE ST VICTORET,"Avenue du 8 Mai 1945, Rond Point de l'Hélicoptère, MARIGNANE",13700,,,nan
GHISONACCIA,"970, avenue du 9 Septembre, nan, GHISONACCIA",20240,,,nan
CANNES BIVOUAC,"25, rue Bivouac Napoléon, nan, CANNES",06400,,,nan
VALLAURIS,"51, bd Dr Jacques Ugo, nan, VALLAURIS",06220,,,nan
ANTIBES,"12, pl de Gaulle, nan, ANTIBES",06600,,,nan
BEAULIEU SUR MER,"42, bd Marinoni, nan, BEAULIEU SUR MER",06310,,,nan
NICE BUFFA,"8, rue de la Buffa, nan, NICE",06000,,,nan
NICE GAMBETTA,"92, bd Gambetta, nan, NICE",06000,,,nan
NICE ARSON,"42, rue Arson, nan, NICE",06300,,,nan
NICE GORBELLA,"67, bd Gorbella, nan, NICE",06100,,,nan
PEYMEINADE,"32 bis, avenue de Boutiny, nan, PEYMEINADE",06530,,,nan
NICE VICTORIA,"53, Avenue Reine Victoria, nan, NICE",06000,,,nan
VENCE,"12 bis, avenue de la Résistance, nan, VENCE",06140,,,nan
ST LAURENT DU VAR,"557, avenue de la Libération, nan, ST LAURENT DU VAR",06700,,,nan
LA CRAU,"27, Avenue du Lieutenant Jean Toucas, nan, LA CRAU",83260,,,nan
SAINT TROPEZ,"Rue du 11 Novembre 1918, Résidences du Port, SAINT TROPEZ",83990,,,nan
NICE ARENAS,"457, promenade des Anglais, nan, NICE",06200,,,nan
ST ANDRE DE LA ROCHE,"101, quai de la Banquière, nan, ST ANDRE DE LA ROCHE",06730,,,nan
TOULON LE MOURILLON,"Le Marsouin, Bd Bazeilles, TOULON",83100,,,nan
COGOLIN,"Résidence du Parc, Ave Clemenceau, COGOLIN",83310,,,nan
TOULON CENTRE,"36, bd de Strasbourg, nan, TOULON",83000,,,nan
LE LAVANDOU,"349, Avenue des Commandos d'Afrique, nan, LE LAVANDOU",83980,,,nan
LE PRADET,"Les Roches Bleues, Ave Raimu, LE PRADET",83220,,,nan
SANARY SUR MER,"Rue Antoine Hugues, nan, SANARY SUR MER",83110,,,nan
ANTIBES LA FONTONNE,"3, Avenue des Frères Garbero, nan, ANTIBES",06600,,,nan
LE BEAUSSET,"3, boulevard du 8 mai 1945, nan, LE BEAUSSET",83330,,,nan
LA TRINITE,"19, place du Docteur Rebat, nan, LA TRINITE",06340,,,nan
CAVAILLON GAMB 204,"204, cours Léon Gambetta, nan, CAVAILLON",84300,,,nan
CABANNES,"4 rue Eucher Ferrier, nan, CABANNES",13440,,,nan
COURTHEZON,"9 BOULEVARD JEAN JAURES, nan, COURTHEZON",84350,,,nan
PERTUIS ROUTE D'AIX,"398, route d'Aix en Provence, nan, PERTUIS",84120,,,nan
LE PONTET,"36, AVENUE GUSTAVE GOUTAREL, BAT.A, LE PONTET",84130,,,nan
BAGNOLS SUR CEZE,"37 RUE LEON ALEGRE, nan, BAGNOLS SUR CEZE",30200,,,nan
UZES,"42 BOULEVARD GAMBETTA, nan, UZES",30700,,,nan
ALES,"14 PLACE HENRI BARBUSSE, nan, ALES",30100,,,nan
MULHOUSE PATRI,"26, avenue du Général Leclerc, nan, MULHOUSE",68100,,,nan
HAYANGE,"10, rue Flatte, nan, HAYANGE",57700,,,nan
SARRALBE,"21, rue Napoléon 1er, nan, SARRALBE",57430,,,nan
THIONVILLE,"33, rue de Paris, nan, THIONVILLE",57100,,,nan
PHALSBOURG,"17, pl d'Armes, nan, PHALSBOURG",57370,,,nan
BOUZONVILLE,"54, rue de la République, nan, BOUZONVILLE",57320,,,nan
BAR LE DUC,"30, rue André Maginot, nan, BAR LE DUC",55000,,,nan
METZ CLERCS,"15, rue des Clercs, nan, METZ",57000,,,nan
YUTZ,"74, rue des Nations, nan, YUTZ",57970,,,nan
METZ ST LOUIS,"36, pl Saint Louis, nan, METZ",57000,,,nan
VERDUN,"1, rue Beaurepaire, nan, VERDUN",55104,,,nan
JARVILLE LA MALGRANGE,"20, rue de la République, nan, JARVILLE LA MALGRANGE",54140,,,nan
ST JULIEN LES METZ,"7 rue de La Tannerie, nan, ST JULIEN LES METZ",57070,,,nan
ST NICOLAS DE PORT,"2, rue Charles Courtois, nan, ST NICOLAS DE PORT",54210,,,nan
ETAIN,"24, rue de Metz, nan, ETAIN",55408,,,nan
ST DIE,"5, rue Dauphine, nan, ST DIE",88100,,,nan
LA BRESSE,"18b, Grande Rue, nan, LA BRESSE",88250,,,nan
LE THILLOT,"14, pl du 8 Mai, nan, LE THILLOT",88160,,,nan
STENAY,"6, pl Raymond Poincaré, nan, STENAY",55700,,,nan
JARNY,"4, rue Gambetta, nan, JARNY",54800,,,nan
SCY CHAZELLES,"62, voie de la Liberté, nan, SCY CHAZELLES",57160,,,nan
AIX VILLEMAUR PALIS,"3, rue Georges Clemenceau, nan, AIX VILLEMAUR PALIS",10160,,,nan
NANCY ST LAMBERT,"2, rue de Saint Lambert, nan, NANCY",54000,,,nan
CENTRE D'AFFAIRES AGRI-VITI AUBE RICEYS,"9, rue de la Presle, nan, LES RICEYS",10340,,,nan
VILLERUPT,"12, pl Jeanne d'Arc, nan, VILLERUPT",54190,,,nan
ROMILLY SUR SEINE,"41, rue Gornet Boivin, nan, ROMILLY SUR SEINE",10100,,,nan
BANQUE PRIVEE CHA,"20, cours Langlet, nan, REIMS",51100,,,nan
ST DIZIER,"68, Avenue de la République, nan, ST DIZIER",52100,,,nan
THIONVILLE VAL MARIE,"5, rue Jean Renoir, nan, THIONVILLE",57100,,,nan
DORMANS,"5, pl du Luxembourg, nan, DORMANS",51700,,,nan
MAIZIERES LES METZ,"51, Grand'rue, nan, MAIZIERES LES METZ",57280,,,nan
SEZANNE,"26, rue Paul Doumer, nan, SEZANNE",51120,,,nan
REIMS CARTERET/JEAN JAURES,"1 bd Carteret, nan, REIMS",51100,,,nan
FAYL LA FORET,"37, Grande Rue, nan, FAYL-BILLOT",52500,,,nan
LES RICEYS,"9, rue de la Presle, nan, LES RICEYS",10340,,,nan
MARLY,"51, rue de la Croix Saint Joseph, nan, MARLY",57155,,,nan
ALC ACCOMPAGNEMENT,"57, rue St Jean, nan, NANCY",54000,,,nan
METZ E-AGENCE CLIENTELE EXPATRIEE,"3, rue François De Curel - BP 40124, nan, METZ",57000,,,nan
MULHOUSE BPRIVEE,"28, Avenue du Général Leclerc, nan, MULHOUSE",68100,,,nan
STRASBOURG EUROPE,"1, avenue du Président Robert Schuman, Bureau Churchill M01002, STRASBOURG",67000,,,nan
SARREGUEMINES ROTHERSPITZ,"310, rue de la Montagne, nan, SARREGUEMINES",57200,,,nan
STRASBOURG ROBERTSAU,"73, rue Boecklin, nan, STRASBOURG",67000,,,nan
ILLKIRCH GRAFFENSTADEN,"205, rte de Lyon, nan, ILLKIRCH GRAFFENSTADEN",67400,,,nan
SAVERNE,"94, Grand'rue, nan, SAVERNE",67700,,,nan
INGWILLER,"50, rue du Maréchal Foch, nan, INGWILLER",67340,,,nan
LAUTERBOURG,"25, rue du Général Mittelhauser, nan, LAUTERBOURG",67630,,,nan
BRUMATH,"13, rue Raymond Poincaré, nan, BRUMATH",67170,,,nan
WASSELONNE,"3, pl du Marché, nan, WASSELONNE",67310,,,nan
DRUSENHEIM,"18, rue du Général de Gaulle, nan, DRUSENHEIM",67410,,,nan
NIEDERBRONN LES BAINS,"1, rue du Général de Gaulle, nan, NIEDERBRONN LES BAINS",67110,,,nan
STRASBOURG CRONENBOURG OBER,"2-4, rte d'Oberhausbergen, nan, STRASBOURG",67200,,,nan
MULHOUSE BOURTZWILLER,"73, rue de Soultz, nan, MULHOUSE",68200,,,nan
MULHOUSE DORNACH,"92, rue de Belfort, nan, MULHOUSE",68200,,,nan
MASEVAUX,"9, rue du Maréchal Foch, nan, MASEVAUX",68290,,,nan
SIERENTZ,"11, rue Rogg Haas, nan, SIERENTZ",68510,,,nan
WINTZENHEIM,"8, rue Clemenceau, nan, WINTZENHEIM",68920,,,nan
STE MARIE AUX MINES,"2, pl A Keufer, nan, STE MARIE AUX MINES",68160,,,nan
ENSISHEIM,"5, rue de la Liberté, nan, ENSISHEIM",68190,,,nan
SOULTZ,"56, rue Jean Jaurès, nan, SOULTZ",68360,,,nan
MONTPELLIER PATRIMONIALE METROPOLE,"20, bd des Arceaux, nan, MONTPELLIER",34000,,,nan
PERPIGNAN CAMPUS MOULIN A VENT,"4, Avenue Paul Alduy, nan, PERPIGNAN",66100,,,nan
COURSAN,"30, Avenue de Toulouse, nan, COURSAN",11110,,,nan
CANET LES ALIZES,"6, rue Neptune, nan, CANET EN ROUSSILLON",66140,,,nan
NARBONNE ENTREPRISES,"St Crescent, Ave d'Espagne-Centre d''affaires, NARBONNE",11100,,,nan
CERET,"16, Avenue Clemenceau, nan, CERET",66400,,,nan
PERPIGNAN JOFFRE,"143, Avenue du Maréchal Joffre, nan, PERPIGNAN",66000,,,nan
LE BOULOU,"8, rue de la République, nan, LE BOULOU",66160,,,nan
ST ESTEVE,"26 bis, avenue de la Mirande, nan, ST ESTEVE",66240,,,nan
COLLIOURE,"19, rue de la République, nan, COLLIOURE",66190,,,nan
MILLAS,"46, Avenue Jean Jaurès, nan, MILLAS",66170,,,nan
NARBONNE REPUBLIQUE,"35, cours de la République, nan, NARBONNE",11100,,,nan
TREBES,"2, Avenue Pierre Curie, nan, TREBES",11800,,,nan
CARCASSONNE VERDUN,"10, rue de Verdun, nan, CARCASSONNE",11000,,,nan
NARBONNE ST CRESCENT,"Ave d'Espagne, Ctre d'Affaires St Crescent, NARBONNE",11100,,,nan
ESPERAZA,"2, pl de la République, nan, ESPERAZA",11260,,,nan
BRAM,"11, Avenue du Général de Gaulle, nan, BRAM",11150,,,nan
LEUCATE,"Ctre Cial CARREFOUR, nan, LEUCATE",11370,,,nan
FOIX,"14, allée Villote, nan, FOIX",09000,,,nan
BPS PAMIERS,"72, Boulevard Alsace Lorraine, Place de Milliane, PAMIERS",09100,,,nan
TARASCON SUR ARIEGE,"2, Avenue Victor Pilhes, nan, TARASCON SUR ARIEGE",09400,,,nan
MIREPOIX,"45, pl du Maréchal Leclerc, nan, MIREPOIX",09500,,,nan
SAVERDUN,"2, rue Sarrut, nan, SAVERDUN",09700,,,nan
PRATS DE MOLLO,"11, rue Porte de France, nan, PRATS DE MOLLO",66230,,,nan
PEROLS,"Les Gallines, Ave Georges Frêche, PEROLS",34470,,,nan
MAUGUIO,"8, pl Jules Ferry, nan, MAUGUIO",34130,,,nan
NIMES SEVERINE,"11, pl Séverine, nan, NIMES",30900,,,nan
BPS BEZIERS RIQUET,"39 TER ALLEES PAUL RIQUET, nan, BEZIERS",34500,,,nan
CLERMONT L'HERAULT,"Résidence Le Clos de le Madeleine, nan, CLERMONT L'HERAULT",34800,,,nan
BALARUC LE VIEUX,"Ctre Cial Balaruc loisir n° 29, nan, BALARUC LE VIEUX",34540,,,nan
MENDE,"11, bd Henri Bourillon, nan, MENDE",48000,,,nan
MARVEJOLS,"16, bd de Chambrun, nan, MARVEJOLS",48100,,,nan
FLORAC,"68 bis, Avenue Jean Monestier, nan, FLORAC",48400,,,nan
SOMMIERES,"Route de Saussines, Ctre Cial, SOMMIERES",30250,,,nan
ST JEAN DE VEDAS,"2, Place Clara d'Anduze, Résidence VEDACIO, SAINT JEAN DE VEDAS",34430,,,nan
SAINT AUNES,"Rue du Fenouil, Zac St Antoine, SAINT AUNES",34130,,,nan
NARBONNE ANATOLE FRANCE,"110, Avenue Anatole France, nan, NARBONNE",11100,,,nan
MONTPELLIER CAMPUS,"34, Avenue Emile Diacon, nan, MONTPELLIER",34000,,,nan
ST CHRISTOL LES ALES,"211, Avenue Jean Moulin, nan, ST CHRISTOL LES ALES",30380,,,nan
BEZIERS POLYGONE,"Rond Point Neil Alden Amstrong, nan, BEZIERS",34500,,,nan
SAINT LAURENT DES ARBRES,"Zac de TESAN, nan, ST LAURENT DES ARBRES",30126,,,nan
MAGALAS,"5 bis, rue de l''Audacieuse, nan, MAGALAS",34480,,,nan
NIMES CAMPUS,"1, place de la Maison Carrée, nan, NIMES",30000,,,nan
AG SETE LA CORNICHE BDP,"86, PLACE EDOUARD HERRIOT, nan, SETE",34200,,,Banque Dupuy de Parseval
AG GIGNAC BDP,"3, BOULEVARD DE L'ESPLANADE, nan, GIGNAC",34150,,,Banque Dupuy de Parseval
AG CASTRIES BDP,"33, AVENUE DE MONTPELLIER, nan, CASTRIES",34160,,,Banque Dupuy de Parseval
AG SAINT GELY DU FESC BDP,"35, RUE DES LAVANDINS, nan, SAINT GELY DU FESC",34980,,,Banque Dupuy de Parseval
AG JACOU BDP,"ZONE CLEMENT ADER, RUE LOUIS BREGUET, JACOU",34830,,,Banque Dupuy de Parseval
AG MAUGUIO BDP,"87, BOULEVARD DE LA REPUBLIQUE, nan, MAUGUIO",34130,,,Banque Dupuy de Parseval
AG SAINT JEAN DE VEDAS BDP,"1, RUE FON DE L HOSPITAL, nan, SAINT JEAN DE VEDAS",34430,,,Banque Dupuy de Parseval
AG NIMES BDP,"44, BOULEVARD VICTOR HUGO, nan, NIMES",30000,,,Banque Dupuy de Parseval
AG GIGEAN BDP,"16, PLACE REPUBLIQUE, nan, GIGEAN",34770,,,Banque Dupuy de Parseval
AG POUSSAN BDP,"4, RUE MARCEL PALAT, nan, POUSSAN",34560,,,Banque Dupuy de Parseval
AG LUNEL BDP,"190, BOULEVARD LAFAYETTE, nan, LUNEL",34401,,,Banque Dupuy de Parseval
AG CASTELNAU BDP,"AVENUE DE L'AUBE ROUGE, ZAC DE L'AUBE ROUGE, CASTELNAU LE LEZ",34170,,,Banque Dupuy de Parseval
AG FLORENSAC BDP,"31, AVENUE JEAN JAURES, nan, FLORENSAC",34510,,,Banque Dupuy de Parseval
AG BEZIERS BDP,"30, PLACE JEAN JAURES, nan, BEZIERS",34500,,,Banque Dupuy de Parseval
AG AGDE BDP,"6, AVENUE DU GRAND LARGE, nan, AGDE",34300,,,Banque Dupuy de Parseval
AG SERIGNAN BDP,"108, AVENUE DE LA PLAGE, nan, SERIGNAN",34410,,,Banque Dupuy de Parseval
AG MONTELIMAR BM,"10, BOULEVARD DU GENERAL DE GAULLE, nan, MONTELIMAR",26200,,,Banque Marze
AG JOYEUSE BM,"29, AVENUE BOISSEL, nan, JOYEUSE",07260,,,Banque Marze
AG LES VANS BM,"07 PLACE LEOPOLD OLLIER, nan, LES VANS",07140,,,Banque Marze
AG BOURG SAINT ANDEOL BM,"4, Place Frederic Mistral, nan, BOURG SAINT ANDEOL",07700,,,Banque Marze
AG RUOMS BM,"6, RUE NATIONALE, nan, RUOMS",07120,,,Banque Marze
SETE CENTRE CMM,"18, rue du 8 Mai 1945, nan, SETE",34200,,,Crédit Maritime Méditerranée
PAYS VOIRONNAIS VOIRON RINGUET,"rue Louis le Prince Ringuet, ZA des Blanchisseries, VOIRON",38505,,,nan
ANNECY CENTRE PRO,"8, rue du Baronnet, nan, ANNECY",74000,,,nan
ARLYSERE ALBERTVILLE,"41, rue de la République, nan, ALBERTVILLE",73200,,,nan
ARLYSERE UGINE,"75, Pl du Val d'Arly, nan, UGINE",73400,,,nan
LES 3 VALLEES MOUTIERS,"30, Avenue du 8 Mai 1945, nan, MOUTIERS",73600,,,nan
TARENTAISE VAL D'ISERE,"Résidence Le Dôme, nan, VAL D'ISERE",73155,,,nan
RIVE DU LAC SAINT JORIOZ,"Résidence Le Laudon, nan, ST JORIOZ",74410,,,nan
VAL D ARVE SCIONZIER,"1, Avenue du Mont Blanc, nan, SCIONZIER",74950,,,nan
CHABLAIS EST CHATEL,"196, route de Vonnes, nan, CHATEL",74390,,,nan
CHABLAIS OUEST DOUVAINE,"2, rue des Vignes de Bachelard, nan, DOUVAINE",74140,,,nan
DU FIER RUMILLY,"5, pl Grenette, nan, RUMILLY",74150,,,nan
ANNECY EST LES FINS,"59-61, Avenue de Genève, nan, ANNECY",74000,,,nan
CHAMBERY NORD COGNIN,"18, rte de Lyon, nan, COGNIN",73160,,,nan
SALLANCHES CENTRE,"282, pl Ch Albert, nan, SALLANCHES",74700,,,nan
SALLANCHES MEGEVE,"49, Rue Ambroise Martin, nan, MEGEVE",74120,,,nan
MONT BLANC ST GERVAIS LES BAINS,"32, rue de la Comtesse, nan, ST GERVAIS LES BAINS",74170,,,nan
SALLANCHES COMBLOUX,"149, rte de Sallanches, nan, COMBLOUX",74920,,,nan
LES 3 VALLEES LES MENUIRES,"Immeuble L'Oisans, nan, LES BELLEVILLE",73440,,,nan
LES 3 VALLEES MERIBEL,"Immeuble La Croix de Verdon, nan, MERIBEL",73550,,,nan
LES 3 VALLEES VAL THORENS,"Immeuble L'Eskival, nan, ST MARTIN DE BELLEVILLE",73440,,,nan
AGENCE ENTREPRISES MONTAGNE,"41, rue de la République, nan, ALBERTVILLE",73200,,,nan
GAP CENTRE,"Pl Ladoucette, nan, GAP",05000,,,nan
PAYS ROMANAIS ROMANS,"16, pl Jules Nadi, nan, ROMANS SUR ISERE",26100,,,nan
VALENTINOIS VALENCE CENTRE,"26, bd du Général de Gaulle, nan, VALENCE",26000,,,nan
GRENOBLE CENTRE BIR HAKEIM,"6-8, rue Malakoff, nan, GRENOBLE",38000,,,nan
GRENOBLE SUD VAILLANT,"37, rue des Déportés, du 11 Novembre, GRENOBLE",38100,,,nan
LES PORTES DU VERCORS FONTAINE,"32 bis, Avenue du Vercors, nan, FONTAINE",38600,,,nan
LAMASTRE,"30, pl Seignobos, nan, LAMASTRE",07270,,,nan
BELLEDONNE DOMENE,"6, pl Matussière, nan, DOMENE",38420,,,nan
GUILDURANCE EMBRUN,"ZA ENTRAIGUES, LE PETIT LIOU, BARATIER",05200,,,nan
GAP TOKORO,"20, Avenue Emile Didier, nan, GAP",05000,,,nan
MOUCHEROTTE SEYSSINS,"110, rue de la Liberté, nan, SEYSSINS",38180,,,nan
VALENTINOIS SAINT PERAY,"2, rue Denis Papin, nan, ST PERAY",07130,,,nan
GRESIVAUDAN CROLLES,"6, pl Alfred Berthet, nan, CROLLES",38920,,,nan
MONTELIMAR SUD,"140, Avenue Jean Jaurès, nan, MONTELIMAR",26200,,,nan
MOUCHEROTTE SEYSSINET,"4, Avenue Victor Hugo, nan, SEYSSINET PARISET",38170,,,nan
DIE,"79, rue Auguste Simon, nan, DIE",26150,,,nan
PAYS VOIRONNAIS RIVES,"101, rue de la République, nan, RIVES",38140,,,nan
MANOSQUE SUD,"Axe Sud ZI Saint Joseph, nan, MANOSQUE",04100,,,nan
BRIANCONNAIS SERRE CHEVALIER,"8, ch de l'Oratoire, nan, LA SALLE LES ALPES",05240,,,nan
DRAC ROMANCHE VIZILLE,"57, pl du Château, nan, VIZILLE",38220,,,nan
BELLEDONNE GIERES,"4, Avenue Esclangon, nan, GIERES",38610,,,nan
SUD BELLEDONNE EYBENS,"142, Avenue Jean Jaurès, nan, EYBENS",38320,,,nan
MONTFLEURY MEYLAN,"1, Allée des Centaurées, nan, MEYLAN",38240,,,nan
AGENCE BANQUE PRIVEE GRENOBLE,"13, cours Jean Jaurès, nan, GRENOBLE",38000,,,nan
AGENCE BANQUE PRIVEE VALLEE DU RHÔNE,"19 avenue de Langories, Immeuble Aquillon Bat B, VALENCE",26000,,,nan
AGENCE BANQUE PRIVEE ANNEMASSE,"18, Avenue de la Gare - 3ème étage, nan, ANNEMASSE",74100,,,nan
LES ARCADES DE JAUDE,"14, bd Desaix, nan, CLERMONT FERRAND",63000,,,nan
LE PUY MICHELET,"11, pl Michelet, nan, LE PUY EN VELAY",43005,,,nan
PORTES HAUTE LOIRE STE SIGOLENE,"1, rue de la Victoire, nan, STE SIGOLENE",43600,,,nan
GRAND TULLE,"2, avenue Victor Hugo, nan, TULLE",19000,,,nan
PAYS BRIVADOIS LANGEAC,"25, bd Charles de Gaulle, nan, LANGEAC",43300,,,nan
PORTES DU ZENITH LE CENDRE,"53, Avenue de la Libération, nan, COURNON D'AUVERGNE",63800,,,nan
CLERMONT SUD AUBIERE,"4, pl Dr Knox, nan, AUBIERE CEDEX",63172,,,nan
AURILLAC SUD MARMIERS,"100, rue Léon Blum, nan, AURILLAC",15003,,,nan
PAYS BRIVADOIS BRIOUDE,"32, bd du Docteur Devins, nan, BRIOUDE CEDEX",43102,,,nan
LE PUY ST GILLES,"46, rue Saint Gilles, BP 21, LE PUY CEDEX",43010,,,nan
PORTES HAUTE LOIRE MONISTROL,"2, Avenue Charles de Gaulle, nan, MONISTROL SUR LOIRE",43120,,,nan
NORD DE CLERMONT CEBAZAT,"Ave du 8 Mai, nan, CEBAZAT",63118,,,nan
GRAND MOULINS CENTRE,"2, pl Anne de France, nan, MOULINS",03000,,,nan
L OREE DES DOMES FONTGIEVE,"98, rue Fontgieve, nan, CLERMONT FERRAND",63000,,,nan
SAINT JUST MALMONT,"14, pl Moulin Prugnat, nan, SAINT JUST MALMONT",43240,,,nan
BORT LES ORGUES,"119, pl Marmontel, nan, BORT LES ORGUES",19110,,,nan
AINAY LE CHATEAU,"37, pl du Faubourg, nan, AINAY LE CHATEAU",03360,,,nan
MONTLUCON VAL DE CHER DOMERAT,"Bd Victor Hugo, nan, DOMERAT",03410,,,nan
ROANNE OUEST FAUBOURG CLERMONT,"43, rue de Clermont, nan, ROANNE",42300,,,nan
ROANNE CENTRE FAUBOURG PARIS,"19, rue Alexandre Roche, nan, ROANNE",42300,,,nan
COURS,"41-43, rue Georges Clemenceau, nan, COURS LA VILLE",69470,,,nan
ALLIER SUD GANNAT,"54, Grande Rue, nan, GANNAT",03800,,,nan
LYON PART DIEU LAFAYETTE,"300, crs Lafayette, nan, LYON",69003,,,nan
VILLEURBANNE CHARPENNES,"8, Avenue Condorcet, nan, VILLEURBANNE",69100,,,nan
OUEST LYONNAIS TASSIN,"97, avenue Charles de Gaulle, nan, TASSIN LA DEMI LUNE",69160,,,nan
LYON LUMIERE MONPLAISIR,"81, Avenue des Frères Lumière, nan, LYON",69008,,,nan
VALS DU DAUPHINE LA TOUR DU PIN,"1, pl Antonin Dubost, nan, LA TOUR DU PIN",38110,,,nan
LYON SUD BRIGNAIS,"Rue du Colonnel Robert Guillaud, nan, BRIGNAIS",69530,,,nan
OULLINS PB,"165, Grande Rue, nan, OULLINS-PIERRE-BENITE",69600,,,nan
SAINT EXUPERY GENAS,"48-52, rue de la République, nan, GENAS",69740,,,nan
LYON JEAN JAURES GERLAND,"215, Avenue Jean Jaurès, nan, LYON",69007,,,nan
COTIERE GRAND PARC MONTLUEL,"189, Grande Rue, nan, MONTLUEL",01120,,,nan
LES AQUEDUCS CHAPONOST,"53, Avenue Paul Doumer, nan, CHAPONOST",69630,,,nan
VENISSIEUX CENTRE,"16, pl Léon Sublet, nan, VENISSIEUX",69200,,,nan
PAYS DE LA TURDINE TARARE,"1, Avenue Charles de Gaulle, nan, TARARE",69170,,,nan
LYON BELLECOUR CONFLUENCE,"17-19, cours Charlemagne, nan, LYON",69002,,,nan
PAYS ROUSSILLONNAIS SALAISE,"Angle N 7 rue Jonchain, ZAC Jonchain Nord, SALAISE-SUR-SANNE",38150,,,nan
LYON PRESQU ILE TERREAUX,"2, rue Paul Chenavard, nan, LYON",69001,,,nan
EST LYONNAIS CORBAS,"69, rue Centrale, nan, CORBAS",69960,,,nan
CONDRIEU,"9, rue de la Liberté, nan, CONDRIEU",69420,,,nan
VAL DE SAONE FONTAINES,"3, rue Pierre Carbon, nan, FONTAINES SUR SAONE",69270,,,nan
AGENCE ENTREPRISES LYON SUD,"Immeuble le Sud Ouest, 2A rte de Lyon, BRIGNAIS",69530,,,nan
ST ETIENNE CENTRE HOTEL DE VILLE,"1, pl de l'Hôtel de Ville, nan, ST ETIENNE",42000,,,nan
PAYS DU GIER SAINT CHAMOND,"24, rue de la République, nan, ST CHAMOND",42400,,,nan
LA TALAUDIERE,"1, rue Victor Hugo, nan, LA TALAUDIERE",42350,,,nan
PAYS DU GIER RIVE DE GIER,"90, rue Jean Jaurès, nan, RIVE DE GIER",42800,,,nan
LOIRE FOREZ ANDREZIEUX,"15 bis, Avenue de Saint Etienne, nan, ANDREZIEUX BOUTHEON CEDEX",42161,,,nan
LOIRE FOREZ SAINT RAMBERT,"Rue Gonyn St Just, nan, ST JUST ST RAMBERT",42170,,,nan
ST ETIENNE NORD VILLARS,"4, pl Gambetta, nan, VILLARS",42390,,,nan
CENTRE AFFAIRES BALMA HELIOPOLE,"43, Avenue Georges Pompidou, nan, BALMA",31130,,,nan
MONTAUBAN VOLTAIRE,"495, Avenue de Paris, nan, MONTAUBAN",82000,,,nan
GIMONT,"49 Bis boulevard du nord, nan, GIMONT",32200,,,nan
TOULOUSE JOLIMONT,"7, pl Commerciale Jolimont, nan, TOULOUSE",31500,,,nan
BLAGNAC,"Pl du Corps Franc Pommies, nan, BLAGNAC",31700,,,nan
CUGNAUX,"16, pl de l'Eglise, nan, CUGNAUX",31270,,,nan
RAMONVILLE ST AGNE MARNAC,"2, pl Marnac, nan, RAMONVILLE ST AGNE",31520,,,nan
BAGNERES DE BIGORRE,"37, rue du Maréchal Foch, nan, BAGNERES DE BIGORRE",65200,,,nan
CASTANET TOLOSAN,"13, Avenue de Toulouse, nan, CASTANET TOLOSAN",31320,,,nan
ST JEAN DE L'UNION,"13-14, allée Victor Hugo, nan, ST JEAN",31240,,,nan
TARBES ODOS,"85, Avenue Aristide Briand, nan, TARBES",65000,,,nan
PLAISANCE DU TOUCH,"Rue Pierre Loti, ZAC de la Rivière, PLAISANCE DU TOUCH",31830,,,nan
FRONTON,"45, Avenue de Toulouse, nan, FRONTON",31620,,,nan
TOULOUSE LARDENNE,"266, Avenue de Lardenne, nan, TOULOUSE",31100,,,nan
SAMATAN,"10, rue de la République, nan, SAMATAN",32130,,,nan
TOULOUSE BARRIERE DE LOMBEZ,"70, Avenue de Lombez, nan, TOULOUSE",31300,,,nan
TOULOUSE PURPAN,"297, Avenue de Grande Bretagne, nan, TOULOUSE",31300,,,nan
TOULOUSE JULES JULIEN,"85, Avenue Jules Julien, nan, TOULOUSE",31400,,,nan
TOULOUSE CAMILLE PUJOL,"125, Avenue Camille Pujol, nan, TOULOUSE",31500,,,nan
TOULOUSE L'ORMEAU,"235, Avenue Saint Exupéry, nan, TOULOUSE",31400,,,nan
LACAUNE,"9, Avenue de Naurois, nan, LACAUNE",81230,,,nan
CASTELSARRASIN,"16, pl de la Liberté, nan, CASTELSARRASIN",82100,,,nan
TOULOUSE LASCROSSES,"7, bd Lascrosses, nan, TOULOUSE",31000,,,nan
L'ISLE JOURDAIN,"10, Place du Foirail, nan, L'ISLE JOURDAIN",32600,,,nan
TARBES MARCADIEU,"34, pl Marcadieu, nan, TARBES",65000,,,nan
VALENCE D'AGEN,"17, boulevard Victor Guilhem, nan, VALENCE D'AGEN",82400,,,nan
RABASTENS DE BIGORRE,"24, pl Centrale, nan, RABASTENS DE BIGORRE",65140,,,nan
MONTAUBAN RIVE GAUCHE,"99, Avenue Aristide Briand, nan, MONTAUBAN",82000,,,nan
SAINT LARY,"35, rue Vincent MIR, nan, SAINT LARY",65170,,,nan
TOULOUSE PAUL SABATIER,"120, route de Narbonne, nan, TOULOUSE",31062,,,nan
RISCLE,"1, pl de la Libération, nan, RISCLE",32400,,,nan
TOURNEFEUILLE ARC EN CIEL,"22, bd Vincent Auriol, nan, TOURNEFEUILLE",31170,,,nan
MONTECH,"7, boulevard de la République, nan, MONTECH",82700,,,nan
TRIE SUR BAISE,"39, Place de la Mairie, nan, TRIE SUR BAISE",65220,,,nan
RIGNAC,"44, Avenue de la Promenade, nan, RIGNAC",12390,,,nan
VILLEFRANCHE DE ROUERGUE LES IMBERTS,"Rte de Montauban, nan, VILLEFRANCHE DE ROUERGUE",12200,,,nan
MIRANDE,"9, pl d'Astarac, nan, MIRANDE",32300,,,nan
GRAULHET,"10, pl de la République, nan, GRAULHET",81300,,,nan
RODEZ CITE,"2, pl de la Cité, nan, RODEZ",12000,,,nan
RABASTENS,"36, promenade des Lices, nan, RABASTENS",81800,,,nan
CASTRES SOULT,"13, pl Soult, nan, CASTRES",81100,,,nan
ST AFFRIQUE,"2, rue Gaston Delure, nan, ST AFFRIQUE",12400,,,nan
ALBI JEAN JAURES,"52-54, pl Jean Jaurès, nan, ALBI",81012,,,nan
ESPALION,"13, bd de Guizard, nan, ESPALION",12500,,,nan
LAVAUR,"27, allée Jean Jaurès, nan, LAVAUR",81500,,,nan
BARAQUEVILLE,"264, Avenue du Centre, nan, BARAQUEVILLE",12160,,,nan
CASTRES MELOU,"50, rte de Toulouse, nan, CASTRES",81100,,,nan
ALBI STRASBOURG,"2, bd Alsace Lorraine, nan, ALBI",81000,,,nan
RODEZ BOURRAN,"210, Avenue de Bourran, nan, RODEZ",12000,,,nan
CASTRES JEAN JAURES,"7, pl Jean Jaurès, nan, CASTRES",81100,,,nan
ALBI MALADRERIE,"1, rue de Rudel, nan, ALBI",81000,,,nan
ONET LE CHATEAU,"Rte d'Espalion, nan, ONET LE CHATEAU",12850,,,nan
ALBI VAL DE CAUSSELS,"2, rte de Millau, nan, ALBI",81000,,,nan
MAZAMET LA RICHARDE,"RN 112 La Richarde, nan, MAZAMET",81200,,,nan
AGEN REPUBLIQUE,"64, bd de la République, nan, AGEN",47004,,,nan
SOUILLAC,"30-32, bd Louis Jean Malvy, nan, SOUILLAC",46200,,,nan
CAHORS GAMBETTA,"26, bd Gambetta, nan, CAHORS",46001,,,nan
LE PASSAGE D'AGEN,"38 ter, Avenue de la Marne, nan, LE PASSAGE D'AGEN",47520,,,nan
TONNEINS,"31, rue du Maréchal Joffre, nan, TONNEINS",47400,,,nan
NERAC,"1, rue Lafayette, nan, NERAC",47600,,,nan
MIRAMONT DE GUYENNE,"6-10, rue du Temple, nan, MIRAMONT DE GUYENNE",47800,,,nan
CASTELJALOUX,"12, pl Gambetta, nan, CASTELJALOUX",47700,,,nan
MARMANDE GARONNE,"Parking du Centre Leclerc, Route Nationale (RN 113), MARMANDE",47200,,,nan
VILLENEUVE SUR LOT RIVE GAUCHE,"25, bd Voltaire, nan, VILLENEUVE SUR LOT",47300,,,nan
LACAPELLE MARIVAL,"168 Place du Fort, nan, LACAPELLE MARIVAL",46120,,,nan
CAHORS CENTRE AFFAIRES,"Avenue Maryse Bastie BP 19, nan, CAHORS",46000,,,nan
ARREAU,"1, pl de l'Eglise, nan, ARREAU",65240,,,nan
TOULOUSE CROIX DAURADE,"111, rte d'Albi, nan, TOULOUSE",31200,,,nan
QUINT-FONSEGRIVES,"Cours Goudouli, nan, QUINT-FONSEGRIVES",31130,,,nan
E-BANQUE POPULAIRE,"2, Avenue de Milan, nan, TOURS",37924,,,nan
CHARTRES AGRI EURE ET LOIR,"10-12, allée Pométhée Propylée II, nan, CHARTRES",28000,,,nan
VERNEUIL SUR SEINE,"15 bis, pl du Clos Verger, nan, VERNEUIL SUR SEINE",78480,,,nan
CHARTRES,"5, pl des Epars, nan, CHARTRES",28001,,,nan
AUNEAU,"6, rue Pasteur, nan, AUNEAU",28701,,,nan
BROU,"2, pl du Dauphin, nan, BROU",28160,,,nan
EPERNON,"6, rue du Grand Pont, nan, EPERNON",28230,,,nan
PALAISEAU,"87, rue de Paris, nan, PALAISEAU",91120,,,nan
LE VESINET,"73, bd Carnot, nan, LE VESINET",78110,,,nan
VELIZY VILLACOUBLAY WAGNER,"12, Avenue Robert Wagner, nan, VELIZY VILLACOUBLAY",78142,,,nan
ANET,"18, rue Diane de Poitiers, nan, ANET",28260,,,nan
MAISONS LAFFITTE,"1, rue Saint Nicolas, nan, MAISONS LAFFITTE",78601,,,nan
POISSY,"37, rue du Général de Gaulle, nan, POISSY",78303,,,nan
MEUDON,"35, rue de la République, nan, MEUDON",92190,,,nan
BUCHELAY,"Ctre Cial Porte de Normandie, nan, BUCHELAY",78200,,,nan
LE PERRAY EN YVELINES,"96, rue de Paris, nan, LE PERRAY EN YVELINES",78610,,,nan
MONTFORT L'AMAURY,"45, rue de Paris, nan, MONTFORT L'AMAURY",78490,,,nan
NEAUPHLE LE CHATEAU,"8, pl du Marché, nan, NEAUPHLE LE CHATEAU",78640,,,nan
LA QUEUE LES YVELINES,"25, rue Nationale, nan, LA QUEUE LES YVELINES",78940,,,nan
LUCE,"39, rue de la République, nan, LUCE",28112,,,nan
BONNEVAL,"1, rue Hérisson, nan, BONNEVAL",28800,,,nan
MONTIGNY PAS DU LAC,"9, Avenue Newton, nan, MONTIGNY LE BRETONNEUX",78181,,,nan
ACHERES,"9, rue Carnot, nan, ACHERES",78260,,,nan
LE CHESNAY ENTREPRISES,"18, Avenue Dutartre, nan, LE CHESNAY",78150,,,nan
SARTROUVILLE GARE,"11, Avenue de la République, nan, SARTROUVILLE",78500,,,nan
TRIEL SUR SEINE,"190-192, rue Paul Doumer, nan, TRIEL SUR SEINE",78510,,,nan
ORLEANS DE GAULLE,"11-13, pl du Général de Gaulle, nan, ORLEANS",45000,,,nan
OLIVET,"586, rue Marcel Belot, nan, OLIVET",45160,,,nan
CHECY LOIRET ENTREPRISES,"5, rue Gustave Eiffel, nan, CHECY",45430,,,nan
BEAUGENCY,"13-15, pl du Martroi, nan, BEAUGENCY",45190,,,nan
ROMORANTIN LANTHENAY,"39, rue Georges Clemenceau, nan, ROMORANTIN LANTHENAY",41200,,,nan
VIERZON,"3, Avenue Pierre Semard, nan, VIERZON",18100,,,nan
ST AMAND MONTROND,"16, rue Nationale, nan, ST AMAND MONTROND",18200,,,nan
LEVROUX,"16, pl de la République, nan, LEVROUX",36110,,,nan
ISSOUDUN,"15, bd Marx Dormoy, nan, ISSOUDUN",36100,,,nan
VATAN,"14, pl de la République, nan, VATAN",36150,,,nan
BOURGES CATHEDRALE,"16, rue Moyenne, nan, BOURGES",18000,,,nan
BOURGES GOULEVENTS,"102, Avenue Marcel Haegelen, nan, BOURGES",18000,,,nan
TOURS VELPEAU,"27, pl Velpeau, nan, TOURS",37000,,,nan
TOURS NATIONALE,"23, rue Nationale, nan, TOURS",37000,,,nan
MONTLOUIS SUR LOIRE,"1, pl du 11 Novembre, nan, MONTLOUIS SUR LOIRE",37270,,,nan
ST PIERRE DES CORPS LES ATLANTES,"Ctre Cial, Ave Jacques Duclos, ST PIERRE DES CORPS",37700,,,nan
STE MAURE DE TOURAINE,"107, rue du Docteur Patry, nan, STE MAURE DE TOURAINE",37800,,,nan
TOURS PETITE ARCHE,"Ctre Cial, nan, TOURS",37100,,,nan
ST CYR SUR LOIRE,"72, Avenue de la République, nan, ST CYR SUR LOIRE",37540,,,nan
TOURS GRAMMONT,"117, avenue de Grammont, nan, TOURS",37000,,,nan
BOURGUEIL,"Centre Ccial la Grande Prairie, nan, BOURGUEIL",37140,,,nan
RICHELIEU,"27, pl du Marché, nan, RICHELIEU",37120,,,nan
POITIERS HOTEL DE VILLE,"2, pl du Maréchal Leclerc, nan, POITIERS",86000,,,nan
POITIERS GRAND LARGE,"60, avenue du 11 novembre, nan, POITIERS",86000,,,nan
POITIERS NANTES,"243, Avenue de Nantes, nan, POITIERS",86000,,,nan
MONTRICHARD,"11, rue Carnot, nan, MONTRICHARD",41400,,,nan
BLOIS SALAMANDRE,"1, rue du Bout des Haies, nan, BLOIS",41000,,,nan
SIEGE TEST,"adresse, nan, TEST",99999,,,nan
Banque Populaire Rives de Paris,"80, boulevard Auguste Blanqui, nan, Paris Cedex 13",75204,,,nan
Banque Populaire Bourgogne Franche-Comté,"14, boulevard de la Trémouille, nan, Dijon Cedex",21000,,,nan
Banque Populaire Auvergne Rhône Alpes,"4, Boulevard Eugène Deruelle, nan, LYON",69003,,,nan
PITON ST LEU,"149, ch Départemental 11, Ctre Cial Super U, ST LEU",97436,,,nan
BRED SAINT PIERRE BLD BANK,"128 bis, rue Luc Lorion, Espace Bank, SAINT PIERRE",97410,,,nan
MALAKOFF,"81, bd Gabriel Péri, Pl du 14 juillet, MALAKOFF",92240,,,nan
ST PIERRE DU PERRAY,"13, rue du Clos Guinault, ZAC du Trou Grillon, ST PIERRE DU PERRAY",91280,,,nan
MERIGNAC ENT 33 OUEST,"17, allée James Watt, Parc Chemin Long BP 301112, MERIGNAC",33700,,,nan
DEAUVILLE CM,"10, Avenue de la République, Résidence La Deauvillaise, DEAUVILLE",14800,,,Crédit Maritime Grand Ouest
VALBONNE SOPHIA ANTIPOLIS,"630, route des Dolines, Ophira II, VALBONNE",06560,,,nan
MANDELIEU,"302, avenue de Cannes, Les Ormes, MANDELIEU",06210,,,nan
FREJUS TASSIGNY,"573, avenue de Lattre de Tassigny, Les Terrasses de Tassigny, FREJUS",83600,,,nan
ST AVOLD,"2, pl Saint Nabor, Le Forum, ST AVOLD",57500,,,nan
MULHOUSE GARE,"26, Avenue du Général Leclerc, Immeuble 28, MULHOUSE",68100,,,nan
ILLZACH,"4, rue de Pfastatt, Le Septentrion, ILLZACH",68110,,,nan
CABESTANY MAS GUERIDO,"2, rue Gay Lussac, Ctre Cial - Mas Guérido, CABESTANY",66330,,,nan
LEZAT SUR LEZE,"3, rte de Toulouse, La Riverette, LEZAT SUR LEZE",09210,,,nan
LES ANGLES,"4, Avenue de Mont-Louis, Résidence Les Jassettes, LES ANGLES",66210,,,nan
NIMES COURBESSAC,"100, rue des Mousquetaires, Ctre Cial Nîmes Soleil, NIMES",30900,,,nan
MONTPELLIER RICHTER,"47, Avenue de la Pompignane, Résidence Artemis, MONTPELLIER",34000,,,nan
AG LA GRANDE MOTTE BDP,"55, AVENUE MELGUEIL, IMMEUBLE H20, LA GRANDE MOTTE",34280,,,Banque Dupuy de Parseval
AG AUCHAN BEZIERS BDP,"4, AVENUE DE LA VOIE DOMITIENNE, CENTRE COMMERCIAL AUCHAN, BEZIERS",34500,,,Banque Dupuy de Parseval
TARENTAISE BOURG SAINT MAURICE,"13, pl de la Gare, Résidence d'Albaron, BOURG ST MAURICE",73700,,,nan
RIVE DU LAC FAVERGES,"20, pl de l'Eglise, Immeuble Les Arcades, FAVERGES",74210,,,nan
SAINT GERMAIN DU PUY,"28, Route de la Charité, Porte Saint Germain du Puy, SAINT GERMAIN DU PUY",18390,,,nan
ST PIERRE DES CORPS,"13, pl Maurice Thorez, Ctre Cial de la Mairie, ST PIERRE DES CORPS",37700,,,nan
PARIS PLACE DE CLICHY,"78, rue de Clichy, nan, PARIS 09",75009,,,nan
PARIS BRETAGNE,"40, rue de Bretagne, nan, PARIS 03",75003,,,nan
PARIS ROCHECHOUART,"25, bd de Rochechouart, nan, PARIS 09",75009,,,nan
KOUROU,"85, Avenue Gaston Monnerville, nan, KOUROU",97310,,,nan
PARIS MOZART,"46, Avenue Mozart, nan, PARIS 16",75016,,,nan
VILLERS COTTERETS,"3, pl du Dr Mouflier, nan, VILLERS COTTERETS",02600,,,nan
PARIS DIDEROT,"39, bd Diderot, nan, PARIS 12",75012,,,nan
PARIS TURBIGO,"48, rue Turbigo, nan, PARIS 03",75003,,,nan
PARIS VILLIERS,"102, bd des Batignolles, nan, PARIS 17",75017,,,nan
PARIS MONTORGUEIL,"19, rue Montorgueil, nan, PARIS 01",75001,,,nan
FORT DE FRANCE DILLON,"Ctre Cial Carrefour DILLON, nan, FORT DE FRANCE",97200,,,nan
FORT DE FRANCE SAVANE,"17, rue de la Liberté, nan, FORT DE FRANCE",97200,,,nan
PARIS ST PHILIPPE DU ROULE,"40, rue La Boétie, nan, PARIS 08",75008,,,nan
PARIS ST HONORE,"9, rue des Pyramides, nan, PARIS 01",75001,,,nan
PARIS HOTEL DE VILLE,"33, rue de Rivoli, nan, PARIS 04",75004,,,nan
PARIS ST MARTIN,"33, bd Saint Martin, nan, PARIS 03",75003,,,nan
LE LAMENTIN GALLERIA,"Ctre Cial, Quartier Acajou, LE LAMENTIN",97232,,,nan
CRETEIL SOLEIL,"Ctre Cial, nan, CRETEIL",94000,,,nan
NANTERRE HOTEL DE VILLE,"42, rue Maurice Thorez, nan, NANTERRE",92000,,,nan
ROSNY SOUS BOIS,"5, pl Carnot, nan, ROSNY SOUS BOIS",93110,,,nan
FONTENAY SOUS BOIS MAIRIE,"10, pl du Général Leclerc, nan, FONTENAY SOUS BOIS",94120,,,nan
MONTREUIL CROIX DE CHAVAUX,"62, bd Rouget de l'Isle, nan, MONTREUIL",93100,,,nan
ST MAUR DES FOSSES HOTEL DE VILLE,"24, Avenue de la République, nan, ST MAUR DES FOSSES",94100,,,nan
BOIS COLOMBES,"4, pl Gabriel Péri, nan, BOIS COLOMBES",92270,,,nan
NEUILLY SUR MARNE,"Ctre Cial le Baobab, Ave du Maréchal Foch, NEUILLY SUR MARNE",93330,,,nan
RICHARDETS,"102, avenue Médéric, nan, NOISY LE GRAND",93160,,,nan
PARIS PYRENEES,"282, rue des Pyrénées, nan, PARIS 20",75020,,,nan
MAISONS ALFORT CHARENTONNEAU,"46, Avenue Georges Clemenceau, nan, MAISONS ALFORT",94700,,,nan
ROISSY EN BRIE,"6 bis-8, Première Avenue, nan, ROISSY EN BRIE",77680,,,nan
STE MARIE,"Ctre Cial Rubinel, Rte de l'Union - Quartier Petit Bourg, STE MARIE",97230,,,nan
LE PLESSIS TREVISE,"7 bis-7 ter, Avenue Ardouin, nan, LE PLESSIS TREVISE",94420,,,nan
SURESNES HOTEL DE VILLE,"18, pl du Général Leclerc, nan, SURESNES",92150,,,nan
LE VAUCLIN,"15, rue Thimon Tareau, nan, LE VAUCLIN",97280,,,nan
JOINVILLE LE PONT GARE,"33, rue de Paris, nan, JOINVILLE LE PONT",94340,,,nan
HOUILLES,"8, Avenue Carnot, nan, HOUILLES",78800,,,nan
ASNIERES SUR SEINE,"1, rue de la Concorde, nan, ASNIERES SUR SEINE",92600,,,nan
LA GARENNE COLOMBES,"3, Avenue Joffre, nan, LA GARENNE COLOMBES",92250,,,nan
NEUILLY SUR SEINE,"95, Avenue Achille Peretti, nan, NEUILLY SUR SEINE",92200,,,nan
COURBEVOIE,"8, rue de l'Abreuvoir, nan, COURBEVOIE",92400,,,nan
VILLEMOMBLE,"61, Avenue du Raincy, nan, VILLEMOMBLE",93250,,,nan
FONTENAY SOUS BOIS VERDUN,"64-66, bd de Verdun, nan, FONTENAY SOUS BOIS",94120,,,nan
BOULOGNE BILLANCOURT POINT DU JOUR,"146-146 bis, rue du Point du Jour, 3 bis, pl Jules Guesde, BOULOGNE BILLANCOURT",92100,,,nan
ST BENOIT DE LA REUNION,"8, rue de l'Eglise, nan, ST BENOIT DE LA REUNION",97470,,,nan
LAGNY SUR MARNE,"115, rue Saint Denis, nan, LAGNY SUR MARNE",77400,,,nan
FECAMP,"14, pl Charles de Gaulle, nan, FECAMP",76400,,,nan
VILLEPARISIS,"5, pl du Marché, nan, VILLEPARISIS",77270,,,nan
HARFLEUR,"3, pl Victor Hugo, nan, HARFLEUR",76700,,,nan
NEMOURS,"8-10, pl de la République, nan, NEMOURS",77140,,,nan
CRECY LA CHAPELLE,"19, pl du Marché, nan, CRECY LA CHAPELLE",77580,,,nan
LE HAVRE CENTRE,"122, bd de Strasbourg, nan, LE HAVRE",76600,,,nan
OISSEL,"Pl de la République, nan, OISSEL",76350,,,nan
CAEN VAUCELLES,"26, rue de la Falaise, nan, CAEN",14000,,,nan
FONTAINEBLEAU AVON,"37, bd du Général Leclerc, nan, FONTAINEBLEAU",77300,,,nan
ROUEN ST MARC,"104, rue de Martainville, nan, ROUEN",76000,,,nan
SOUPPES SUR LOING,"13, pl de la République, nan, SOUPPES SUR LOING",77460,,,nan
STE ROSE,"Ave Les Cités Unies, nan, STE ROSE",97115,,,nan
TROUVILLE SUR MER,"14, rue Victor Hugo, nan, TROUVILLE SUR MER",14360,,,nan
ELBEUF,"1, rue des Martyrs de la Résistance, nan, ELBEUF",76500,,,nan
LE LAMENTIN LA JAMBETTE,"ZI, nan, LE LAMENTIN",97232,,,nan
GISORS,"8, rue de Vienne, nan, GISORS",27140,,,nan
PONTAULT COMBAULT,"134-136, Avenue de la République, nan, PONTAULT COMBAULT",77340,,,nan
LE PORT DE LA REUNION,"Angle rue Alexandre de Lasserve, et ave de la Commune de Paris, LE PORT DE LA REUNION",97420,,,nan
SCHOELCHER CLUNY,"Zone de Cluny, Immeuble VENUTOLO - Plateau ROY, SCHOELCHER",97233,,,nan
LISIEUX,"15, Avenue Victor Hugo, nan, LISIEUX",14100,,,nan
POINTE A PITRE LEGITIMUS,"Bd de Legitimus, nan, POINTE A PITRE",97110,,,nan
LE MOULE,"83, rue Saint Jean, nan, LE MOULE",97160,,,nan
ST FRANCOIS,"1, rue du Général de Gaulle, nan, ST FRANCOIS",97118,,,nan
MADIMARCHE,"Lieu dit Gaschette, nan, LE ROBERT",97231,,,nan
ST DENIS DE LA REUNION,"1/3 rue de Paris, nan, ST DENIS DE LA REUNION",97400,,,nan
ST PIERRE DE LA REUNION,"45, rue du Four à Chaux, nan, ST PIERRE DE LA REUNION",97410,,,nan
ST PAUL DE LA REUNION,"12, rue Marius et Ary Leblond, nan, ST PAUL DE LA REUNION",97460,,,nan
ST LOUIS DE LA REUNION,"78, Avenue du Dr Raymond Vergès, nan, ST LOUIS",97450,,,nan
PACY SUR EURE,"73, rue Isambard, nan, PACY SUR EURE",27120,,,nan
BOIS COLOMBES BOURGUIGNONS,"139, rue des Bourguignons, nan, BOIS COLOMBES",92270,,,nan
ST PAUL DE LA REUNION PLATEAU CAILLOU,"1, rue Paul Ferrand, nan, ST PAUL DE LA REUNION",97460,,,nan
YVETOT,"7, pl Joffre, 1, rue Martin du Bellay, YVETOT",76190,,,nan
CAEN BEAULIEU,"Le Parc Pompidou, Bd Georges Pompidou, CAEN",14000,,,nan
PARIS NATION,"20, Avenue Philippe Auguste, nan, PARIS 11",75011,,,nan
PONT AUDEMER,"Pl Victor Hugo, nan, PONT AUDEMER",27500,,,nan
MONTREUIL MAIRIE,"24, bd Paul Vaillant Couturier, nan, MONTREUIL",93100,,,nan
GOURNAY EN BRAY,"31, pl Nationale, nan, GOURNAY EN BRAY",76220,,,nan
PARIS PERE LACHAISE,"71, bd de Ménilmontant, nan, PARIS",75011,,,nan
LA RIVIERE SAINT LOUIS,"152, rte de Cilaos - RN 5, nan, LA RIVIERE ST LOUIS",97421,,,nan
VILLERS BOCAGE,"12, rue Pasteur, nan, VILLERS BOCAGE",14310,,,nan
DIVES SUR MER,"Ctre Cial de la Côte Fleurie, Bd Maurice Thorez, DIVES SUR MER",14160,,,nan
LE MESNIL ESNARD,"70, rte de Paris, nan, LE MESNIL ESNARD",76240,,,nan
HEROUVILLE SAINT CLAIR,"2, Avenue Garbsen, nan, HEROUVILLE ST CLAIR",14200,,,nan
SAINTE CLOTILDE TECHNOPOLE,"10, Avenue de l'Amitié, ZAC du Triangle, STE CLOTILDE",97490,,,nan
PARIS BAGNOLET,"44, rue de Bagnolet, nan, PARIS",75020,,,nan
ST ARNOULT DEAUVILLE,"ZAC La Verdure, Ave Michel d'Ornano, SAINT ARNOULT",14800,,,nan
MONDEVILLE,"27, rue Emile Zola, nan, MONDEVILLE",14120,,,nan
VILLEMOMBLE L'EPOQUE,"157, Grande Rue, nan, VILLEMOMBLE",93250,,,nan
VAL DE REUIL,"1, route de Falaise, nan, VAL DE REUIL",27100,,,nan
MONTROUGE,"55, Avenue Aristide Briand, nan, MONTROUGE",92120,,,nan
ISSY LES MOULINEAUX,"1, Avenue Victor Cresson, nan, ISSY LES MOULINEAUX",92130,,,nan
CORBEIL LE COUDRAY,"14, rue Feray, nan, CORBEIL ESSONNES",91100,,,nan
PARIS ITALIE,"63, Avenue d'Italie, nan, PARIS 13",75013,,,nan
PARIS MONGE,"64-71, rue Monge, nan, PARIS 05",75005,,,nan
CHATILLON,"21, rue J-P Timbaud, nan, CHATILLON",92320,,,nan
PARIS MONTPARNASSE,"31, bd Edgar Quinet, nan, PARIS 14",75014,,,nan
BOISSY ST LEGER,"15, rue de la Fontaine, nan, BOISSY ST LEGER",94470,,,nan
CACHAN,"7-9, Avenue Aristide Briand, nan, CACHAN",94230,,,nan
STE GENEVIEVE DES BOIS,"192-194, Avenue Gabriel Péri, nan, STE GENEVIEVE DES BOIS",91700,,,nan
ANTONY SUD,"197, Avenue de la Division Leclerc, nan, ANTONY",92160,,,nan
PARIS GRENELLE,"60, bd de Grenelle, nan, PARIS 15",75015,,,nan
PARIS SUFFREN,"62-68, Avenue de Suffren, nan, PARIS 15",75015,,,nan
PARIS MAINE,"31, rue Maurice Ripoche, nan, PARIS 14",75014,,,nan
VIGNEUX SUR SEINE,"96/102, Avenue Henri Barbusse, nan, VIGNEUX SUR SEINE",91270,,,nan
ATHIS MONS,"101, rue François Mitterrand, nan, ATHIS MONS",91200,,,nan
PARIS NOTRE DAME,"54-56, bd Saint Germain, nan, PARIS 05",75005,,,nan
PARIS ST CHARLES,"109, rue Saint Charles, nan, PARIS 15",75015,,,nan
ST CHERON,"2, rue Bouillon Lagrange, nan, ST CHERON",91530,,,nan
ISSY EN L'ILE,"13, bd des Iles, nan, ISSY LES MOULINEAUX",92130,,,nan
BRUNOY,"3, pl Saint Médard, nan, BRUNOY",91800,,,nan
VANVES,"2, rue de la République, nan, VANVES",92170,,,nan
PARIS BALARD,"170, rue de Lourmel, nan, PARIS 15",75015,,,nan
PARIS JEANNE D'ARC,"16-20, pl Jeanne d'Arc, nan, PARIS 13",75013,,,nan
PARIS VAUGIRARD,"279, rue de Vaugirard, nan, PARIS 15",75015,,,nan
PARIS ALESIA,"113, rue d'Alésia, nan, PARIS 14",75014,,,nan
RUNGIS CENTRE D'AFFAIRES VAL DE MARNE,"10, rue du Séminaire, nan, RUNGIS",94150,,,nan
LIMEIL-BREVANNES,"Place Eugène Colleau, La Résidence des Chênes, LIMEIL-BREVANNES",94450,,,nan
FRESNES,"16 ter-18-18 bis, rue Maurice Tenine, nan, FRESNES",94260,,,nan
BOISSYST LEGER CTRE AFF. VAL DE MARNE,"15, rue de la Fontaine, nan, BOISSY ST LEGER",94470,,,nan
MASSY VILMORIN,"60, Avenue Raymond Aron, nan, MASSY",91300,,,nan
PARIS CAULAINCOURT,"62, rue Damrémont, nan, PARIS 18",75018,,,nan
PARIS REPUBLIQUE,"1, bd Magenta, nan, PARIS 10",75010,,,nan
PARIS ORDENER,"117 bis, rue Ordener, nan, PARIS 18",75018,,,nan
ST DENIS,"32, bd Jules Guesde, nan, ST DENIS",93200,,,nan
PIERREFITTE SUR SEINE,"7, rue de Paris, nan, PIERREFITTE SUR SEINE",93380,,,nan
ENGHIEN LES BAINS,"41, rue du Général de Gaulle, nan, ENGHIEN LES BAINS",95880,,,nan
CONFLANS STE HONORINE,"13, rue Maurice Berteaux, nan, CONFLANS STE HONORINE",78700,,,nan
SARCELLES FLANADES,"1, bd Albert Camus, nan, SARCELLES",95200,,,nan
AULNAY SOUS BOIS,"33, bd de Strasbourg, nan, AULNAY SOUS BOIS",93600,,,nan
SENLIS,"46, pl de la Halle, nan, SENLIS",60300,,,nan
SOISY SOUS MONTMORENCY,"17, rue Carnot, nan, SOISY SOUS MONTMORENCY",95230,,,nan
SARCELLES VILLAGE,"1, pl du 11 Novembre, nan, SARCELLES",95200,,,nan
BEAUCHAMP,"10 bis, Avenue du Général de Gaulle, nan, BEAUCHAMP",95250,,,nan
SEVRAN,"7, Avenue Robert Ballanger, nan, SEVRAN",93270,,,nan
PARAY VIEILLE POSTE,"11, pl Henri Barbusse, nan, PARAY VIEILLE POSTE",91550,,,nan
BREUILLET,"Rue du Pavé, nan, BREUILLET",91650,,,nan
VAUREAL,"115-117, bd de l'Oise, nan, VAUREAL",95000,,,nan
CLERMONT DE L'OISE,"71, rue de la République, nan, CLERMONT",60600,,,nan
PARIS LOUIS BLANC,"223, rue Faubourg St Martin, nan, PARIS",75010,,,nan
LAMORLAYE,"33, rue du Général Leclerc, nan, LAMORLAYE",60260,,,nan
LE BOURGET,"48, Avenue de la Division Leclerc, nan, LE BOURGET",93350,,,nan
EPINAY SUR ORGE,"32, Grande Rue, nan, EPINAY SUR ORGE",91360,,,nan
ST GRATIEN,"2, rue Berthie Albrecht, nan, ST GRATIEN",95210,,,nan
GOUSSAINVILLE,"1 bis, bd Roger Salengro, nan, GOUSSAINVILLE",95190,,,nan
AGRICULTURE CLERMONT DE L'OISE,"71, rue de la République, nan, CLERMONT-DE-LOISE",60600,,,nan
AGRICULTURE ANGERVILLE,"14, rue Nationale, nan, ANGERVILLE",91670,,,nan
PARIS MASSON,"1, place André Masson, nan, PARIS",75013,,,nan
BAUME LES DAMES,"15, rue des Terreaux, nan, BAUME LES DAMES",25110,,,nan
MORTEAU,"17, rue de l'Helvétie, nan, MORTEAU",25500,,,nan
PONT D'AIN,"4 RUE DE SAINT EXUPERY, nan, PONT D'AIN",01160,,,nan
DOLE GREVY,"11, pl Jules Grévy, nan, DOLE",39100,,,nan
CHAMPAGNOLE,"23, Avenue de la République, nan, CHAMPAGNOLE",39300,,,nan
ARINTHOD,"5, place de la Charité, nan, ARINTHOD",39240,,,nan
BESANCON CHAPRAIS,"48, rue de Belfort, nan, BESANCON",25000,,,nan
BESANCON HELVETIE,"1, pl de la 1ère Armée Française, nan, BESANCON",25000,,,nan
BESANCON PALENTE,"185, rue de Belfort, nan, BESANCON",25000,,,nan
DELLE,"24, faubourg de Belfort, nan, DELLE",90100,,,nan
DOLE BARBEROUSSE,"65, rue des Arènes, nan, DOLE",39100,,,nan
MOIRANS EN MONTAGNE,"2, rue Pasteur, nan, MOIRANS EN MONTAGNE",39260,,,nan
VALDOIE,"7, rue de Turenne, nan, VALDOIE",90300,,,nan
JOUGNE,"1, place Buttigliera Alta, nan, JOUGNE",25370,,,nan
FEILLENS,"865, Grande Rue, nan, FEILLENS",01570,,,nan
ORGELET,"3, rue de l'Industrie, nan, ORGELET",39270,,,nan
MACON BIGEONNIERE,"1, cours Moreau Clos Bigeonnière, nan, MACON",71000,,,nan
AMBERIEU EN BUGEY,"55-57, rue Alexandre Bérard, nan, AMBERIEU EN BUGEY",01500,,,nan
MONTREAL LA CLUSE,"13, Avenue de Bresse, nan, MONTREAL LA CLUSE",01460,,,nan
CHATILLON SUR CHALARONNE,"168, pl de la République, nan, CHATILLON SUR CHALARONNE",01400,,,nan
PORT SUR SAONE,"53, rue François Mitterand, nan, PORT SUR SAONE",70170,,,nan
FONCINE LE HAUT,"61 A, Grande Rue, nan, FONCINE LE HAUT",39460,,,nan
CLUNY,"34, rue Lamartine, nan, CLUNY",71250,,,nan
LE RUSSEY,"23, pl Dominique Parrenin, nan, LE RUSSEY",25210,,,nan
CHAUFFAILLES,"1, rue du 8 Mai 1945, nan, CHAUFFAILLES",71170,,,nan
DANJOUTIN,"22 bis, rue du Général de Gaulle, nan, DANJOUTIN",90400,,,nan
BESANCON TEMIS,"Carrefour Sud Savary, Les Montboucons, BESANCON",25000,,,nan
DIJON CAP NORD,"10, rue de Cracovie, nan, DIJON",21000,,,nan
DIJON UNIVERSITE,"93, bd Mansard, nan, DIJON",21000,,,nan
DIJON VICTOR HUGO,"104, Avenue Victor Hugo, nan, DIJON",21000,,,nan
QUETIGNY GRAND MARCHE,"14, rue des Chalands, nan, QUETIGNY",21800,,,nan
AUXERRE CORDELIERS,"16-22, pl des Cordeliers, nan, AUXERRE",89000,,,nan
CHATILLON SUR SEINE,"36, rue Maréchal de Lattre de Tassigny, nan, CHATILLON SUR SEINE",21400,,,nan
MONTBARD,"2, rue Carnot, nan, MONTBARD",21500,,,nan
GENLIS,"7, rue Bernard Laureau, nan, GENLIS",21110,,,nan
NUITS ST GEORGES,"11, rue Fagon, nan, NUITS ST GEORGES",21700,,,nan
CORBIGNY,"13, Grande Rue, nan, CORBIGNY",58800,,,nan
AVALLON,"32, rue de Paris, nan, AVALLON",89200,,,nan
MIGENNES,"69, Avenue Jean Jaurès, nan, MIGENNES",89400,,,nan
ST FLORENTIN,"2, rue Montarmance, nan, ST FLORENTIN",89600,,,nan
ST GEORGES SUR BAULCHE,"25, Avenue d'Auxerre, nan, ST GEORGES SUR BAULCHE",89000,,,nan
TONNERRE,"10, rue Vaucorbe, nan, TONNERRE",89700,,,nan
RAVIERES,"16, rue Saint Roch, nan, RAVIERES",89390,,,nan
LE CREUSOT SCHNEIDER,"5, pl Schneider, nan, LE CREUSOT",71200,,,nan
POUILLY EN AUXOIS,"4, rue de la République, nan, POUILLY EN AUXOIS",21320,,,nan
CLAMECY,"7, Avenue de la République, nan, CLAMECY",58500,,,nan
COSNE COURS SUR LOIRE,"20, rue du Général de Gaulle, nan, COSNE COURS SUR LOIRE",58200,,,nan
DIGOIN,"2, rue Basse, nan, DIGOIN",71160,,,nan
VARENNES VAUZELLES,"43 ter, bd Camille Dagonneau, nan, VARENNES VAUZELLES",58640,,,nan
SAULIEU,"2, rue du Marché, nan, SAULIEU",21210,,,nan
MONTCEAU LES MINES,"13, quai du Général De Gaulle, nan, MONTCEAU LES MINES",71300,,,nan
MONETEAU,"6, rue de Seignelay, nan, MONETEAU",89470,,,nan
CHARNY,"5, rue de la Mothe, nan, CHARNY",89120,,,nan
VILLENEUVE LA GUYARD,"3, Grande Rue, nan, VILLENEUVE LA GUYARD",89340,,,nan
DIJON LIBERTE,"44, rue du Bourg, nan, DIJON",21000,,,nan
CHAROLLES,"3, rue de Champagny, nan, CHAROLLES",71120,,,nan
CRISSEY,"85, rue Principale, nan, CRISSEY",71530,,,nan
PLATEAU D'HAUTEVILLE,"51, rue Masonod, nan, PLATEAU D'HAUTEVILLE",01110,,,nan
SENS VICTOR GUICHARD,"80, rue Victor Guichard, nan, SENS",89100,,,nan
BORDEAUX JUDAIQUE,"2, Avenue de la république, nan, BORDEAUX",33200,,,nan
HAGETMAU,"30, avenue du Docteur Edouard Castera, nan, HAGETMAU",40700,,,nan
BAYONNE ST ESPRIT,"6, bd Alsace et Lorraine, nan, BAYONNE",64100,,,nan
BIARRITZ,"10, rue Mazagran, nan, BIARRITZ",64200,,,nan
ANGLET,"Résidence Bernain, Pl de la République, ANGLET",64600,,,nan
SOUSTONS,"16, rue Emile Nougaro, nan, SOUSTONS",40140,,,nan
PAU,"12 bis, rue Latapie, nan, PAU",64003,,,nan
PAU LARTIGUE,"248, Avenue Jean Mermoz, nan, PAU",64000,,,nan
LONS,"Bd du Général de Gaulle, RN 117, LONS",64140,,,nan
MONT DE MARSAN FOCH,"740, Avenue du Maréchal Foch, nan, MONT DE MARSAN",40000,,,nan
LANGON,"12, pl Kennedy, nan, LANGON",33210,,,nan
MERIGNAC CENTRE,"466, Avenue de Verdun, nan, MERIGNAC",33700,,,nan
OLORON STE MARIE,"30, bld des Pyrénées, Quartier Pondeilh, OLORON STE MARIE",64400,,,nan
TARNOS,"27, bd Jacques Duclos, nan, TARNOS",40220,,,nan
GUJAN MESTRAS,"4, cours de Verdun, nan, GUJAN MESTRAS",33470,,,nan
LESPARRE MEDOC,"1, cours Georges Mandel, nan, LESPARRE MEDOC",33340,,,nan
CAMBO LES BAINS,"Allée Anne de Neubourg, nan, CAMBO LES BAINS",64250,,,nan
ANDERNOS,"155, bd de la République, nan, ANDERNOS",33510,,,nan
LE HAILLAN,"Résidence Les Météores, Pl François Mitterrand, LE HAILLAN",33185,,,nan
ST LOUBES,"70, Avenue de la République, nan, ST LOUBES",33450,,,nan
ORTHEZ,"Pl de la Poustelle, nan, ORTHEZ",64300,,,nan
EYSINES GRAND LOUIS,"67, Avenue de Saint Médard, nan, EYSINES",33320,,,nan
LIBOURNE DE GAULLE,"103, Avenue du Général de Gaulle, nan, LIBOURNE",33500,,,nan
COUTRAS,"6, pl du Château, nan, COUTRAS",33230,,,nan
AMBARES ET LAGRAVE,"22, rue du Président Coty, nan, AMBARES ET LAGRAVE",33440,,,nan
SARLAT LA CANEDA SUD,"1201, Avenue Simone Veil, nan, SARLAT LA CANEDA",24200,,,nan
CADILLAC,"5, place René Gérard, nan, CADILLAC SUR GARONNE",33410,,,nan
AUDENGE,"18 ter, allée Ernest de Boissière, nan, AUDENGE",33980,,,nan
ST VINCENT DE TYROSSE,"53, Avenue Nationale, nan, ST VINCENT DE TYROSSE",40230,,,nan
FLOIRAC,"5, Avenue du Président François Mitterand, nan, FLOIRAC",33270,,,nan
PAREMPUYRE,"4, espace François Mitterand, nan, PAREMPUYRE",33290,,,nan
MORCENX,"2, pl Aristide Briand, nan, MORCENX",40110,,,nan
COGNAC,"17, pl Jean Monnet, nan, COGNAC",16100,,,nan
ANGOULEME,"13, Avenue du Général de Gaulle, nan, ANGOULEME",16000,,,nan
LA COURONNE,"2 Impasse La Chapelle de Prade, nan, LA COURONNE",16400,,,nan
BRIVE LA GAILLARDE,"2, Avenue du Président Roosevelt, nan, BRIVE LA GAILLARDE",19100,,,nan
SARLAT LA CANEDA,"1, rue de la République, nan, SARLAT LA CANEDA",24200,,,nan
MALEMORT,"30, Avenue Pierre et Marie Curie, nan, MALEMORT",19360,,,nan
BRIVE LA GAILLARDE OUEST,"Ave Jean-Charles Rivet, nan, BRIVE LA GAILLARDE",19100,,,nan
COUZEIX,"41, Avenue de Limoges, nan, COUZEIX",87270,,,nan
LIMOGES PREFECTURE,"30, bd Carnot, nan, LIMOGES",87000,,,nan
LIMOGES CARNOT MARCEAU,"103, rue Théodore Bac, nan, LIMOGES",87100,,,nan
MONTPON MENESTEROL,"Pl Georges Clemenceau, nan, MONTPON MENESTEROL",24700,,,nan
MUSSIDAN,"7, rue Emile Bazillou, nan, MUSSIDAN",24400,,,nan
TRELISSAC,"202, Avenue Michel Grandou, nan, TRELISSAC",24750,,,nan
MONTIGNAC,"30, Avenue du 4 Septembre, nan, MONTIGNAC",24290,,,nan
NONTRON,"2, Avenue Jules Ferry, nan, NONTRON",24300,,,nan
NIORT,"10, Avenue Bujault, nan, NIORT",79000,,,nan
SAINTES,"35, cours National, nan, SAINTES",17100,,,nan
NIORT SUPER NIORT,"Ctre Cial, Rue Pierre, NIORT",79000,,,nan
ST MAIXENT L'ECOLE,"16, pl du Marché, nan, ST MAIXENT L'ECOLE",79400,,,nan
ST PIERRE D'OLERON,"5, rue du Général de Gaulle, nan, ST PIERRE D'OLERON",17310,,,nan
CERIZAY,"17, Avenue du 25 Août, nan, CERIZAY",79140,,,nan
MATHA,"14, pl Samson, nan, MATHA",17160,,,nan
MONTGUYON,"20, Avenue de la République, nan, MONTGUYON",17270,,,nan
GENCAY,"2, rte de Civray, nan, GENCAY",86160,,,nan
NIORT ENT 79,"358, route d'Aiffres, nan, NIORT",79000,,,nan
CHATELAILLON PLAGE,"8, bd de la Libération, nan, CHATELAILLON PLAGE",17340,,,nan
POMPADOUR,"14, Avenue du Midi, nan, POMPADOUR",19230,,,nan
LE CHATEAU,"18, bd Thiers, nan, LE CHATEAU D'OLERON",17480,,,nan
ST MARTIN DE RE,"Route de la Flotte, nan, SAINT-MARTIN DE RE",17410,,,nan
ST CIERS SUR GIRONDE,"98 AVENUE DE LA REPUBLIQUE, nan, ST CIERS SUR GIRONDE",33820,,,nan
BORDEAUX NANSOUTY,"295, COURS DE LA SOMME, nan, BORDEAUX",33800,,,nan
MONTENDRE,"5, RUE DES BROUILLAUDS, nan, MONTENDRE",17130,,,nan
SAUVETERRE DE GUYENNE,"21, PLACE DE LA REPUBLIQUE, nan, SAUVETERRE DE GUYENNE",33540,,,nan
ST EMILION,"3 BIS, PLACE MARCADIEU, nan, ST EMILION",33330,,,nan
VERGT,"46, GRAND RUE, nan, VERGT",24380,,,nan
LE QUESNOY,"Ctre Cial Intermarché, Rte de Valenciennes, LE QUESNOY",59530,,,nan
COMINES,"35, rue d'Hurlupin, nan, COMINES",59560,,,nan
ANNOEULLIN,"13, pl du Général de Gaulle, nan, ANNOEULLIN",59112,,,nan
BONDUES,"494, Avenue du Général de Gaulle, nan, BONDUES",59910,,,nan
LA BASSEE,"2, Avenue Jean-Baptiste Lebas, nan, LA BASSEE",59480,,,nan
SAINT SAULVE,"137, rue Jean Jaurès, nan, SAINT SAULVE",59880,,,nan
PONT A MARCQ,"114, rue Nationale, nan, PONT A MARCQ",59710,,,nan
ETAPLES CREDIT MARITIME,"5, bd Impératrice, nan, ETAPLES",62630,,,nan
LE CROTOY CREDIT MARITIME,"28, rue de la Porte du Pont, nan, LE CROTOY",80550,,,nan
CAMBRAI FAUBOURG DU CATEAU,"2, Avenue Victor Hugo, nan, CAMBRAI",59400,,,nan
DUNKERQUE ROSENDAEL,"4-6, rue Paul Marchy, nan, DUNKERQUE",59240,,,nan
SAINT POL SUR TERNOISE,"2, rue du Général de Gaulle, nan, ST POL SUR TERNOISE",62130,,,nan
SAINT MARTIN BOULOGNE,"2 et 4, rte de Desvres, nan, ST MARTIN BOULOGNE",62200,,,nan
VILLENEUVE D'ASCQ COUSINERIE,"26, chemin des Crieurs, nan, VILLENEUVE D'ASCQ",59650,,,nan
HARNES,"39, rue des Fusillés, nan, HARNES",62440,,,nan
CHAUNY,"7, rue de la République, nan, CHAUNY",02300,,,nan
WASQUEHAL,"12, pl Mendès France, nan, WASQUEHAL",59290,,,nan
AVESNES SUR HELPE,"22, pl du Général Leclerc, nan, AVESNES SUR HELPE",59440,,,nan
MAUBEUGE,"1, Avenue Albert 1er, nan, MAUBEUGE",59600,,,nan
ROUBAIX,"Angle du 47 bis, bd du Général Leclerc, et rue P Motte, ROUBAIX",59100,,,nan
CROIX GARE,"3, rue de la Gare, nan, CROIX",59170,,,nan
LAMBERSART,"344, Avenue de Dunkerque, nan, LAMBERSART",59130,,,nan
LAON,"3, rue Roger Salengro, nan, LAON",02000,,,nan
LENS,"14, rue René Lanoy, nan, LENS",62300,,,nan
MARCQ EN BAROEUL CROISE,"1027 ter, Avenue de la République, nan, MARCQ EN BAROEUL",59700,,,nan
BETHUNE,"25, Grand Place, nan, BETHUNE",62400,,,nan
DUNKERQUE,"32, pl Jean Bart, nan, DUNKERQUE",59140,,,nan
FACHES THUMESNIL,"Ctre Cial Auchan, nan, FACHES THUMESNIL",59155,,,nan
DOUAI,"235, rue de Canteleu, nan, DOUAI",59500,,,nan
LILLE FAUBOURG D'ARRAS,"12-22, rue du Faubourg d'Arras, nan, LILLE",59000,,,nan
CALAIS,"2, bd Lafayette, nan, CALAIS",62100,,,nan
BRUAY LA BUISSIERE,"68, Avenue de la République, nan, BRUAY LA BUISSIERE",62701,,,nan
ST OMER,"21, pl Bonhomme, nan, ST OMER",62500,,,nan
LIEVIN,"123, rue J-B Defernez, nan, LIEVIN",62800,,,nan
AVION,"108, bd Gabriel Péri, nan, AVION",62210,,,nan
LILLERS,"10, Avenue de Verdun, nan, LILLERS",62190,,,nan
ST ANDRE,"143, rue du Maréchal Leclerc, nan, ST ANDRE",59350,,,nan
AMIENS HENRIVILLE,"70, bd Pasteur, nan, AMIENS",80000,,,nan
SECLIN,"Rond point Nord, Rte de Lille, SECLIN",59113,,,nan
TOURCOING BRUN PAIN,"313, chaussée Denis Papin, nan, TOURCOING",59200,,,nan
ST QUENTIN GARE,"19, pl du 8 Octobre, nan, ST QUENTIN",02100,,,nan
ST NAZAIRE PRESQU''ILE BANQUE PRIVEE CM,"1bis Chemin Vert, nan, SAINT NAZAIRE",44600,,,Crédit Maritime Grand Ouest
PLERIN ARMOR BANQUE PRIVEE,"1, rue des Mimosas, nan, PLERIN",22190,,,nan
CHEMILLE-EN-ANJOU,"1, rue Aristide Briand, Z.A. des Trois routes, CHEMILLE-EN-ANJOU",49120,,,nan
ST NAZAIRE PROFESSIONNELS,"1bis, Chemin Vert, nan, SAINT NAZAIRE",44600,,,nan
Agence Professionnels LAVAL,"12, allée de Cambrai, nan, LAVAL",53000,,,nan
NANTES CENTRE PRO,"1, rue de Feltre, nan, NANTES",44000,,,nan
AGENCE PROFESSIONNELS LE MANS,"29, place des Comtes du Maine, nan, LE MANS",72000,,,nan
LA ROCHE SUR YON PROF.,"1, place de la Vendeée, nan, LA ROCHE SUR YON",85000,,,nan
AURAY REPUBLIQUE,"47, pl de la République, nan, AURAY",56400,,,nan
PONTIVY,"75, Avenue du Général de Gaulle, nan, PONTIVY",56300,,,nan
PLOERMEL,"36, Place de l'Hotel de Ville, nan, PLOERMEL",56800,,,nan
PORT LOUIS,"Rue de la Résistance, nan, PORT LOUIS",56290,,,nan
LES SABLES D''OLONNE PROFESSIONNELS,"3, rue Octave Voyer, nan, LES SABLES D''OLONNE",85100,,,nan
NANTES EMILE ZOLA,"4, bd de la Fraternité, nan, NANTES",44100,,,nan
ST NAZAIRE CENTRE,"86, rue Albert de Mun, nan, ST NAZAIRE",44600,,,nan
OCEAN BANQUE PRIVEE,"12 et 14, rue du Sous-Marin Vénus, nan, LORIENT",56100,,,Crédit Maritime Grand Ouest
PONT L'ABBE,"4, rue Jean Jaures, nan, PONT L'ABBE",29120,,,nan
ST BREVIN LES PINS,"3, rue Albert Chassagne, nan, ST BREVIN LES PINS",44250,,,nan
NANTES ROND POINT RENNES,"6, bd Lelasseur, nan, NANTES",44000,,,nan
ST SEBASTIEN SUR LOIRE,"9, rue Maurice Daniel, nan, ST SEBASTIEN SUR LOIRE",44230,,,nan
PONTCHATEAU,"1, rue du Bouffay, nan, PONTCHATEAU",44160,,,nan
NORT SUR ERDRE,"5, rue du Général Leclerc, nan, NORT SUR ERDRE",44390,,,nan
MACHECOUL,"10, pl des Halles, nan, MACHECOUL",44270,,,nan
PORNIC CENTRE,"2, rue du Maréchal Foch, nan, PORNIC",44210,,,nan
VANNES OCEANE,"60, Avenue Paul Cezanne, nan, VANNES",56000,,,nan
CHATEAULIN,"20, quai Carnot, nan, CHATEAULIN",29150,,,nan
STE LUCE SUR LOIRE,"2, rue du Maréchal de Lattre de Tassigny, nan, STE LUCE SUR LOIRE",44980,,,nan
QUEVEN,"22, place de Toulouse, nan, QUEVEN",56530,,,nan
VANNES VINCIN,"74, rue du Vincin, nan, VANNES",56000,,,nan
GUERANDE,"2, pl du Marhallé, nan, GUERANDE",44350,,,nan
SARZEAU,"16, rue du Général de Gaulle, nan, SARZEAU",56370,,,nan
LA BAULE CENTRE,"6, Avenue Jean de Neyman, nan, LA BAULE",44500,,,nan
NANTES ST PIERRE,"2, pl Saint Pierre, nan, NANTES",44000,,,nan
HERBIGNAC,"26, bd de la Brière, nan, HERBIGNAC",44410,,,nan
VERTOU,"Pl du Beau Verger, nan, VERTOU",44120,,,nan
ST PHILBERT DE GRAND LIEU,"18, rue de l'Hôtel de Ville, nan, ST PHILBERT DE GRAND LIEU",44310,,,nan
ST JULIEN DE CONCELLES,"2, rue du Stade, nan, ST JULIEN DE CONCELLES",44450,,,nan
BOUAYE,"66 rue de Nantes, nan, BOUAYE",44830,,,nan
PORNICHET,"160, Avenue du Général de Gaulle, nan, PORNICHET",44380,,,nan
AGENCE ENTREPRISES NANTES OUEST,"2, rue Françoise Sagan, nan, NANTES CEDEX 9",44934,,,nan
OCEAN BANQUE PRIVEE,"12 et 14, rue du Sous-Marin Vénus, nan, LORIENT",56100,,,nan
ANGERS FOCH,"7, bd du Maréchal Foch, nan, ANGERS",49100,,,nan
CHOLET GAMBETTA,"14-20, Avenue Gambetta, nan, CHOLET",49300,,,nan
LA ROCHE SUR YON LAFAYETTE,"11, rue Lafayette, nan, LA ROCHE SUR YON",85000,,,nan
LONGUE JUMELLES,"8, place de la Mairie, nan, LONGUE JUMELLES",49160,,,nan
LES SABLES D'OLONNE LE PORT,"8, quai Franqueville, nan, LES SABLES D'OLONNE",85100,,,nan
TRELAZE,"11, rue Jean Jaurès, nan, TRELAZE",49800,,,nan
CHALLANS,"11, pl du Général de Gaulle, nan, CHALLANS",85300,,,nan
SEGRE,"8, rue Lazare Carnot, nan, SEGRE",49500,,,nan
LES HERBIERS,"7, rue Nationale, nan, LES HERBIERS",85500,,,nan
ST JEAN DE MONTS,"44, rue du Général de Gaulle, nan, ST JEAN DE MONTS",85160,,,nan
MONTAIGU,"2, carrefour de l'Europe, nan, MONTAIGU",85600,,,nan
CHALONNES SUR LOIRE,"12, pl du Pilori, nan, CHALONNES SUR LOIRE",49290,,,nan
AVRILLE,"207, Avenue Pierre Mendès France, nan, AVRILLE",49240,,,nan
CHOLET PLESSIS,"4, rue Roger Hostein, nan, CHOLET",49300,,,nan
BEAUPREAU,"5, pl du Maréchal Leclerc, nan, BEAUPREAU",49600,,,nan
LA ROCHE SUR YON POINT DU JOUR,"Résidence Fleur d'Epée, Pl Le Point du Jour, LA ROCHE SUR YON",85000,,,nan
LES SABLES D'OLONNE,"57, Avenue François Mitterand, nan, LES SABLES D'OLONNE",85340,,,nan
LES ESSARTS,"34, rue des Sables, nan, LES ESSARTS",85140,,,nan
MURS ERIGNE,"7, rue Aimé de Soland, nan, MURS ERIGNE",49610,,,nan
MOUILLERON LE CAPTIF VENDEE AGRI,"91, rue Jacques-Yves Cousteau, nan, MOUILLERON LE CAPTIF",85000,,,nan
ANGERS ANJOU BANQUE PRIVEE,"41, rue du Nid de Pie, nan, ANGERS",49001,,,nan
BEAUVOIR SUR MER,"14 ter, Grand Place, nan, BEAUVOIR SUR MER",85230,,,nan
NOIRMOUTIER,"22, rue de la Prée au Duc, nan, NOIRMOUTIER",85330,,,nan
L''AIGUILLON SUR MER,"place du Docteur Giraudet, nan, L''AIGUILLON SUR MER",85460,,,nan
HERMINE BANQUE PRIVEE,"15, boulevard de la Boutière, nan, SAINT GREGOIRE",35768,,,nan
SAINT LO MANCHE BANQUE PRIVEE,"330, rue Alexis de Tocqueville, nan, SAINT LO",50000,,,nan
AGENCE PROF BAIE DE SAINT-BRIEUC,"1, rue Jules Verne - Cellule A, nan, LANGUEUX",22360,,,nan
ORNE BANQUE PRIVEE,"27, rue du Jeudi, nan, ALENCON",61000,,,nan
OLONNE SUR MER,"57, Avenue François Mitterand, nan, OLONNE SUR MER",85340,,,Crédit Maritime Grand Ouest
SARTHE BANQUE PRIVEE,"25, Boulevard Louis Le Prince Ringuet, Bâtiment OXXO, LE MANS",72000,,,nan
LORIENT KERYADO,"176 rue de Belgique, nan, LORIENT",56100,,,Crédit Maritime Grand Ouest
ST BRIEUC CENTRE,"53 rue Saint Guillaume, nan, SAINT BRIEUC",22000,,,Crédit Maritime Grand Ouest
BELZ CM,"6, rue du Couvent, nan, BELZ",56550,,,Crédit Maritime Grand Ouest
QUIBERON CM,"8 bis, rue du Port Maria, nan, QUIBERON",56170,,,Crédit Maritime Grand Ouest
LORIENT PORT CM,"85, Avenue de la Perrière, nan, LORIENT",56100,,,Crédit Maritime Grand Ouest
PLOUHINEC CMGO,"51, rue du Driasker, nan, PLOUHINEC",56680,,,Crédit Maritime Grand Ouest
ST NAZAIRE CENTRE CM,"86, rue A De Mun, nan, SAINT NAZAIRE",44600,,,Crédit Maritime Grand Ouest
LE CROISIC CM,"19, rue du Traict, nan, LE CROISIC",44490,,,Crédit Maritime Grand Ouest
MUZILLAC CM,"3, pl St Julien, nan, MUZILLAC",56190,,,Crédit Maritime Grand Ouest
AGENCE ENTREPRISES LES SABLES,"3, rue Octave Voyer, nan, LES SABLES D'OLONNE",85100,,,Crédit Maritime Grand Ouest
NOIRMOUTIER CM,"22, rue de la Prée-aux-Ducs, nan, NOIRMOUTIER EN L'ILE",85330,,,Crédit Maritime Grand Ouest
CHALLANS CM,"11, place Charles De Gaulle, nan, CHALLANS",85300,,,Crédit Maritime Grand Ouest
PORT EN BESSIN CM,"12, Avenue de Gaulle, nan, PORT EN BESSIN",14520,,,Crédit Maritime Grand Ouest
AGENCE ENTREPRISES MANCHE,"330, rue Alexis De Tocqueville, nan, SAINT LO",50000,,,Crédit Maritime Grand Ouest
LANNION CMGO,"13, Quai d'Aiguillon, nan, LANNION",22300,,,Crédit Maritime Grand Ouest
AGENCE ENTREPRISES ST MALO,"33, Boulevard de la République, nan, SAINT MALO",35400,,,Crédit Maritime Grand Ouest
VANNES VINCIN,"74, rue du Vincin, nan, VANNES",56000,,,Crédit Maritime Grand Ouest
LE GUILVINEC,"1, rue de la Marine, nan, GUILVINEC",29730,,,Crédit Maritime Grand Ouest
PLOBANNALEC - LESCONIL CM,"Terre plein du Port, nan, PLOBANNALEC",29740,,,Crédit Maritime Grand Ouest
RENNES TRINITE,"5, pl de la Trinité, nan, RENNES",35000,,,nan
BAIN DE BRETAGNE,"8, pl Henri IV, nan, BAIN DE BRETAGNE",35470,,,nan
RENNES OCTROI,"122, rue de Fougères, nan, RENNES",35700,,,nan
ST LO,"12, rue de Neufbourg, nan, ST LO",50000,,,nan
PLOUGUERNEAU,"13, rue du Verger, nan, PLOUGUERNEAU",29880,,,nan
CHERBOURG OCTEVILLE,"29, rue de Lorraine, nan, CHERBOURG",50100,,,nan
VALOGNES,"1, bd Leclerc, nan, VALOGNES",50700,,,nan
EVRON,"4, pl de la Basilique, nan, EVRON",53600,,,nan
MAYENNE,"18, quai Devizes, nan, MAYENNE",53100,,,nan
ARGENTAN,"5, place de Lattre de Tassigny, nan, ARGENTAN",61200,,,nan
FLERS,"22, pl Paulette Duhalde, nan, FLERS",61100,,,nan
LA FERTE BERNARD,"9, rue Robert Garnier, nan, LA FERTE BERNARD",72400,,,nan
MAMERS,"53, pl Carnot, nan, MAMERS",72600,,,nan
SILLE LE GUILLAUME,"Pl de l'Hôtel de Ville, nan, SILLE LE GUILLAUME",72140,,,nan
RENNES ALMA,"Ctre Cial Alma City, Rue du Bosphore, RENNES",35200,,,nan
CESSON SEVIGNE,"5 bis, mail de Bourgchevreuil, nan, CESSON SEVIGNE",35510,,,nan
COMBOURG,"3, pl Saint Gilduin, nan, COMBOURG",35270,,,nan
MAEN ROCH,"2, rue de Fougères, nan, MAEN ROCH",35460,,,nan
BRICQUEBEC,"2, rue Armand Le Véel, nan, BRICQUEBEC",50260,,,nan
CHERBOURG COTENTIN EQUEURDREVILLE,"34, rue de la Paix, nan, CHERBOURG EN COTENTIN",50120,,,nan
LIFFRE,"34, rue de Fougères, nan, LIFFRE",35340,,,nan
JANZE,"20, rue Aristide Briand, nan, JANZE",35150,,,nan
MORDELLES,"10, pl Saint Pierre, nan, MORDELLES",35310,,,nan
MORTAGNE AU PERCHE,"6, pl de la République, nan, MORTAGNE AU PERCHE",61400,,,nan
AGENCE ENTREPRISES BREST,"430, rue Augustin Jacq, nan, BREST",29200,,,nan
TREBOUL,"6, rue Edouard Branly, ZA de Toubalan, DOUARNENEZ",29100,,,nan
AGENCE ENTREPRISES RENNES EST,"15, boulevard de la Boutière, nan, SAINT-GREGOIRE",35768,,,nan
LESCONIL,"Terre-Plein du Port, nan, LESCONIL",29740,,,nan
AGENCE AGRICULTURE SARTHE,"25, Boulevard Louis Le Prince Ringuet, Bâtiment OXXO, LE MANS",72000,,,nan
BREST AGRI FINISTERE,"430, rue Augustin Jacq, nan, BREST",29200,,,nan
ST BERTHEVIN,"10, rue Flandres Dunkerque, nan, ST BERTHEVIN",53940,,,nan
LORIENT PORT,"85 avenue de la Perrière, nan, LORIENT",56100,,,nan
DINAN,"14, rue Thiers, nan, DINAN",22100,,,nan
GUINGAMP,"24, rue Saint Nicolas, nan, GUINGAMP",22200,,,nan
MORLAIX,"2, pl du Dossen, nan, MORLAIX",29600,,,nan
LOUDEAC,"1, Avenue des Combattants, nan, LOUDEAC",22600,,,nan
LANDERNEAU,"9, rue de la Tour d'Auvergne, nan, LANDERNEAU",29800,,,nan
LAMBALLE,"3, rue Bario, nan, LAMBALLE",22400,,,nan
PLANCOET,"43-45, rue du Pont, nan, PLANCOET",22130,,,nan
BREST ST PIERRE,"1bis, rue Emile Rousse, nan, BREST",29200,,,nan
PERROS GUIREC,"28 bis, rue du Général Leclerc, nan, PERROS GUIREC",22700,,,nan
LANGUEUX,"1, rue Jules Verne, nan, LANGUEUX",22360,,,nan
QUIMPER GARE,"27 bis avenue de la Gare, nan, QUIMPER",29000,,,Crédit Maritime Grand Ouest
ST MALO PARAME,"13 rue Robert Schuman, nan, SAINT MALO",35400,,,Crédit Maritime Grand Ouest
ST NAZAIRE POINT DU JOUR,"1 BIS Chemin Vert, nan, SAINT NAZAIRE",44600,,,Crédit Maritime Grand Ouest
ST NAZAIRE PROFESSIONNELS,"1 BIS Chemin Vert, nan, SAINT NAZAIRE",44600,,,Crédit Maritime Grand Ouest
PORNIC EUROPE,"rue du Traité de Rome, nan, PORNIC",44210,,,Crédit Maritime Grand Ouest
PORNICHET,"160, avenue du Général de Gaulle, nan, PORNICHET",44380,,,Crédit Maritime Grand Ouest
ST BREVIN LES PINS,"3, rue Albert Chassagne, nan, SAINT BREVIN LES PINS",44250,,,Crédit Maritime Grand Ouest
ST NAZAIRE OCEANE,"5, Place Pierre Bourdan, nan, SAINT NAZAIRE",44600,,,Crédit Maritime Grand Ouest
TOURLAVILLE,"10, rue des Herbages, nan, TOURLAVILLE",50110,,,Crédit Maritime Grand Ouest
EQUEURDREVILLE,"34, rue de la Paix, nan, EQUEURDREVILLE",50120,,,Crédit Maritime Grand Ouest
COUTANCES,"1, rue Tancrède, nan, COUTANCES",50200,,,Crédit Maritime Grand Ouest
AVIGNON ST LAZARE,"2, rte de Lyon, nan, AVIGNON",84000,,,nan
MARSEILLE MAZARGUES,"5, rue Emile Zola, nan, MARSEILLE",13009,,,nan
MARSEILLE CORDERIE,"30, rue d'Endoume, nan, MARSEILLE",13007,,,nan
AUBAGNE PALUDS,"100, Impasse des Martinets, Route de Gémenos, AUBAGNE",13400,,,nan
MARSEILLE ST BARNABE,"8, pl Caire, nan, MARSEILLE",13012,,,nan
AIX EN PROVENCE PASTEUR,"1, Avenue Pasteur, nan, AIX EN PROVENCE",13100,,,nan
LES ANGLES DE GAULLE,"30 place Cerealis, nan, LES ANGLES",30133,,,nan
ARLES,"8, bd des Lices, nan, ARLES",13200,,,nan
AIX EN PROVENCE REPUBLIQUE,"14, bd de la République, nan, AIX EN PROVENCE",13100,,,nan
FURIANI,"Rond Point de Furiani, Lido de la Marana - Saint Pancrace, FURIANI",20600,,,nan
MARSEILLE PRADO,"247, avenue du Prado, CS 90025, MARSEILLE CDEX 08",13008,,,nan
MARSEILLE VIEUX PORT,"12, La Canebière, nan, MARSEILLE",13001,,,nan
MARSEILLE EUROMEDITERRANEE,"2-4, place d'Arvieux, nan, MARSEILLE",13002,,,nan
SALON DE PROVENCE REPUBLIQUE,"38, bd de la République, nan, SALON DE PROVENCE",13300,,,nan
PORTO VECCHIO,"Ctre Cial Les 4 Portes, Bat. A, PORTO VECCHIO",20137,,,nan
MARSEILLE ST LOUP,"173, Boulevard de Pont de Vivaux, Immeuble Osmoz, MARSEILLE",13010,,,nan
MARSEILLE ST LOUIS,"138, avenue de Saint Louis, nan, MARSEILLE",13015,,,nan
ILE ROUSSE,"Place Marcel Delaunay, nan, ILE ROUSSE",20220,,,nan
AJACCIO IMPERIAL,"17, cours Jean Nicoli, nan, AJACCIO",20090,,,nan
SAINT SAVOURNIN,"24, allée Lucien Coeuillet, Centre Commercial de l'Adrech, SAINT SAVOURNIN",13119,,,nan
CORTE,"20, allée du 9 Septembre, nan, CORTE",20250,,,nan
MENTON,"31, Avenue Félix Faure, nan, MENTON",06500,,,nan
GOLFE JUAN,"36, Avenue de la Gare, nan, GOLFE JUAN",06220,,,nan
VILLEFRANCHE SUR MER,"12, Avenue du Maréchal Foch, nan, VILLEFRANCHE SUR MER",06230,,,nan
NICE CALIFORNIE,"244, Avenue de la Californie, nan, NICE",06200,,,nan
CANNES LA BOCCA,"28, avenue Michel Jourdan, nan, CANNES",06150,,,nan
CROS DE CAGNES,"73, promenade de la Plage, nan, CAGNES SUR MER",06800,,,nan
NICE FRANCE,"100, rue de France, nan, NICE",06000,,,nan
ROQUEBRUNE CAP MARTIN,"181, Avenue Aristide Briand, nan, ROQUEBRUNE CAP MARTIN",06190,,,nan
CANNES CARNOT,"10, bd Carnot, nan, CANNES",06400,,,nan
CANNES RUE D'ANTIBES,"141, rue d'Antibes, nan, CANNES",06400,,,nan
NICE MALAUSSENA,"26, avenue Malaussena, nan, NICE",06000,,,nan
SAINTE MAXIME,"3, bd Aristide Briand, nan, SAINTE MAXIME",83120,,,nan
NICE JEAN MEDECIN,"17, avenue Jean Médecin, nan, NICE",06000,,,nan
MOUANS SARTOUX,"459, avenue de Cannes, nan, MOUANS SARTOUX",06370,,,nan
ST LAURENT DU VAR CAP 3000,"Ctre Cial Régional CAP 3000, Quartier du Lac, ST LAURENT DU VAR",06700,,,nan
LA GARDE,"74, avenue Marx Dormoy, nan, LA GARDE",83130,,,nan
SIX FOURS LES PLAGES,"98 bis, rue de la République, nan, SIX FOURS LES PLAGES",83140,,,nan
SAINT RAPHAEL,"71, avenue Victor Hugo, nan, SAINT RAPHAEL",83700,,,nan
FREJUS AGRICOLA,"50, pl Agricola, nan, FREJUS",83600,,,nan
HYERES PALMIERS,"26, avenue Gambetta, nan, HYERES",83400,,,nan
OLLIOULES,"762, avenue Jean Monnet, Espace Portman, OLLIOULES",83190,,,nan
VIDAUBAN,"95, avenue du Président Wilson, nan, VIDAUBAN",83550,,,nan
GRASSE 4 CHEMINS,"Carrefour des 4 Chemins, Bd Marcel Pagnol, GRASSE",06130,,,nan
LE MUY,"338, bd de la Libération, nan, LE MUY",83490,,,nan
SOLLIES PONT,"3, rue de la République, nan, SOLLIES PONT",83210,,,nan
MONTAUROUX,"Centre Horizon - RD562 -, Le plan Oriental, MONTAUROUX",83440,,,nan
VAISON LA ROMAINE,"44 GRAND RUE, nan, VAISON LA ROMAINE",84110,,,nan
BOLLENE,"7 AVENUE PASTEUR, nan, BOLLENE",84500,,,nan
NIMES JAURES,"71 AVENUE JEAN JAURES, nan, NIMES",30900,,,nan
ROGNONAS,"4 BOULEVARD DE L'ANCIEN MARCHE, nan, ROGNONAS",13870,,,nan
SAINT GILLES,"75 RUE GAMBETTA, nan, SAINT GILLES",30800,,,nan
AVIGNON AGROPARC,"1060, route de l'Aerodrome-Zone AGROPARC, Res. l'Esplanade Bat B, MONTFAVET",84140,,,nan
SAINT REMY,"8 AVENUE FREDERIC MISTRAL, nan, SAINT REMY DE PROVENCE",13210,,,nan
LAMBESC,"3 AVENUE DU 11 NOVEMBRE 1918, nan, LAMBESC",13410,,,nan
PELTRE MERCY,"8, rue du Jardin d'Ecosse, nan, PELTRE",57245,,,nan
CHATEAU SALINS,"19, rue Dufays, nan, CHATEAU SALINS",57170,,,nan
CREUTZWALD,"8, pl du Marché, nan, CREUTZWALD",57150,,,nan
FORBACH,"47, rue Nationale, nan, FORBACH",57601,,,nan
SARREBOURG,"32-34, Grand'rue, nan, SARREBOURG",57400,,,nan
ROMBAS,"3, pl de l'Hôtel de Ville, nan, ROMBAS",57120,,,nan
NANCY ST JEAN,"57, rue Saint Jean, nan, NANCY",54000,,,nan
STIRING WENDEL,"36, rue Saint François, nan, STIRING WENDEL",57350,,,nan
METZ SABLON,"80, rue Saint Pierre, nan, METZ",57000,,,nan
NANCY HAUSSONVILLE,"55, bd d'Haussonville, nan, NANCY",54000,,,nan
MONTIGNY LES METZ BOTANIQUE,"19, rue de Pont à Mousson, nan, MONTIGNY LES METZ",57150,,,nan
HAGONDANGE,"16, rue Anatole France, nan, HAGONDANGE",57300,,,nan
TOUL,"12, rue de la République, nan, TOUL",54200,,,nan
ESSEY LES NANCY,"Villa Andesina, Rue du 11 Novembre 1918, ESSEY LES NANCY",54270,,,nan
FAMECK,"6, pl du Marché, nan, FAMECK",57290,,,nan
LIGNY EN BARROIS,"13, rue Leroux, nan, LIGNY EN BARROIS",55500,,,nan
HETTANGE GRANDE,"51, rue du Général Patton, nan, HETTANGE GRANDE",57330,,,nan
EPINAL,"38, rue Léopold Bourg, nan, EPINAL",88000,,,nan
VAGNEY,"5, rue René Demangeon, nan, VAGNEY",88120,,,nan
NEUFCHATEAU,"2, rue de France, nan, NEUFCHATEAU",88300,,,nan
MIRECOURT,"5, rue du Général Leclerc, nan, MIRECOURT",88501,,,nan
GOLBEY,"62, rte d'Epinal, nan, GOLBEY",88190,,,nan
ST MIHIEL,"12, rue de Nantes, nan, ST MIHIEL",55300,,,nan
RAON L'ETAPE,"22, rue Jules Ferry, nan, RAON L'ETAPE",88110,,,nan
CHALIGNY,"2, place des Tricoteries, nan, CHALIGNY",54230,,,nan
METZ GARE,"4, place de Gaulle, nan, METZ",57000,,,nan
TROYES LIBERATION,"16, place de la Libération, nan, TROYES",10001,,,nan
CAPAVENIR VOSGES,"5, rue de Lorraine, nan, THAON LES VOSGES",88150,,,nan
BAR SUR AUBE,"3-5, rue d'Aube, nan, BAR SUR AUBE",10200,,,nan
NOGENT SUR SEINE,"11, rue Saint Epoing, nan, NOGENT SUR SEINE",10400,,,nan
SAINT PARRES AUX TERTRES,"61 bis, Avenue de Gaulle, nan, ST PARRES AUX TERTRES",10410,,,nan
CHAUMONT,"7, rue Victor Fourcault, nan, CHAUMONT",52000,,,nan
REIMS CLAIRMARAIS,"13/17, rue André Pingat, nan, REIMS",51100,,,nan
CENTRE AFFAIRES AGRI-VITI MARNE COTEAUX,"9, rue de Chalons, nan, BLANCS COTEAUX",51130,,,nan
VITRY LE FRANCOIS,"42, rue de la Tour, nan, VITRY LE FRANCOIS",51300,,,nan
BRIENNE LE CHATEAU,"92 bis, rue de l'Ecole Militaire, nan, BRIENNE LE CHATEAU",10500,,,nan
TROYES SARRAIL,"199 bis, Avenue du Général Leclerc, nan, TROYES",10000,,,nan
JOINVILLE,"10-12, rue Aristide Briand, nan, JOINVILLE",52300,,,nan
TINQUEUX,"Ctre Cial Carrefour, nan, TINQUEUX",51430,,,nan
BLANCS COTEAUX VERTUS,"9, rue de Chalons, nan, BLANCS COTEAUX",51130,,,nan
ST ANDRE LES VERGERS,"Ctre Cial Carrefour, Ave Charles de Refuge, ST ANDRE LES VERGERS",10120,,,nan
REIMS LANGLET,"20, cours Langlet, nan, REIMS",51100,,,nan
NANCY BQ PRIVEE,"2, rue Hermite, nan, NANCY",54000,,,nan
TROYES BQ PRIVEE,"16, place de la Libération, nan, TROYES",10000,,,nan
COLMAR BQ PRIVEE,"8, rue des Potiers, nan, COLMAR",68000,,,nan
STRASBOURG,"10, rue des Francs Bourgeois, nan, STRASBOURG",67000,,,nan
STRASBOURG NEUDORF,"88, rte du Polygone, nan, STRASBOURG",67100,,,nan
STRASBOURG ANVERS,"26 A, bd d'Anvers, nan, STRASBOURG",67000,,,nan
STRASBOURG ANCIENNE DOUANE,"1, rue Vieux Marché aux Poissons, nan, STRASBOURG",67000,,,nan
STRASBOURG NEUHOF,"68c, rte d'Altenheim, nan, STRASBOURG",67100,,,nan
STRASBOURG KOENIGSHOFFEN,"96, rte des Romains, nan, STRASBOURG",67200,,,nan
VILLE,"15, rue Louis Pasteur, nan, VILLE",67220,,,nan
BISCHWILLER,"26, rue Raymond Poincaré, nan, BISCHWILLER",67240,,,nan
OBERNAI,"18, rue du Marché, nan, OBERNAI",67210,,,nan
VAL DE MODER,"16, rue du Dr Albert Schweitzer, nan, VAL DE MODER",67350,,,nan
SCHIRMECK,"96, Grand'rue, nan, SCHIRMECK",67130,,,nan
WISSEMBOURG,"35, rue Nationale, nan, WISSEMBOURG",67160,,,nan
MUTZIG,"27, rue du Maréchal Foch, nan, MUTZIG",67190,,,nan
LINGOLSHEIM,"89, rue du Maréchal Foch, nan, LINGOLSHEIM",67380,,,nan
STRASBOURG HALLES,"14, rue Sébastopol, nan, STRASBOURG",67000,,,nan
MARLENHEIM,"52, rue du Général de Gaulle, nan, MARLENHEIM",67520,,,nan
ECKBOLSHEIM,"4, rue Jean Monnet, nan, ECKBOLSHEIM",67200,,,nan
MULHOUSE KENNEDY,"55, Avenue du Président Kennedy, nan, MULHOUSE",68200,,,nan
CERNAY,"10, rue Poincaré, nan, CERNAY",68700,,,nan
DANNEMARIE,"16, rue de Bâle, nan, DANNEMARIE",68210,,,nan
FERRETTE,"2, rue de la 1ere Armée, nan, FERRETTE",68480,,,nan
RIEDISHEIM,"19, rue de Mulhouse, nan, RIEDISHEIM",68400,,,nan
ST AMARIN,"54, rue Charles de Gaulle, nan, ST AMARIN",68550,,,nan
NEUF BRISACH,"12, pl d'Armes, nan, NEUF BRISACH",68600,,,nan
RIBEAUVILLE,"48, Grand'rue, nan, RIBEAUVILLE",68150,,,nan
GUEBWILLER,"53, rue de la République, nan, GUEBWILLER",68500,,,nan
ROUFFACH,"8, rue du Maréchal Joffre, nan, ROUFFACH",68250,,,nan
PERPIGNAN MASSILIA,"Rue Alfred Eisenstaedt, nan, PERPIGNAN",66000,,,nan
GIGNAC,"ZAE La Croix, Avenue Pierre Mendès France, GIGNAC",34150,,,nan
PERPIGNAN CLEMENCEAU,"38, bd Georges Clemenceau, nan, PERPIGNAN",66966,,,nan
PRADES,"20, rue Jean Jaurès, nan, PRADES",66500,,,nan
ST PAUL DE FENOUILLET,"102, Avenue Jean Moulin, nan, ST PAUL DE FENOUILLET",66220,,,nan
FONT ROMEU,"7, Avenue E Brousse, nan, FONT ROMEU",66120,,,nan
RIVESALTES,"7, Avenue Gambetta, nan, RIVESALTES",66600,,,nan
ST LAURENT DE LA SALANQUE,"9, rue Urbain Paret, nan, ST LAURENT DE LA SALANQUE",66250,,,nan
PERPIGNAN ST ASSISCLE,"87, rue Pascal Marie Agasse, nan, PERPIGNAN",66000,,,nan
PERPIGNAN MOULIN A VENT,"4, Avenue Paul Alduy, nan, PERPIGNAN",66000,,,nan
PERPIGNAN ST MARTIN,"17, Avenue Julien Panchot, nan, PERPIGNAN",66000,,,nan
AMELIE LES BAINS,"33, Avenue du Vallespir, nan, AMELIE LES BAINS",66110,,,nan
BANYULS SUR MER,"3, Avenue Général de Gaulle, nan, BANYULS SUR MER",66650,,,nan
CASTELNAUDARY,"33, rue de Dunkerque, nan, CASTELNAUDARY",11400,,,nan
RIEUX MINERVOIS,"6, pl du Général Bousquet, nan, RIEUX MINERVOIS",11160,,,nan
SIGEAN,"73, rte de Narbonne, nan, SIGEAN",11130,,,nan
AX LES THERMES,"9, Avenue Delcassé, nan, AX LES THERMES",09110,,,nan
LE SOLER,"1, Avenue Jean Jaurès, nan, LE SOLER",66270,,,nan
ESTAGEL,"11, Avenue René Nicolau, nan, ESTAGEL",66310,,,nan
ST LAURENT DE CERDANS,"5, rue Joseph Nivet, nan, ST LAURENT DE CERDANS",66260,,,nan
CERBERE,"8, rue Mitjaville, nan, CERBERE",66290,,,nan
LE BARCARES,"Ctre Cial 2000, Bd du Port, LE BARCARES",66420,,,nan
CABESTANY,"Ctre Cial ZAM Las Molimas, nan, CABESTANY",66330,,,nan
CLAIRA,"Espace Roussillon Est - RD 83, Lieu dit San Jaume du Crest, CLAIRA",66530,,,nan
SAILLAGOUSE,"29, Avenue des Comtes de Cerdagne, nan, SAILLAGOUSE",66800,,,nan
LATOUR BAS ELNE,"3, ch du Moulin, nan, LATOUR BAS ELNE",66200,,,nan
PERPIGNAN MAS ROUS,"219 avenue André Tourne, nan, PERPIGNAN",66000,,,nan
UZES,"9, Avenue de la Libération, nan, UZES",30700,,,nan
JACOU,"Ctre Cial Espace de Bocaud, Lieudit La Plaine, JACOU",34830,,,nan
CAISSARGUES,"Ave de la Dame, Zone Euro 2000, CAISSARGUES",30132,,,nan
MONTPELLIER COMEDIE,"11, pl de la Comédie, nan, MONTPELLIER",34000,,,nan
SETE TASSIGNY,"16, quai de Lattre de Tassigny, nan, SETE",34200,,,nan
NIMES PROFESSIONS LIBERALES,"40, boulevard Victor Hugo, Etage, NIMES",30000,,,nan
ST GELY DU FESC,"Ctre Cial - ZAC des Vautes, RD 986, ST GELY DU FESC",34980,,,nan
BPS MONTPELLIER CHATEAU D'Ô,"67, rue DUGAY-TROUIN, nan, MONTPELLIER",34080,,,nan
BPS MONTPELLIER NEOS,"130, rue de la Jasse de Maurin, nan, MONTPELLIER",34070,,,nan
MONTPELLIER NORD,"145, Avenue de la Justice de Castelnau, nan, MONTPELLIER",34090,,,nan
LE GRAU DU ROI,"Port Royal, Ave Dossenheim, LE GRAU DU ROI",30240,,,nan
LA GRANDE MOTTE,"34, rue Frédéric Mistral, nan, LA GRANDE MOTTE",34280,,,nan
REMOULINS,"351, rue Marc Seguin, nan, REMOULINS",30210,,,nan
VAUVERT,"Ave de la Condamine, nan, VAUVERT",30600,,,nan
MONTPELLIER FONCTION PUBLIQUE,"232, Avenue des Moulins, nan, MONTPELLIER",34000,,,nan
AGDE CAYRETS,"Les Grands Cayrets, Bd Maurice Pacull, AGDE",34300,,,nan
PONT ST ESPRIT,"19, bd Gambetta, nan, PONT ST ESPRIT",30130,,,nan
JUVIGNAC,"Allée de l'Europe, nan, JUVIGNAC",34990,,,nan
ALES ROCADE,"584, Avenue de Croupillac, nan, ALES",30100,,,nan
MONTPELLIER PORT MARIANE,"Résidence Gallia, Rue de Syracuse, MONTPELLIER",34000,,,nan
ALES PERI,"47, rue d'Avéjean, nan, ALES",30100,,,nan
AG BDP ALES,"12 PLACE SAINT JEAN, nan, ALES",30100,,,Banque Dupuy de Parseval
CARCASSONNE PATRIMONIALE,"10, rue de Verdun, nan, CARCASSONNE",11002,,,nan
NIMES FONCTION PUBLIQUE,"6, rue des Halles, nan, NIMES",30000,,,nan
CAISSARGUES AGENCE AGRICULTURE,"Avenue de la Dame, nan, CAISSARGUES",30132,,,nan
AG CLERMONT L'HERAULT BDP,"RUE DE GRENACHE, ZAC VALLEE DE L'HERAULT, CLERMONT L HERAULT",34800,,,Banque Dupuy de Parseval
BAHO,"18, Avenue des Pyrénées, nan, BAHO",66540,,,nan
AG FRONTIGNAN BDP,"15, BOULEVARD GAMBETTA, nan, FRONTIGNAN",34110,,,Banque Dupuy de Parseval
PIA,"8 AVENUE DU CANIGOU, nan, PIA",66380,,,nan
AG BALARUC BDP,"CENTRE BALARUC LOISIRS, ZONE DE COLOMBET, BALARUC LE VIEUX",34540,,,Banque Dupuy de Parseval
AG PERPIGNAN BDP,"1, place Bardou Job, nan, PERPIGNAN",66000,,,Banque Dupuy de Parseval
AG BAILLARGUES BDP,"PARC LE BALIUS, RUE DES ECOLES, BAILLARGUES",34670,,,Banque Dupuy de Parseval
AG CALVISSON BDP,"527, AVENUE DU COLLEGE, nan, CALVISSON",30420,,,Banque Dupuy de Parseval
AG MONTPELLIER BDP,"14, BOULEVARD VICTOR HUGO, nan, MONTPELLIER",34000,,,Banque Dupuy de Parseval
AG MEZE BDP,"37, RUE SADI CARNOT, nan, MEZE",34140,,,Banque Dupuy de Parseval
AG PEZENAS BDP,"5, PLACE DE LA REPUBLIQUE, nan, PEZENAS",34120,,,Banque Dupuy de Parseval
AG COLOMBIERS BDP,"ZAE LES CANTEGALS, RUE DES ANCIENNES CARRIERES, COLOMBIERS",34440,,,Banque Dupuy de Parseval
AG CAPESTANG BDP,"PLACE JEAN JAURES, nan, CAPESTANG",34310,,,Banque Dupuy de Parseval
AG LE CAP D'AGDE BDP,"21, AVENUE SERGENTS, LE CAP D'AGDE, AGDE",34300,,,Banque Dupuy de Parseval
AG VIAS BDP,"AVENUE JEAN MANZANERA, nan, VIAS",34450,,,Banque Dupuy de Parseval
AG VALS LES BAINS BM,"90, RUE JEAN JAURES, nan, VALS LES BAINS",07600,,,Banque Marze
AG PRIVAS BM,"15, PLACE VICTOR HUGO, nan, PRIVAS",07000,,,Banque Marze
AG LORIOL BM,"PLACE DE L'EGLISE, nan, LORIOL SUR DROME",26270,,,Banque Marze
AGDE CMM,"4, bd de Monaco, nan, AGDE",34300,,,Crédit Maritime Méditerranée
MARTIGUES CMM,"18, Avenue Frédéric Mistral, nan, MARTIGUES",13500,,,Crédit Maritime Méditerranée
PORT LA NOUVELLE CMM,"193, boulevard du Monument aux morts, nan, PORT LA NOUVELLE",11210,,,Crédit Maritime Méditerranée
VILLENEUVE RAHO,"Avenue Angel Guimera, Résidence Le Colisée - Lot 7, VILLENEUVE DE LA RAHO",66180,,,nan
AGENCE BANQUE PRIVEE AUVERGNE,"18, boulevard Jean Moulin, nan, CLERMONT FERRAND",63000,,,nan
GRAND LAC AIX LES BAINS,"110, Avenue de Genève, nan, AIX LES BAINS",73100,,,nan
MAURIENNE SAINT JEAN DE MAURIENNE,"108, rue de la Libération, nan, ST JEAN DE MAURIENNE",73300,,,nan
MAURIENNE MODANE,"7, rue de la République, nan, MODANE",73500,,,nan
SALEVE CRUSEILLES,"195, Grande Rue, nan, CRUSEILLES",74350,,,nan
ANNECY OUEST CRAN GEVRIER,"9 ter, Avenue de la République, nan, CRAN GEVRIER",74960,,,nan
ANNECY SUD VAUGELAS,"25, rue Vaugelas, nan, ANNECY",74000,,,nan
ANNECY SUD SEYNOD,"18, Pl Saint Jean, nan, SEYNOD",74600,,,nan
GENEVOIS ANNEMASSE,"18, Avenue de la Gare, nan, ANNEMASSE",74100,,,nan
PORTES DU SOLEIL MORZINE,"50, pl de l'office de Tourisme, nan, MORZINE",74110,,,nan
PORTES DU SOLEIL LES GETS,"637, rue du Centre, nan, LES GETS",74260,,,nan
CHALLES LES EAUX,"1273, Avenue de Chambéry, nan, CHALLES LES EAUX",73190,,,nan
VAL D ARVE CLUSES,"20, Grande Rue, nan, CLUSES",74300,,,nan
CHABLAIS EST EVIAN LES BAINS,"61, rue Nationale, nan, EVIAN LES BAINS",74500,,,nan
PAYS ROCHOIS LA ROCHE SUR FORON,"30, Avenue Charles de Gaulle, BP 17, LA ROCHE SUR FORON CEDEX",74808,,,nan
FAUCIGNY ST PIERRE,"52, pl des Pléiades, nan, ST PIERRE EN FAUCIGNY",74800,,,nan
PAYS ROCHOIS REIGNIER,"326, Grande Rue, nan, REIGNIER",74930,,,nan
PAYS DE GEX BELLEGARDE,"57, rue de la République, nan, VALSERHONE",01200,,,nan
PAYS DE GEX CENTRE,"Rue des Terreaux, nan, GEX",01170,,,nan
SALEVE SAINT JULIEN EN GENEVOIS,"24, rue Fernand David, nan, ST JULIEN EN GENEVOIS",74160,,,nan
TARENTAISE AIME LA PLAGNE,"25, rue Saint Martin, nan, AIME",73210,,,nan
TARENTAISE TIGNES,"Résidence Le Palafour, nan, TIGNES",73320,,,nan
LES 3 VALLEES COURCHEVEL,"Rue des Tovets, nan, COURCHEVEL",73120,,,nan
MONT BLANC LES CONTAMINES,"Immeuble Le Savoy, nan, LES CONTAMINES MONTJOIE",74170,,,nan
AGENCE ENTREPRISES CLUSES,"20, Grand Rue, nan, CLUSES",74300,,,nan
GRENOBLE BASTILLE JAURES,"13, cours Jean Jaurès, nan, GRENOBLE",38000,,,nan
MONTELIMAR CENTRE,"39, bd Desmarais, nan, MONTELIMAR",26200,,,nan
LE TEIL,"21, rue de la République, nan, LE TEIL",07400,,,nan
TOURNON,"Pl Carnot, nan, TOURNON SUR RHONE",07300,,,nan
LIVRON,"2, Avenue Albert Mazade, nan, LIVRON",26250,,,nan
PAYS VOIRONNAIS VOIRON CENTRE,"43, rue du Mail, nan, VOIRON",38500,,,nan
GRENOBLE SUD BONNE,"26 - 28, rue Berthe de Boissieux, nan, GRENOBLE",38000,,,nan
SUD BELLEDONNE ST MARTIN D'HERES,"5, rue Beethoven, Centre Hermitage, ST MARTIN D'HERES",38400,,,nan
CORENC MONTFLEURY,"2, avenue du Grésivaudan, nan, CORENC",38700,,,nan
SUD BELLEDONNE ECHIROLLES,"31, rue Normandie Niemen, nan, ECHIROLLES",38130,,,nan
SISTERON,"2, pl du Général de Gaulle, nan, SISTERON",04200,,,nan
DIGNE LES BAINS CENTRE,"40, bd Gassendi, nan, DIGNE LES BAINS",04000,,,nan
MANOSQUE CENTRE,"8, bd Elémir Bourges, nan, MANOSQUE",04100,,,nan
PAYS ROMANAIS BOURG DE PEAGE,"Ave du Général de Gaulle, Espace Mossant, BOURG DE PEAGE",26300,,,nan
GAP FONTREYNE,"8, Avenue de Provence, Parc de Fontreyne, GAP",05000,,,nan
DRAC ROMANCHE PONT DE CLAIX,"1, rue du Trièves, nan, LE PONT DE CLAIX",38800,,,nan
OISANS BOURG D'OISANS,"15, Avenue de la République, nan, BOURG D'OISANS",38520,,,nan
GUILDURANCE GUILLESTRE,"1, rte de la Gare, nan, GUILLESTRE",05600,,,nan
VALENCE SUD PORTES LES VALENCE,"61, rue Jean Jaurès, nan, PORTES LES VALENCE",26800,,,nan
OISANS LES DEUX ALPES,"22, Avenue de la Muzelle, nan, LES DEUX ALPES",38860,,,nan
BARCELONNETTE,"55, rue Manuel, nan, BARCELONNETTE",04400,,,nan
OISANS L'ALPE D'HUEZ,"Ave des Marmottes, Centre de Jour les bergers, L'ALPE D'HUEZ",38750,,,nan
AGRI ALPES NORD,"25, rue Vaugelas, nan, ANNECY",74000,,,nan
AGENCE BANQUE PRIVEE ALPES SUD,"Pl Ladoucette - 1er étage, nan, GAP",05000,,,nan
AMBERT,"2, pl du Pontel, nan, AMBERT",63600,,,nan
PORTE DES VOLCANS COUBERTIN,"13, pl Pierre de Coubertin, nan, CLERMONT FERRAND",63000,,,nan
PORTES HAUTE LOIRE YSSINGEAUX,"2, Avenue Georges Clemenceau, nan, YSSINGEAUX",43200,,,nan
CLERMONT REPUBLIQUE,"1, Avenue de la République, nan, CLERMONT FERRAND",63100,,,nan
TERRES DE LIMAGNE MOZAC,"67, Avenue Jean Jaurès, nan, MOZAC",63200,,,nan
PORTES DU ZENITH LES MARTRES,"27, Avenue de la Gare, nan, LES MARTRES DE VEYRE",63730,,,nan
AURILLAC COEUR DE VILLE,"8, Avenue Gambetta, BP 61, AURILLAC CEDEX",15017,,,nan
MAURIAC,"22, rue de la République, nan, MAURIAC",15200,,,nan
RIOM ES MONTAGNES,"9 bis, rue du Commandant Monier, nan, RIOM ES MONTAGNES",15400,,,nan
ARGENTAT,"15, Avenue Henri IV, nan, ARGENTAT",19400,,,nan
ROANNE CENTRE JAURES,"46, rue Jean Jaurès, nan, ROANNE CEDEX",42308,,,nan
COMMENTRY,"12, rue Jean Jaurès, nan, COMMENTRY",03600,,,nan
ST ELOY LES MINES,"184/186, rue Jean Jaurès, nan, ST ELOY LES MINES",63700,,,nan
GRAND MOULINS YZEURE,"2, bd Jean Jaurès, nan, YZEURE",03400,,,nan
MONTLUCON RIVES DE CHER COURTAIS,"47, boulevard de Courtais, nan, MONTLUCON",03100,,,nan
MONTLUCON VAL DE CHER ST JACQUES,"8, quai Louis Blanc, Centre Commercial Saint Jacques, MONTLUCON",03100,,,nan
DES 2 RIVIERES UZERCHE,"Rue du Pont Neuf, nan, UZERCHE",19140,,,nan
AURILLAC SUD ARPAJON,"9, Place de l'Eglise, nan, ARPAJON SUR CERE",15130,,,nan
CUSSET BELLERIVE SUR ALLIER,"Ctre Cial Carré d'As, nan, BELLERIVE SUR ALLIER",03700,,,nan
LYON PRESQU ILE CORDELIERS,"2, pl des Cordeliers, nan, LYON",69002,,,nan
LYON JEAN JAURES SAXE,"8-10, Avenue Jean Jaurès, nan, LYON",69007,,,nan
LYON BELLECOUR LA PLACE,"24bis, pl Bellecour, nan, LYON",69002,,,nan
LYON VAISE,"18, Grande Rue de Vaise, nan, LYON",69009,,,nan
LYON LE PLATEAU CROIX ROUSSE,"59, bd des Canuts, nan, LYON",69004,,,nan
LE GRAND LARGE MEYZIEU,"61, rue de la République, nan, MEYZIEU",69330,,,nan
LE GRAND LARGE DECINES,"159, Avenue Jean Jaurès, nan, DECINES",69150,,,nan
LYON LE PLATEAU CALUIRE,"66, rue François Peissel, nan, CALUIRE ET CUIRE",69300,,,nan
LYON TETE D'OR KLEBER,"2, place Kléber, nan, LYON",69006,,,nan
OUEST LYONNAIS POINT DU JOUR,"1, rue Joliot Curie, nan, LYON",69005,,,nan
LYON LE PLATEAU GROS CAILLOU,"14, pl de la Croix Rousse, nan, LYON",69004,,,nan
LES AQUEDUCS CRAPONNE,"88, Avenue Edouard Millaud, nan, CRAPONNE",69290,,,nan
TREVOUX,"25, rue du Palais, nan, TREVOUX",01600,,,nan
VIENNE ESTRABLIN,"Rue du Centre, nan, ESTRABLIN",38780,,,nan
COTIERE GRAND PARC JONAGE,"Pl du Général de Gaulle, nan, JONAGE",69330,,,nan
VILLEFRANCHE CALADE PROMENOIR,"56, pl Carnot, nan, VILLEFRANCHE SUR SAONE",69400,,,nan
PORTES DE L'ISERE PONT DE CHERUY,"27, rue Centrale, nan, PONT DE CHERUY",38230,,,nan
COTEAUX MORNANT,"12, pl de la Liberté, nan, MORNANT",69440,,,nan
LYON 3 PLACE RONDE,"62, cours Richard Vitton, nan, LYON",69003,,,nan
MONTS D'OR ST CYR,"6, pl Charles de Gaulle, nan, ST CYR AU MONT D'OR",69450,,,nan
SAINT EXUPERY BRON,"192, Avenue F Roosevelt, nan, BRON",69500,,,nan
VILLEURBANNE GRATTE CIEL,"17, rue Paul Verlaine, nan, VILLEURBANNE",69100,,,nan
LYON SUD SAINT GENIS LAVAL,"59, Avenue Clémenceau, nan, SAINT GENIS LAVAL",69230,,,nan
BOURGOIN SAINT MICHEL,"14, rue de la Libération, nan, BOURGOIN-JALLIEU",38300,,,nan
ST ETIENNE NORD TERRASSE,"20 bis, pl Massenet, nan, ST ETIENNE CEDEX 1",42005,,,nan
MONTBRISON,"15, rue Simon Boyer, nan, MONTBRISON",42602,,,nan
ST ETIENNE SUD EST ROND POINT,"111, cours Fauriel, nan, ST ETIENNE",42100,,,nan
FIRMINY,"85, rue Jean Jaurès, nan, FIRMINY",42703,,,nan
ST ETIENNE SUD BIZILLON,"9, rue des Docteurs Charcot, nan, ST ETIENNE",42100,,,nan
ST ETIENNE SUD EST MONTPLAISIR,"118, rue de la Richelandière, nan, ST ETIENNE",42100,,,nan
ST ETIENNE OUEST BERGSON,"83, rue Bergson, nan, ST ETIENNE CEDEX 1",42003,,,nan
LOIRE FOREZ VEAUCHE,"22, Avenue Irénée Laurent, nan, VEAUCHE",42340,,,nan
ST ETIENNE NORD ROCHE LA MOLIERE,"10, rue Gambetta, nan, ROCHE LA MOLIERE",42230,,,nan
FOREZ MONTROND LES BAINS,"4, Avenue des Sources, nan, MONTROND LES BAINS",42210,,,nan
MARMANDE CENTRE AFFAIRES,"64, rue Charles de Gaulle, nan, MARMANDE",47200,,,nan
AUCH CENTRE AFFAIRES AUCH PYRENEES,"37, avenue des Pyrénées, nan, AUCH",32000,,,nan
CENTRE AFFAIRES,"96 route de Blagnac, nan, TOULOUSE",31200,,,nan
FIGEAC CENTRE AFFAIRES,"Pl Léon Besombes, nan, FIGEAC",46100,,,nan
MILLAU CENTRE AFFAIRES,"1, rue du Sacré Coeur, nan, MILLAU",12100,,,nan
TOULOUSE ONCOPOLE,"5, rue Joliot Curie, nan, TOULOUSE",31100,,,nan
BALMA NEXT INNOV,"43, avenue Georges Pompidou, nan, BALMA",31130,,,nan
LOURDES MARQUI,"1, rue Beausite, nan, LOURDES",65100,,,nan
NAILLOUX,"36 bis, rue de la République, nan, NAILLOUX",31560,,,nan
TOULOUSE ALSACE,"47, rue d'Alsace Lorraine, nan, TOULOUSE",31001,,,nan
MONTAUBAN,"18, pl Franklin Roosevelt, nan, MONTAUBAN",82000,,,nan
TARBES VERDUN,"28, pl de Verdun, nan, TARBES",65000,,,nan
AUCAMVILLE,"79, route de Fronton, nan, AUCAMVILLE",31140,,,nan
SAINT MICHEL,"31, Grande Rue St Michel, nan, TOULOUSE",31400,,,nan
TOULOUSE ESQUIROL,"23, place Esquirol, nan, TOULOUSE",31000,,,nan
TOULOUSE PONT DEMOISELLES,"2, Avenue Saint Exupéry, nan, TOULOUSE",31400,,,nan
PORTET SUR GARONNE,"22, rue Robert Saintigny, nan, PORTET SUR GARONNE",31120,,,nan
TOULOUSE BASSO CAMBO,"1, Avenue du Mirail, nan, TOULOUSE",31100,,,nan
ST GAUDENS,"85, rue de la République, nan, ST GAUDENS",31800,,,nan
ARGELES GAZOST,"14, rue du Maréchal Foch, nan, ARGELES GAZOST",65400,,,nan
L'UNION,"2, allée des Nymphéas, nan, L'UNION",31240,,,nan
MOISSAC,"18, rue de la République, nan, MOISSAC",82200,,,nan
TOURNEFEUILLE,"6, bd Vincent Auriol, nan, TOURNEFEUILLE",31170,,,nan
REVEL,"21, bd de la République, nan, REVEL",31250,,,nan
TARBES LA PROVIDENCE,"42 ter, rue Alsace Lorraine, nan, TARBES",65000,,,nan
BALMA,"6, Avenue de Toulouse, nan, BALMA",31130,,,nan
AUTERIVE,"10, route de Toulouse, nan, AUTERIVE",31190,,,nan
AUCH PATTE D'OIE,"7, pl de Verdun, nan, AUCH",32000,,,nan
MONTAUBAN ST MICHEL,"83, Avenue Charles de Gaulle, nan, MONTAUBAN",82000,,,nan
BLAGNAC AEROGARE,"Aéroport Toulouse Blagnac, nan, BLAGNAC",31700,,,nan
LECTOURE,"24, rue Nationale, nan, LECTOURE",32700,,,nan
MONTREJEAU,"46, rue du Barry, nan, MONTREJEAU",31210,,,nan
LUZ ST SAUVEUR,"Ave Saint Sauveur, nan, LUZ ST SAUVEUR",65120,,,nan
VILLEFRANCHE DE LAURAGAIS,"128, rue de la République, nan, VILLEFRANCHE DE LAURAGAIS",31290,,,nan
BAGNERES DE LUCHON,"12, allée d'Etigny, nan, LUCHON",31110,,,nan
MONTAUBAN CENTRE AFFAIRES,"495, Avenue de Paris, nan, MONTAUBAN",82000,,,nan
CAZERES,"4,  pl Jean Jaurès, nan, CAZERES",31220,,,nan
SEYSSES,"10, pl de la Libération, nan, SEYSSES",31600,,,nan
CAUSSADE,"8, pl du Général de Gaulle, nan, CAUSSADE",82300,,,nan
MONTAUBAN LE ROND,"8, pl de la Libération, nan, MONTAUBAN",82000,,,nan
GAILLAC SAINT EXUPERY,"Ave St Exupéry, nan, GAILLAC",81600,,,nan
CARMAUX,"12, pl Jean Jaurès, nan, CARMAUX",81400,,,nan
REQUISTA,"4, bd Vicomte de Cadars, nan, REQUISTA",12170,,,nan
VILLEFRANCHE DE ROUERGUE,"Promenade du Guiraudet, nan, VILLEFRANCHE DE ROUERGUE",12200,,,nan
MAZAMET,"12, cours René Reille, nan, MAZAMET",81203,,,nan
MILLAU,"1, rue du Sacré Coeur, nan, MILLAU",12100,,,nan
LACROUZETTE,"22, Avenue de Castres, nan, LACROUZETTE",81210,,,nan
CASTRES ALBINQUE,"20 ter, Place Pierre Fabre, nan, CASTRES",81100,,,nan
ALBI UNIVERSITE,"83, Avenue de Gaulle, nan, ALBI",81000,,,nan
LABRUGUIERE,"9, bd de la République, nan, LABRUGUIERE",81290,,,nan
CASTRES SIDOBRE,"Ave du Sidobre, nan, CASTRES",81100,,,nan
REALMONT,"8, bd Armengaud, nan, REALMONT",81120,,,nan
CARBONNE,"35, pl de la République, nan, CARBONNE",31390,,,nan
CUGNAUX TOULOUSE SAINT SIMON,"151, rte de Toulouse, nan, CUGNAUX",31278,,,nan
GIMONT,"49, bd du Nord, nan, GIMONT",32200,,,nan
VILLENEUVE SUR LOT,"18, bd Palissy, nan, VILLENEUVE SUR LOT",47301,,,nan
GOURDON,"17, allée de la République, nan, GOURDON",46300,,,nan
STE LIVRADE SUR LOT,"Pl de Verdun, nan, STE LIVRADE SUR LOT",47110,,,nan
ST CERE,"4, pl de la République, nan, ST CERE",46400,,,nan
CAPDENAC GARE,"12, Avenue Charles de Gaulle, nan, CAPDENAC GARE",12700,,,nan
LAVARDAC,"8, pl du Foirail, nan, LAVARDAC",47230,,,nan
VAYRAC,"3, avenue Henri Barbier, nan, VAYRAC",46110,,,nan
BIARS SUR CERE,"69, Avenue de la République, nan, BIARS SUR CERE",46130,,,nan
CASTELNAU MONTRATIER,"15, pl Gambetta, nan, CASTELNAU MONTRATIER",46170,,,nan
MONTCUQ,"5016, Avenue de La Promenade, nan, MONTCUQ",46800,,,nan
VILLEREAL,"2, rue Roger Bissière, nan, VILLEREAL",47210,,,nan
AGEN SUD,"686, Avenue du Général Leclerc, nan, AGEN",47000,,,nan
BOE CENTRE AFFAIRES AGEN,"1800, Avenue Jean Nogues, nan, BOE",47550,,,nan
RIEUPEYROUX,"9, Avenue de Rouergue, nan, RIEUPEYROUX",12240,,,nan
CORNEBARRIEU,"1, Avenue de Latecoere, nan, CORNEBARRIEU",31700,,,nan
COLOMIERS LE PERGET,"2, rue Antoine Lavoisier, ZAC Le Perget, COLOMIERS",31770,,,nan
PUYLAURENS,"3, Avenue de Castres, nan, PUYLAURENS",81700,,,nan
LABEGE,"Rue de l'Autan, nan, LABEGE",31670,,,nan
VIC FEZENSAC,"8-10, cours Albert Delucq, nan, VIC FEZENSAC",32190,,,nan
Chasseneuil agri Vienne,"26 bis, Allée du Haut Poitou, nan, Chasseneuil du Poitou",86360,,,nan
MONTIGNY LE BRETONNEUX BANQUE PRIVEE,"9, square Newton, nan, MONTIGNY LE BRETONNEUX",78180,,,nan
SAINT CYR GALLY,"75-77, rue du Docteur Vaillant, nan, Saint-Cyr-L''Ecole",78210,,,nan
CHECY AGRICOLE DU LOIRET,"5, rue Gustave Eiffel, nan, CHECY",45430,,,nan
CHATEAUDUN,"18, rue Jean Moulin, nan, CHATEAUDUN",28200,,,nan
DREUX,"2, rue aux Tanneurs, nan, DREUX",28103,,,nan
Agence PL Grand Paris Ouest,"9, Square NEWTON, nan, MONTIGNY LE BRETONNEUX",78180,,,nan
LA LOUPE,"13, pl de l'Hôtel de Ville, nan, LA LOUPE",28240,,,nan
NOGENT LE ROTROU,"51, rue Villette Gâte, nan, NOGENT LE ROTROU",28400,,,nan
TRAPPES,"1, Avenue Jean Jaurès, nan, TRAPPES",78190,,,nan
MAINTENON,"2, pl Noë et Omer Sadorge, nan, MAINTENON",28130,,,nan
RAMBOUILLET,"14, pl Félix Faure, nan, RAMBOUILLET",78120,,,nan
RUEIL MALMAISON MAIRIE,"10, rue Maurepas, nan, RUEIL MALMAISON",92503,,,nan
ST CLOUD,"84, bd de la République, nan, ST CLOUD",92212,,,nan
SEVRES,"5, Avenue de l'Europe, nan, SEVRES",92312,,,nan
ST GERMAIN EN LAYE,"62, rue de Poissy, nan, ST GERMAIN EN LAYE",78100,,,nan
CHAVILLE,"1671, Avenue Roger Salengro, nan, CHAVILLE",92370,,,nan
VERSAILLES GRAND SIECLE,"3, rue de l'Ecole des postes, nan, VERSAILLES",78000,,,nan
LE CHESNAY,"6, Avenue Charles de Gaulle, nan, LE CHESNAY",78152,,,nan
CHATOU,"20, Avenue du Général Sarrail, nan, CHATOU",78401,,,nan
BOUGIVAL,"45, rue du Général Leclerc, nan, BOUGIVAL",78380,,,nan
IGNY,"12, rue Gabriel Péri, nan, IGNY",91430,,,nan
LES CLAYES SOUS BOIS,"7, rue Maurice Jouet, nan, LES CLAYES SOUS BOIS",78340,,,nan
MEULAN EN YVELINES,"51, rue du Maréchal Foch, nan, MEULAN EN YVELINES",78250,,,nan
VIROFLAY,"39, rue du Général Leclerc, nan, VIROFLAY",78220,,,nan
LES ESSARTS LE ROI,"25, rue du 11 Novembre, nan, LES ESSARTS LE ROI",78690,,,nan
GIF SUR YVETTE CEA SACLAY,"Bât 471, CEA SACLAY, GIF SUR YVETTE CEDEX",91191,,,nan
GARCHES,"17-21, avenue Joffre, nan, GARCHES",92380,,,nan
ORSAY,"7, rue Archange, nan, ORSAY",91401,,,nan
CHARTRES EURE ET LOIR ENTREPRISES,"10-12, allée Prométhée - Propylée II, nan, CHARTRES",28000,,,nan
GIEN,"1, Avenue du Maréchal Leclerc, nan, GIEN",45500,,,nan
ORLEANS CHATELET,"44, pl du Châtelet, nan, ORLEANS",45000,,,nan
ORLEANS DAUPHINE,"3 bis-5, rte d'Olivet, nan, ORLEANS",45100,,,nan
SALBRIS,"30-32, bd de la République, nan, SALBRIS",41300,,,nan
CHECY,"5, rue Gustave Eiffel, nan, CHECY",45430,,,nan
LA CHAPELLE ST MESMIN,"7 bis, rue Nationale, nan, LA CHAPELLE ST MESMIN",45380,,,nan
COURTENAY,"18, pl Honoré Combe, nan, COURTENAY",45320,,,nan
SARAN,"517, rue du Faubourg Bannier, nan, SARAN",45770,,,nan
FLEURY LES AUBRAIS MONTARAN,"Ctre Cial Leclerc, Rue Montaran, FLEURY LES AUBRAIS",45400,,,nan
CHATEAUMEILLANT,"16, pl du Docteur Guyot, nan, CHATEAUMEILLANT",18370,,,nan
CHATEAUROUX HOTEL DE VILLE,"2, rue de la République, nan, CHATEAUROUX",36000,,,nan
ST DOULCHARD,"rue du Briou, nan, ST DOULCHARD",18230,,,nan
TOURS LES 2 LIONS,"36, Avenue Marcel Dassault, nan, TOURS",37000,,,nan
LA RICHE,"25, pl Sainte Anne, nan, LA RICHE",37520,,,nan
TOURS HALLES,"Galerie Marchande des Halles, Pl Gaston Pailhou, TOURS",37000,,,nan
ST AVERTIN,"27, rue Rochepinard, nan, ST AVERTIN",37550,,,nan
JOUE LES TOURS,"2, Avenue Victor Hugo, nan, JOUE LES TOURS",37300,,,nan
BALLAN MIRE,"20, rue du Général Leclerc, nan, BALLAN MIRE",37510,,,nan
TOURS MAGINOT,"40, Avenue André Maginot, nan, TOURS",37100,,,nan
CHATEAU RENAULT,"3-5, pl Jean Jaurès, nan, CHATEAU RENAULT",37110,,,nan
CHINON,"94, quai Jeanne d'Arc, nan, CHINON",37500,,,nan
LOCHES,"8, rue de la République, nan, LOCHES",37600,,,nan
DESCARTES,"13 bis, rue du Commerce, nan, DESCARTES",37160,,,nan
POITIERS GRAND SUD,"204, Avenue du 8 mai 1945, nan, POITIERS",86000,,,nan
MONTMORILLON,"1-3, bd Gambetta, nan, MONTMORILLON",86500,,,nan
CHASSENEUIL DU POITOU,"26 bis, allée du Haut Poitou - N10, nan, CHASSENEUIL DU POITOU",86360,,,nan
CHATELLERAULT HENRI IV,"92-94, Grand'rue de Chateauneuf, nan, CHATELLERAULT",86100,,,nan
LOUDUN,"1-3, Avenue de Leuze, nan, LOUDUN",86200,,,nan
BLERE,"1, pl Charles Bidault, nan, BLERE",37150,,,nan
BLOIS DENIS PAPIN,"7, rue Denis Papin, nan, BLOIS",41000,,,nan
ST GERVAIS LA PATTE D'OIE,"395, rue Georges Méliès, nan, ST GERVAIS LA FORET",41350,,,nan
LA CHAUSSEE ST VICTOR ENTREPRISES,"7, rue Copernic, nan, LA CHAUSSEE ST VICTOR",41260,,,nan
ST AIGNAN,"17, quai Jacques Delorme, nan, ST AIGNAN",41110,,,nan
CHATEAUNEUF SUR LOIRE,"84, Grande Rue, nan, CHATEAUNEUF SUR LOIRE",45110,,,nan
SAINT MAUR CAP SUD,"49, Avenue de l'Occitanie, nan, SAINT MAUR",36250,,,nan
BRED-Banque Populaire,"18, quai de la Rapée, nan, Paris cédex 12",75604,,,nan
Banque Populaire Aquitaine Centre Atlantique,"10, quai des Queyries, nan, Bordeaux Cedex",33100,,,nan
Banque Populaire du Nord,"847, avenue de la République, nan, Marcq-en-Baroeul",59700,,,nan
Banque Populaire Grand Ouest,"15, boulevard de la Boutière, nan, SAINT GREGOIRE CEDEX",35768,,,nan
Banque Populaire Méditerranée,"457, Promenade des Anglais, BP 241, NICE CEDEX 3",06292,,,nan
Banque Populaire du Sud,"38, boulevard Georges Clemenceau, nan, Perpignan Cedex 09",66966,,,nan
Banque Populaire Occitane,"33-43, Avenue Georges Pompidou, nan, BALMA",31135,,,nan
