nom;adresse;code_postal;latitude;longitude;region_source
Agence bancaire ALLAIRE;7, route de Redon, 56350 ALLAIRE;56350;;;Crédit Agricole - Morbihan
Agence bancaire ARRADON;2, rue des frères Mithouard, 56610 ARRADON;56610;;;Crédit Agricole - Morbihan
Agence en ligne Agence des Expatriés;Avenue de Keranguen, 56956 Vannes;56956;47,6578512;-2,7928432;Crédit Agricole - Morbihan
Agence bancaire AURAY Gare;5, rue Charles de Blois, 56400 AURAY;56400;47,679162;-2,99936;Crédit Agricole - Morbihan
Agence bancaire AURAY Ville;1, rue barré, 56400 AURAY;56400;47,667129;-2,984388;Crédit Agricole - Morbihan
Agence bancaire BAUD;Place du Champs de Foire, 56150 BAUD;56150;;;Crédit Agricole - Morbihan
Agence bancaire BELZ;35, Rue du Docteur Laennec, 56550 BELZ;56550;;;Crédit Agricole - Morbihan
Agence bancaire BUBRY;13, 15 Place F.d Esperey, 56310 BUBRY;56310;;;Crédit Agricole - Morbihan
Agence bancaire CARENTOIR;18 rue du Général de Gaulle, 56910 CARENTOIR;56910;;;Crédit Agricole - Morbihan
Agence bancaire CARNAC;50, rue St Cornély, 56340 CARNAC;56340;;;Crédit Agricole - Morbihan
Agence bancaire CAUDAN;1 Avenue Simone Veil, 56850 Caudan;56850;;;Crédit Agricole - Morbihan
Agence bancaire CLEGUEREC;9, rue du stade, 56480 CLEGUEREC;56480;;;Crédit Agricole - Morbihan
Agence bancaire ELVEN;Place du Lurin, 56250 ELVEN;56250;;;Crédit Agricole - Morbihan
Agence bancaire GOURIN;11, rue Jacques Rodallec, 56110 GOURIN;56110;;;Crédit Agricole - Morbihan
Agence bancaire GRANDCHAMP;Place de la Mairie, 56390 GRANDCHAMP;56390;;;Crédit Agricole - Morbihan
Agence bancaire GROIX;6, place du Leurhé, 56590 GROIX;56590;;;Crédit Agricole - Morbihan
Agence bancaire GUEMENE SCORFF;1, rue du Palais, 56160 GUEMENE SUR SCORFF;56160;;;Crédit Agricole - Morbihan
Agence bancaire GUER;19, avenue du Général Leclerc, 56380 GUER;56380;;;Crédit Agricole - Morbihan
Agence bancaire GUIDEL;7, place Polignac, 56520 GUIDEL;56520;;;Crédit Agricole - Morbihan
Agence bancaire GUISCRIFF;1, rue du terrain des sports, 56560 GUISCRIFF;56560;;;Crédit Agricole - Morbihan
Agence bancaire HENNEBONT;27, avenue de la Libération, 56700 HENNEBONT;56700;;;Crédit Agricole - Morbihan
Agence bancaire INZINZAC LOCHRIST;11, rue Emile Zola, 56650 INZINZAC LOCHRIST;56650;;;Crédit Agricole - Morbihan
Agence bancaire JOSSELIN;1 rue St Michel, 56120 JOSSELIN;56120;;;Crédit Agricole - Morbihan
Agence bancaire LA GACILLY;6, place du général de Gaulle, 56200 LA GACILLY;56200;;;Crédit Agricole - Morbihan
Agence bancaire ROCHE-BERNARD (la);6, rue des Ecoles, 56130 LA ROCHE-BERNARD;56130;;;Crédit Agricole - Morbihan
Agence bancaire TRINITE PORHOET (la);15, place du Martray, 56490 LA TRINITE PORHOET;56490;;;Crédit Agricole - Morbihan
Agence bancaire LANDEVANT;31 Rue de l'Église, 56690 Landévant;56690;;;Crédit Agricole - Morbihan
Agence bancaire LANESTER JAURES;164, bis rue Jean Jaurès, 56600 LANESTER;56600;;;Crédit Agricole - Morbihan
Agence bancaire LANGUIDIC;11, rue de la Mairie, 56440 LANGUIDIC;56440;;;Crédit Agricole - Morbihan
Agence bancaire LARMOR PLAGE;1, avenue de la plage, 56260 LARMOR PLAGE;56260;;;Crédit Agricole - Morbihan
Agence bancaire LE FAOUET;2, rue Poher, 56320 LE FAOUET;56320;;;Crédit Agricole - Morbihan
Agence bancaire BELLE-ILE (LE PALAIS);2, rue Carnot, 56360 LE PALAIS;56360;;;Crédit Agricole - Morbihan
Agence bancaire LOCMINE;6, place Joseph Richard, 56500 LOCMINE;56500;;;Crédit Agricole - Morbihan
Agence bancaire Agence Banque Privée Lorient;29 Rue de Clisson, 56100 Lorient;56100;47,7516226;-3,3645381;Crédit Agricole - Morbihan
Agence bancaire LORIENT JOFFRE;11 Boulevard Maréchal Joffre, 56100 LORIENT;56100;47,751792;-3,364245;Crédit Agricole - Morbihan
Agence bancaire LORIENT Keryado;22, place de la Liberté, 56100 LORIENT;56100;47,761275;-3,386317;Crédit Agricole - Morbihan
Agence bancaire LORIENT Merville;70, rue Jean Jaurès, 56100 LORIENT;56100;47,745026;-3,374375;Crédit Agricole - Morbihan
Agence bancaire LORIENT Monistrol;54, rue de Monistrol, 56100 LORIENT;56100;47,73632;-3,382865;Crédit Agricole - Morbihan
Agence bancaire LORIENT PORT;34, rue du Port, 56100 LORIENT;56100;47,747837;-3,361673;Crédit Agricole - Morbihan
Agence bancaire Agence Entreprises de Lorient;39 Rue de la Villeneuve La Découverte Bâtiment le Penfret, 56100 LORIENT - Agence Entreprises de Lorient;56100;;;Crédit Agricole - Morbihan
Agence bancaire MALANSAC;Rue Françoise d Amboise, 56220 MALANSAC;56220;;;Crédit Agricole - Morbihan
Agence bancaire MALESTROIT;3, Faubourg St Julien, 56140 MALESTROIT;56140;;;Crédit Agricole - Morbihan
Agence bancaire MAURON;10, place Henri Thébault, 56430 MAURON;56430;;;Crédit Agricole - Morbihan
Agence bancaire MUZILLAC;1, place du marché, 56190 MUZILLAC;56190;;;Crédit Agricole - Morbihan
Agence bancaire NOYAL PONTIVY;34, Avenue de la Liberation, 56920 NOYAL PONTIVY;56920;;;Crédit Agricole - Morbihan
Agence bancaire PEILLAC;21, rue de la Mairie, 56220 PEILLAC;56220;;;Crédit Agricole - Morbihan
Agence bancaire PENESTIN;Allée du Toulprix, 56760 PENESTIN;56760;;;Crédit Agricole - Morbihan
Agence bancaire PLESCOP;13, rue du Verger, 56890 PLESCOP;56890;;;Crédit Agricole - Morbihan
Agence bancaire PLOEMEUR;10 Rue de St Bieuzy, 56270 PLOEMEUR;56270;;;Crédit Agricole - Morbihan
Agence bancaire PLOEREN;Rue des 2 moulins, 56880 PLOEREN;56880;;;Crédit Agricole - Morbihan
Agence bancaire PLOERMEL;22, Place de la mairie, 56800 PLOERMEL;56800;;;Crédit Agricole - Morbihan
Agence bancaire Agence Entreprises de Ploermel;22, place de la Mairie, 56800 PLOERMEL - Agence Entreprises de Ploermel;56800;;;Crédit Agricole - Morbihan
Agence bancaire PLOUAY;3, place de la Mairie, 56240 PLOUAY;56240;;;Crédit Agricole - Morbihan
Agence bancaire PLOUHINEC;4 rue des roseaux, 56680 PLOUHINEC;56680;;;Crédit Agricole - Morbihan
Agence bancaire PLUMELEC;4, rue des M. de la résistance, 56420 PLUMELEC;56420;;;Crédit Agricole - Morbihan
Agence bancaire PLUMELIAU;24, rue de la République, 56930 PLUMELIAU;56930;;;Crédit Agricole - Morbihan
Agence bancaire PLUVIGNER;9 et 11, place St Michel, 56330 PLUVIGNER;56330;;;Crédit Agricole - Morbihan
Agence bancaire PONT SCORFF;Parc commercial de Kerjean, 56620 PONT SCORFF;56620;;;Crédit Agricole - Morbihan
Agence bancaire PONTIVY Centre;5, Avenue Napoléon 1er, 56300 PONTIVY;56300;;;Crédit Agricole - Morbihan
Agence bancaire Agence Entreprises de Pontivy;26, rue Albert de Mun - BP 80125, 56300 PONTIVY - Agence Entreprise de PONTIVY;80125;;;Crédit Agricole - Morbihan
Agence bancaire QUESTEMBERT;2, place du général de Gaulle, 56230 QUESTEMBERT;56230;;;Crédit Agricole - Morbihan
Agence bancaire QUEVEN;26 bis, rue Jean Jaurès, 56530 QUEVEN;56530;;;Crédit Agricole - Morbihan
Agence bancaire QUIBERON;19, rue de la Gare, 56170 QUIBERON;56170;;;Crédit Agricole - Morbihan
Agence bancaire REGUINY;4, rue du général de Gaulle, 56500 REGUINY;56500;;;Crédit Agricole - Morbihan
Agence bancaire RIANTEC;1, rue de Kerdurand, 56670 RIANTEC;56670;;;Crédit Agricole - Morbihan
Agence bancaire ROHAN;4, place de la Mairie, 56580 ROHAN;56580;;;Crédit Agricole - Morbihan
Agence bancaire SAINT AVE;2, place François Mitterrand, 56890 SAINT AVE;56890;;;Crédit Agricole - Morbihan
Agence bancaire SARZEAU;Place des Trinitaires, 56370 SARZEAU;56370;;;Crédit Agricole - Morbihan
Agence bancaire SENE POULFANC;Zone du Poulfanc, 2 Rue des Vosges, 56860 SENE;56860;;;Crédit Agricole - Morbihan
Agence bancaire SERENT;Place Jehan de Serent, 56460 SERENT;56460;;;Crédit Agricole - Morbihan
Agence bancaire ST JEAN BREVELAY;2, place du souvenir français, 56660 ST JEAN BREVELAY;56660;;;Crédit Agricole - Morbihan
Agence bancaire STE ANNE D AURAY;2 rue du General de Gaulle, 56400 STE ANNE D AURAY;56400;;;Crédit Agricole - Morbihan
Agence bancaire SURZUR;ZA de LOBREONT, 56450 SURZUR;56450;;;Crédit Agricole - Morbihan
Agence bancaire THEIX;4 rue du Général de Gaulle, 56450 THEIX;56450;;;Crédit Agricole - Morbihan
Agence bancaire Agence Banque Privée Vannes;21 Avenue de Keranguen, 56000 Vannes;56000;47,65850409999999;-2,7956258;Crédit Agricole - Morbihan
Agence bancaire VANNES CENTRE;22, rue Thiers, 56000 VANNES;56000;47,655637;-2,759548;Crédit Agricole - Morbihan
Agence bancaire VANNES KERCADO;20 Rue Robert Schumann, 56000 VANNES;56000;47,6498995;-2,7707706;Crédit Agricole - Morbihan
Agence bancaire VANNES MENIMUR;8 avenue Paul Cézanne, 56000 VANNES;56000;47,672329;-2,766162;Crédit Agricole - Morbihan
Agence bancaire VANNES ST PATERN;2, rue St Nicolas, 56000 VANNES;56000;47,65863;-2,754939;Crédit Agricole - Morbihan
Agence bancaire VANNES TREHORNEC;Avenue du Général Borgnis Desbordes, 56000 VANNES;56000;47,654075;-2,784093;Crédit Agricole - Morbihan
Agence bancaire Agence Entreprises de Vannes;Avenue de Keranguen, 56000 VANNES - Agence Entreprises de Vannes;56000;;;Crédit Agricole - Morbihan
Agence bancaire VANNES KERANGUEN Siege social;Avenue de Keranguen, 56956 VANNES Caisse régionale;56956;;;Crédit Agricole - Morbihan
Agence bancaire Industries Agro-alimentaires;Avenue de Keranguen, 56956 VANNES Industries Agroalimentaires;56956;;;Crédit Agricole - Morbihan
