nom;adresse;code_postal;latitude;longitude;region_source
Agence bancaire ALTKIRCH;2 Avenue du Maréchal Foch, 68130 Altkirch;68130;;;Crédit Agricole - Alsace Vosges
Agence bancaire AMMERSCHWIHR;7 Rue de la 5ème division blindée, 68770 Ammerschwihr;68770;;;Crédit Agricole - Alsace Vosges
Agence bancaire ARCHES;7 Rue de Remiremont, 88380 Arches;88380;;;Crédit Agricole - Alsace Vosges
Agence bancaire BARR;2 Place de l'Hôtel de Ville, 67140 Barr;67140;;;Crédit Agricole - Alsace Vosges
Agence bancaire BENFELD;4 Rue de l'Ancienne Porte, 67230 Benfeld;67230;;;Crédit Agricole - Alsace Vosges
Agence bancaire BENNWIHR;40 Rue du Général De Gaulle, 68630 Bennwihr;68630;;;Crédit Agricole - Alsace Vosges
Relais CA - Boulangerie l'atelier - Betschdorf;21 Rue du Cimetière, 67660 Betschdorf;67660;48,9018569;7,871837900000001;Crédit Agricole - Alsace Vosges
Relais CA - Tabac Le Pared'z - Biesheim;10 Grand Rue, 68600 Biesheim;68600;48,04055400000001;7,545468799999999;Crédit Agricole - Alsace Vosges
Relais CA - Boulangerie Imbs - Bindernheim;11 Rue du Sel, 67600 Bindernheim;67600;48,2840357;7,609063599999999;Crédit Agricole - Alsace Vosges
Agence bancaire BISCHWILLER;6 Rue du Général Rampont, 67240 Bischwiller;67240;;;Crédit Agricole - Alsace Vosges
Agence bancaire BLOTZHEIM;1 Rue du Général De Gaulle, 68730 Blotzheim;68730;;;Crédit Agricole - Alsace Vosges
Relais CA - Boulangerie THURNHERR - Boofzheim;4 Place de la Mairie, 67860 Boofzheim;67860;48,33234340000001;7,6799135;Crédit Agricole - Alsace Vosges
Relais CA - Tabac Mélanie - Bouxwiller;56 Grand Rue, 67330 Bouxwiller;67330;48,8250888;7,480418299999999;Crédit Agricole - Alsace Vosges
Agence bancaire BRUMATH;8 Rue du Général De Gaulle, 67170 Brumath;67170;;;Crédit Agricole - Alsace Vosges
Relais CA - TABAC DE L'HÉLICO - Brunstatt;2 Rue de Dornach, 68350 Brunstatt;68350;47,7201749;7,300343499999999;Crédit Agricole - Alsace Vosges
Agence bancaire BRUYERES;34 Rue du Cameroun, 88600 Bruyeres;88600;;;Crédit Agricole - Alsace Vosges
Relais CA - Boulangerie Chez Jul'ine - Brû;4 Place de la Mairie, 88700 Brû;88700;48,34837220000001;6,6818705;Crédit Agricole - Alsace Vosges
Agence bancaire BULGNEVILLE;115 Rue Sainte Anne, 88140 Bulgneville;88140;;;Crédit Agricole - Alsace Vosges
Agence bancaire CERNAY;2 Avenue Georges Clémenceau, 68700 Cernay;68700;;;Crédit Agricole - Alsace Vosges
Agence bancaire CHARMES;26 Rue Marcel Goulette, 88131 Charmes;88131;;;Crédit Agricole - Alsace Vosges
Relais CA - AURELIE BAR - Charmois-l'Orgueilleux;13 Rue Grande Rue, 88270 Charmois-l'Orgueilleux;88270;48,1036627;6,2702899;Crédit Agricole - Alsace Vosges
Agence bancaire CHATENOIS;3 Rue Pierre de Coubertin, 88170 Chatenois;88170;;;Crédit Agricole - Alsace Vosges
Agence bancaire COLMAR - CENTRE;21 Grand Rue, 68000 Colmar;68000;48,07663;7,359796;Crédit Agricole - Alsace Vosges
Agence bancaire COLMAR - SEMM;125 Avenue d'Alsace, 68000 Colmar;68000;48,06985689432722;7,365690855125422;Crédit Agricole - Alsace Vosges
Agence bancaire COLMAR - WILSON;2 Avenue Raymond Poincaré, 68000 Colmar;68000;48,0717426;7,348026600000001;Crédit Agricole - Alsace Vosges
Agence bancaire CONTREXEVILLE;14 Rue du Shah de Perse, 88140 Contrexéville;88140;;;Crédit Agricole - Alsace Vosges
Agence bancaire CORNIMONT;8 Place de la Pranzière, 88310 Cornimont;88310;;;Crédit Agricole - Alsace Vosges
Agence bancaire DAMBACH-LA-VILLE;43 Rue du Maréchal Foch, 67650 Dambach La Ville;67650;;;Crédit Agricole - Alsace Vosges
Relais CA - Tabac Presse Lawryk - Dannemarie;4 Rue de Bâle, 68210 Dannemarie;68210;47,6297735;7,1191011;Crédit Agricole - Alsace Vosges
Agence bancaire DARNEY;19 Rue de La République, 88260 Darney;88260;;;Crédit Agricole - Alsace Vosges
Relais CA - CARREFOUR EXPRESS - Dettwiller;1 Rue des Bouchers, 67490 Dettwiller;67490;48,7540291;7,466149400000001;Crédit Agricole - Alsace Vosges
Relais CA - Au plus près - Diebolsheim;10 Rue de l'Église, 67230 Diebolsheim;67230;48,2909799;7,662785399999999;Crédit Agricole - Alsace Vosges
Relais CA - Boulangerie SARL BUCHER PHILIPPE - Diemeringen;71 Grand Rue, 67430 Diemeringen;67430;48,9420693;7,186977299999999;Crédit Agricole - Alsace Vosges
Agence bancaire DOMPAIRE;48 Rue de la Gare, 88270 Dompaire;88270;;;Crédit Agricole - Alsace Vosges
Agence bancaire DRULINGEN;7 Rue de Phalsbourg, 67320 Drulingen;67320;;;Crédit Agricole - Alsace Vosges
Agence bancaire DRUSENHEIM;54 Rue du Général De Gaulle, 67410 Drusenheim;67410;;;Crédit Agricole - Alsace Vosges
Relais CA - Supérette PROXI - Ebersheim;12 Rue de la Chapelle, 67600 Ebersheim;67600;48,301604;7,4981292;Crédit Agricole - Alsace Vosges
Agence bancaire ECKBOLSHEIM;2 Rue de l'Eglise, 67201 Eckbolsheim;67201;;;Crédit Agricole - Alsace Vosges
Agence bancaire EGUISHEIM;10 Place du Château, 68420 Eguisheim;68420;;;Crédit Agricole - Alsace Vosges
Agence bancaire ELOYES;2 Place du Maréchal Leclerc, 88510 Eloyes;88510;;;Crédit Agricole - Alsace Vosges
Agence bancaire ENSISHEIM;10 Rue de la Première Armée, 68190 Ensisheim;68190;;;Crédit Agricole - Alsace Vosges
Relais CA - L'ESP'AS BAR - Epfig;Rue des Artisans, 67680 Epfig;67680;48,3616989;7,4671029;Crédit Agricole - Alsace Vosges
Agence bancaire EPINAL - CHAMP DU PIN;30 Bis Rue de Remiremont, 88000 Epinal;88000;48,1597;6,45063;Crédit Agricole - Alsace Vosges
Agence bancaire EPINAL - CHANTRAINE;87 Rue Notre Dame de Lorette, 88000 Epinal;88000;48,1762;6,43768;Crédit Agricole - Alsace Vosges
Agence bancaire EPINAL - QUAI JULES FERRY;10 Quai Jules Ferry, 88000 Epinal;88000;48,1734;6,44836;Crédit Agricole - Alsace Vosges
Agence bancaire POLE EXPERTISES EPINAL;10 Quai Jules Ferry, 88000 Epinal;88000;48,1734;6,44836;Crédit Agricole - Alsace Vosges
Agence bancaire ERSTEIN;14 Rue Mercière, 67150 Erstein;67150;;;Crédit Agricole - Alsace Vosges
Agence bancaire ESCHAU;4 Rue du Général De Gaulle, 67114 Eschau;67114;;;Crédit Agricole - Alsace Vosges
Relais CA - Tabac-Presse LA DILIGENCE - Fegersheim;27a Rue de Lyon, 67640 Fegersheim;67640;48,49011549999999;7,679578599999999;Crédit Agricole - Alsace Vosges
Agence bancaire FERRETTE;1 Place Mazarin, 68480 Ferrette;68480;;;Crédit Agricole - Alsace Vosges
Agence bancaire FESSENHEIM;47 Rue de la Libération, 68740 Fessenheim;68740;;;Crédit Agricole - Alsace Vosges
Agence bancaire FRAIZE;2 Rue Général Ingold, 88230 Fraize;88230;;;Crédit Agricole - Alsace Vosges
Relais CA - Marchand de journaux - AU P'TIT KIOSQUE - Gambsheim;61 Route nationale, 67760 Gambsheim;67760;48,6905227;7,8745205;Crédit Agricole - Alsace Vosges
Agence bancaire GEISPOLSHEIM;89 Rue du Général De Gaulle, 67118 Geispolsheim;67118;;;Crédit Agricole - Alsace Vosges
Agence bancaire GERARDMER;26 Rue Charles de Gaulle, 88400 Gerardmer;88400;;;Crédit Agricole - Alsace Vosges
Relais CA - Supérette SARL GERSTALI - Gerstheim;2a Rue du Moulin, 67150 Gerstheim;67150;48,3827143;7,705231;Crédit Agricole - Alsace Vosges
Relais CA - Supérette PROXI - Gironcourt-sur-Vraine;14 Rue d'Alsace, 88170 Gironcourt-sur-Vraine;88170;48,3107518;5,927376399999957;Crédit Agricole - Alsace Vosges
Agence bancaire GOLBEY;54 Rue d'Epinal, 88190 Golbey;88190;;;Crédit Agricole - Alsace Vosges
Relais CA - Boucherie SCHMITT FRERES - Granges-sur-Vologne;10 rue du 14 Novembre 1944, 88640 Granges-sur-Vologne;88640;48,144398;6,789667;Crédit Agricole - Alsace Vosges
Relais CA - Supermarché SPAR - Gries;63 Rue Principale, 67240 Gries;67240;48,7545124;7,813970199999972;Crédit Agricole - Alsace Vosges
Agence bancaire GUEBWILLER;153 Rue de La République, 68500 Guebwiller;68500;;;Crédit Agricole - Alsace Vosges
Relais CA - Boulangerie AU P'TIT FOURNIL - Gunstett;3 Rue de la Mairie, 67360 Gunstett;67360;48,91526469999999;7,764404300000001;Crédit Agricole - Alsace Vosges
Agence bancaire HAGUENAU - CENTRE;6 Grand Rue, 67500 Haguenau;67500;48,8119;7,78546;Crédit Agricole - Alsace Vosges
Agence bancaire PÔLE EXPERTISES HAGUENAU;159 Grand Rue, 67500 Haguenau;67500;48,818853;7,791056;Crédit Agricole - Alsace Vosges
Agence bancaire HATTEN;51 Rue Principale, 67690 Hatten;67690;;;Crédit Agricole - Alsace Vosges
Agence bancaire HERRLISHEIM;26 Rue de Drusenheim, 67850 Herrlisheim;67850;;;Crédit Agricole - Alsace Vosges
Relais CA - Tabac Chez Nicole - Hilsenheim;4 Rue de l'Eglise, 67600 Hilsenheim;67600;48,2895216;7,566658599999999;Crédit Agricole - Alsace Vosges
Agence bancaire HIRSINGUE;19 Rue du Maréchal Lattre de Tassigny, 68560 Hirsingue;68560;;;Crédit Agricole - Alsace Vosges
Agence bancaire HOCHFELDEN;28 Rue du Général Lebocq, 67270 Hochfelden;67270;;;Crédit Agricole - Alsace Vosges
Agence bancaire HOENHEIM;33 Rue de la République, 67800 Hoenheim;67800;;;Crédit Agricole - Alsace Vosges
Agence bancaire HOERDT;28 Rue de la République, 67720 Hoerdt;67720;;;Crédit Agricole - Alsace Vosges
Agence bancaire HORBOURG - WIHR;31 Grand Rue, 68180 Horbourg Wihr;68180;;;Crédit Agricole - Alsace Vosges
Relais CA - Au Pétrin Vosgien - Houécourt;442 Rue Division Leclerc, 88170 Houécourt;88170;48,2975684;5,895464200000001;Crédit Agricole - Alsace Vosges
Agence bancaire ILLKIRCH-GRAFFENSTADEN;10a Allée François Mitterrand, 67400 Illkirch-Graffenstaden;67400;;;Crédit Agricole - Alsace Vosges
Agence bancaire INGWILLER;65 Faubourg du Général Philippot, 67340 Ingwiller;67340;;;Crédit Agricole - Alsace Vosges
Agence bancaire LA BRESSE;3 Place du Champtel, 88250 La Bresse;88250;;;Crédit Agricole - Alsace Vosges
Agence bancaire LA WANTZENAU;25 Rue du Général De Gaulle, 67610 La Wantzenau;67610;;;Crédit Agricole - Alsace Vosges
Agence bancaire LAMARCHE;4 Place Bellune, 88320 Lamarche;88320;;;Crédit Agricole - Alsace Vosges
Agence bancaire LAMPERTHEIM;Route de Hoerdt, 67450 Lampertheim;67450;;;Crédit Agricole - Alsace Vosges
Relais CA - Boucherie Maison Baradel - Lapoutroie;70 Rue du Gén Dufieux, 68650 Lapoutroie;68650;48,1546557;7,1681512;Crédit Agricole - Alsace Vosges
Agence bancaire LE THILLOT;17 Rue Charles de Gaulle, 88160 Le Thillot;88160;;;Crédit Agricole - Alsace Vosges
Agence bancaire LE VAL D AJOL;5 Place de l'Eglise, 88340 Le Val d'Ajol;88340;;;Crédit Agricole - Alsace Vosges
Relais CA - Supérette CARREFOUR EXPRESS - Lembach;30 route de Bitche, 67510 Lembach;67510;49,006275;7,790044;Crédit Agricole - Alsace Vosges
Relais CA - CARREFOUR EXPRESS - Lièpvre;29 rue Clemenceau, 68660 Lièpvre;68660;48,27063369750977;7,278470993041992;Crédit Agricole - Alsace Vosges
Relais CA - MP Tabac - Liffol-le-Grand;5 Route de Neufchâteau, 88350 Liffol-le-Grand;88350;48,3179354;5,589843900000005;Crédit Agricole - Alsace Vosges
Relais CA - Tabac ESPACE MARCONI - Liffol-le-Grand;15 Rue de l'Orme, 88350 Liffol-le-Grand;88350;48,3165246;5,5809032;Crédit Agricole - Alsace Vosges
Agence bancaire LINGOLSHEIM;94 Rue du Maréchal Foch, 67380 Lingolsheim;67380;;;Crédit Agricole - Alsace Vosges
Agence bancaire MARCKOLSHEIM;31 Rue du Maréchal Foch, 67390 Marckolsheim;67390;;;Crédit Agricole - Alsace Vosges
Agence bancaire MARLENHEIM;44 Rue du Général De Gaulle, 67520 Marlenheim;67520;;;Crédit Agricole - Alsace Vosges
Relais CA - Le Martigny - Martigny-les-Bains;18 Avenue de la Gare, 88320 Martigny-les-Bains;88320;48,1081432;5,825803500000006;Crédit Agricole - Alsace Vosges
Agence bancaire MASEVAUX;3 Rue du Maréchal De Lattre de Tassigny, 68290 Masevaux;68290;;;Crédit Agricole - Alsace Vosges
Relais CA - Boulangerie AU P'TIT FOURNIL - Merkwiller-Pechelbronn;8 Route de Woerth, 67250 Merkwiller-Pechelbronn;67250;48,9393259;7,8266259;Crédit Agricole - Alsace Vosges
Relais CA - Boulangerie DURRENBERGER - Mertzwiller;13 Rue de la Liberté, 67580 Mertzwiller;67580;48,8662338;7,6821168;Crédit Agricole - Alsace Vosges
Agence bancaire MIRECOURT;75 Rue Chanzy, 88500 Mirecourt;88500;;;Crédit Agricole - Alsace Vosges
Agence bancaire MOLSHEIM;22 Place de l'Hôtel de Ville, 67120 Molsheim;67120;;;Crédit Agricole - Alsace Vosges
Relais CA - Tabac-Presse OSTER - Mommenheim;37 Route de Brumath, 67670 Mommenheim;67670;48,7561592;7,6506326;Crédit Agricole - Alsace Vosges
Agence bancaire MONTHUREUX-SUR-SAONE;40 place de la République, 88410 Monthureux-Sur-Saône;88410;;;Crédit Agricole - Alsace Vosges
Relais CA - Supérette PROXI SUPER - Mothern;10a Rue de la Mairie, 67470 Mothern;67470;48,9315368;8,15333570000007;Crédit Agricole - Alsace Vosges
Relais CA - Tabac Chez Christophe - Moyenmoutier;7 Rue de L Hôtel de ville, 88420 Moyenmoutier;88420;48,3795237;6,911203899999999;Crédit Agricole - Alsace Vosges
Agence bancaire MULHOUSE - DORNACH;6 Rue de Didenheim, 68200 Mulhouse;68200;47,74354290000001;7,310634799999999;Crédit Agricole - Alsace Vosges
Agence bancaire MULHOUSE - SINNE;38 Rue de la Sinne, 68100 Mulhouse;68100;47,7452271;7,340164700000001;Crédit Agricole - Alsace Vosges
Agence bancaire PÔLE EXPERTISES MULHOUSE;7 Rue des Bouchers, 68100 Mulhouse;68100;47,7472259;7,337059900000001;Crédit Agricole - Alsace Vosges
Agence bancaire MUNSTER;24 Rue de La République, 68140 Munster;68140;;;Crédit Agricole - Alsace Vosges
Agence bancaire MUNTZENHEIM;16 Route de Colmar, 68320 Muntzenheim;68320;;;Crédit Agricole - Alsace Vosges
Agence bancaire NEUF-BRISACH;6 Rue de Bâle, 68600 Neuf-Brisach;68600;;;Crédit Agricole - Alsace Vosges
Agence bancaire NEUFCHATEAU;9 Rue Jules Ferry, 88300 Neufchâteau;88300;;;Crédit Agricole - Alsace Vosges
Agence bancaire NIEDERBRONN;1 Place du Bureau Central, 67110 Niederbronn-Les-Bains;67110;;;Crédit Agricole - Alsace Vosges
Agence bancaire NOMEXY;84 Rue d'Alsace, 88440 Nomexy;88440;;;Crédit Agricole - Alsace Vosges
Agence bancaire OBERNAI;3 Place de l'Etoile, 67210 Obernai;67210;;;Crédit Agricole - Alsace Vosges
Relais CA - TABAC BARTH - Ohlungen;63 Rue Principale, 67590 Ohlungen;67590;48,8119995;7,6994573;Crédit Agricole - Alsace Vosges
Relais CA - Carrefour Contact - Oltingue;58 Rue Principale, 68480 Oltingue;68480;47,488555;7,393806999999999;Crédit Agricole - Alsace Vosges
Agence bancaire ORBEY;56 Rue Charles de Gaulle, 68370 Orbey;68370;;;Crédit Agricole - Alsace Vosges
Relais CA - Tabac LE GALLIA - Ostwald;4 Rue du Général Leclerc, 67540 Ostwald;67540;48,5438668;7,7105408;Crédit Agricole - Alsace Vosges
Agence bancaire PFASTATT;107 Rue de Richwiller, 68120 Pfastatt;68120;;;Crédit Agricole - Alsace Vosges
Agence bancaire RAMBERVILLERS;12 Rue Carnot, 88700 Rambervillers;88700;;;Crédit Agricole - Alsace Vosges
Agence bancaire RAON L'ETAPE;30 Rue Charles Weill, 88110 Raon L'Etape;88110;;;Crédit Agricole - Alsace Vosges
Relais CA - PROXI Chez Choupette - Raves;1161 Rue de la Mairie, 88520 Raves;88520;48,265726;7,0470704;Crédit Agricole - Alsace Vosges
Agence bancaire REMIREMONT;81 Rue Charles de Gaulle, 88200 Remiremont;88200;;;Crédit Agricole - Alsace Vosges
Agence bancaire RIBEAUVILLE;26 Grand Rue, 68150 Ribeauville;68150;;;Crédit Agricole - Alsace Vosges
Agence bancaire RIXHEIM;44 Rue de Mulhouse, 68170 Rixheim;68170;;;Crédit Agricole - Alsace Vosges
Agence bancaire ROESCHWOOG;39 Rue Principale, 67480 Roeschwoog;67480;;;Crédit Agricole - Alsace Vosges
Relais CA - Restaurant La Couronne - Rohrwiller;24 Grand Rue, 67410 Rohrwiller;67410;48,7543756;7,902803;Crédit Agricole - Alsace Vosges
Agence bancaire ROSHEIM;57 Rue du Général De Gaulle, 67560 Rosheim;67560;;;Crédit Agricole - Alsace Vosges
Agence bancaire ROUFFACH;1 Place de La République, 68250 Rouffach;68250;;;Crédit Agricole - Alsace Vosges
Relais CA - Maison de la presse PIMENTA - Rupt-sur-Moselle;19a Rue d'Alsace, 88360 Rupt-sur-Moselle;88360;47,9232715;6,660506499999999;Crédit Agricole - Alsace Vosges
Relais CA - Boulangerie L'épi des gourmands - Saint-Amarin;67 Rue Charles de Gaulle, 68550 Saint-Amarin;68550;47,8740397;7,0305825;Crédit Agricole - Alsace Vosges
Agence bancaire SAINT-DIE-DES-VOSGES - HELLIEULE;11-13 Rue d'Hellieule, 88100 Saint-Dié-des-Vosges;88100;;;Crédit Agricole - Alsace Vosges
Agence bancaire SAINT-LOUIS;19 Avenue de Bâle, 68300 Saint-Louis;68300;;;Crédit Agricole - Alsace Vosges
Relais CA - CARREFOUR CONTACT - Saint-Maurice-sur-Moselle;Rue de Lorraine, 88560 Saint-Maurice-sur-Moselle;88560;47,856669;6,8210108;Crédit Agricole - Alsace Vosges
Agence bancaire STE MARIE AUX MINES;84 Rue Wilson, 68160 Sainte-Marie-Aux-Mines;68160;;;Crédit Agricole - Alsace Vosges
Agence bancaire SARRE UNION;5 Place de La République, 67260 Sarre Union;67260;;;Crédit Agricole - Alsace Vosges
Agence bancaire SAUSHEIM;66 Grand Rue, 68390 Sausheim;68390;;;Crédit Agricole - Alsace Vosges
Agence bancaire SAVERNE;52 Grand Rue, 67700 Saverne;67700;;;Crédit Agricole - Alsace Vosges
Relais CA - Supérette PROXI - Scherwiller;46 Rue de la Mairie, 67750 Scherwiller;67750;48,2861162;7,418688700000001;Crédit Agricole - Alsace Vosges
Agence bancaire PÔLE EXPERTISES DE STRASBOURG PÉRIPHÉRIE;1 Avenue de l'Europe, 67300 Schiltigheim;67300;48,60312225493223;7,706124708745574;Crédit Agricole - Alsace Vosges
Agence bancaire SCHILTIGHEIM;128a Route de Bischwiller, 67300 Schiltigheim;67300;48,6068744;7,749386200000001;Crédit Agricole - Alsace Vosges
Agence bancaire SCHILTIGHEIM OUEST;143 Route du Général de Gaulle, 67300 Schiltigheim;67300;48,61074;7,733627;Crédit Agricole - Alsace Vosges
Agence bancaire SCHIRMECK;112 Grand Rue, 67130 Schirmeck;67130;;;Crédit Agricole - Alsace Vosges
Relais CA - Boucherie SIGRIST - Schleithal;158 Rue Principale, 67160 Schleithal;67160;48,98581634546434;8,042466722751254;Crédit Agricole - Alsace Vosges
Agence bancaire SCHWEIGHOUSE;27 Rue du Général De Gaulle, 67590 Schweighouse sur Moder;67590;;;Crédit Agricole - Alsace Vosges
Agence bancaire SELESTAT;6 Rue du Président Poincaré, 67600 Selestat;67600;;;Crédit Agricole - Alsace Vosges
Agence bancaire SELTZ;2 Place de la Mairie, 67470 Seltz;67470;;;Crédit Agricole - Alsace Vosges
Agence bancaire SENONES;5 Avenue du Maréchal Foch, 88210 Senones;88210;;;Crédit Agricole - Alsace Vosges
Agence bancaire SIERENTZ;1 Rue Clémenceau, 68510 Sierentz;68510;;;Crédit Agricole - Alsace Vosges
Relais CA - Carrefour Express - Soufflenheim;8 Grand Rue, 67620 Soufflenheim;67620;48,8296334;7,9656061;Crédit Agricole - Alsace Vosges
Agence bancaire SOULTZ-HAUT-RHIN;5 Place de la République, 68360 Soultz-Haut-Rhin;68360;;;Crédit Agricole - Alsace Vosges
Agence bancaire SOULTZ-SOUS-FORETS;21 Rue des Barons de Fleckenstein, 67250 Soultz-sous-Forêts;67250;;;Crédit Agricole - Alsace Vosges
Agence bancaire COLLECTIVITES PUBLIQUES;6 Quai Turckheim, 67000 Strasbourg;67000;48,5820083;7,738765099999998;Crédit Agricole - Alsace Vosges
Agence bancaire PÔLE EXPERTISES STRASBOURG;39 Avenue des Vosges, 67000 Strasbourg;67000;48,58951889999999;7,7510457;Crédit Agricole - Alsace Vosges
Agence bancaire STRASBOURG - BOURSE;11 Rue de la Brigade Alsace-Lorraine, 67000 Strasbourg;67000;48,5764048;7,754167799999999;Crédit Agricole - Alsace Vosges
Agence bancaire STRASBOURG - CRONENBOURG;1 Route Marcel Proust, 67200 Strasbourg;67200;48,5910679;7,720776900000001;Crédit Agricole - Alsace Vosges
Agence bancaire STRASBOURG - FAUBOURG DE PIERRE;30 Rue du Faubourg de Pierre, 67000 Strasbourg;67000;48,588609;7,745914;Crédit Agricole - Alsace Vosges
Agence bancaire STRASBOURG - GARE;30 Rue du Faubourg-de-Pierre, 67000 Strasbourg;67000;48,5886092;7,745913699999999;Crédit Agricole - Alsace Vosges
Agence bancaire STRASBOURG - HOMME DE FER;45 Rue du Vieux Marché aux Vins, 67000 Strasbourg;67000;48,5843;7,74412;Crédit Agricole - Alsace Vosges
Agence bancaire STRASBOURG - NEUDORF;43 Route du Polygone, 67100 Strasbourg;67100;48,5694;7,7568;Crédit Agricole - Alsace Vosges
Agence bancaire STRASBOURG - ORANGERIE;50 Allée de la Robertsau, 67000 Strasbourg;67000;48,5897;7,76724;Crédit Agricole - Alsace Vosges
Agence bancaire STRASBOURG - POTERIES;9 Rue Paul Eluard, 67200 Strasbourg;67200;48,588313;7,697489;Crédit Agricole - Alsace Vosges
Agence bancaire STRASBOURG - QUAI DES BATELIERS;7 Quai des Bateliers, 67000 Strasbourg;67000;48,5797269;7,752167;Crédit Agricole - Alsace Vosges
Agence bancaire STRASBOURG - RHIN;132-134 Avenue du Rhin, 67000 Strasbourg;67000;48,569391;7,777884;Crédit Agricole - Alsace Vosges
Agence bancaire STRASBOURG - ROBERTSAU;62 Rue Boecklin, 67000 Strasbourg;67000;48,6006;7,78102;Crédit Agricole - Alsace Vosges
Relais CA - Boulangerie Le Fournil de Marius - Sundhouse;5 Rue Principale, 67920 Sundhouse;67920;48,2508794;7,603320000000001;Crédit Agricole - Alsace Vosges
Relais CA - Boulangerie AU P'TIT FOURNIL - Surbourg;35 Rue du Maréchal Leclerc, 67250 Surbourg;67250;48,9108199;7,8457551;Crédit Agricole - Alsace Vosges
Agence bancaire THANN;4 Rue Saint-Thiébaut, 68800 Thann;68800;;;Crédit Agricole - Alsace Vosges
Agence bancaire THAON-LES-VOSGES;116 Rue d'Alsace, 88150 Thaon Les Vosges;88150;;;Crédit Agricole - Alsace Vosges
Agence bancaire TRUCHTERSHEIM;6 Place du Marché, 67370 Truchtersheim;67370;;;Crédit Agricole - Alsace Vosges
Agence bancaire VAGNEY;2 Bis Rue du Général de Gaulle, 88120 Vagney;88120;;;Crédit Agricole - Alsace Vosges
Agence bancaire PFAFFENHOFFEN;8 Rue du Marché, 67350 Val de Moder;67350;;;Crédit Agricole - Alsace Vosges
Relais CA - L'HERMINE - Ventron;3 Place de la Mairie, 88310 Ventron;88310;47,9403279;6,871054699999999;Crédit Agricole - Alsace Vosges
Relais CA - Boulangerie GOURMANDISES DE DAGOBERT - Vicherey;11 Rue de la Halle, 88170 Vicherey;88170;48,383215;5,9359647;Crédit Agricole - Alsace Vosges
Agence bancaire VILLE;6 Rue de la Libération, 67220 Villé;67220;;;Crédit Agricole - Alsace Vosges
Agence bancaire VITTEL;95 Rue de Verdun, 88800 Vittel;88800;;;Crédit Agricole - Alsace Vosges
Agence bancaire WALDIGHOFFEN;26 Rue du Maréchal Joffre, 68640 Waldighoffen;68640;;;Crédit Agricole - Alsace Vosges
Agence bancaire WASSELONNE;91 Rue du Général De Gaulle, 67310 Wasselonne;67310;;;Crédit Agricole - Alsace Vosges
Agence bancaire WINTZENHEIM;1 Faubourg des Vosges, 68920 Wintzenheim;68920;;;Crédit Agricole - Alsace Vosges
Agence bancaire WISSEMBOURG;13 Rue Nationale, 67160 Wissembourg;67160;;;Crédit Agricole - Alsace Vosges
Agence bancaire WITTENHEIM;2 Rue de Verdun, 68270 Wittenheim;68270;;;Crédit Agricole - Alsace Vosges
Agence bancaire WOERTH;7 Grand Rue, 67360 Woerth;67360;;;Crédit Agricole - Alsace Vosges
Agence bancaire XERTIGNY;3 Rue du Commandant Saint-Sernin, 88220 Xertigny;88220;;;Crédit Agricole - Alsace Vosges
Guichet Automatique de banque GAB CORCIEUX;10 Rue de L Hôtel de ville, 88430 Corcieux;88430;48,17260400000001;6,8794811;Crédit Agricole - Alsace Vosges
Relais CA - Magasin Zimmerman - Duntzenheim;4 Rue de Saverne, 67270 Duntzenheim;67270;48,7120053;7,5350414;Crédit Agricole - Alsace Vosges
Relais CA - Supermarché Say Market - Lauterbourg;11 Rue du Général Mittelhauser, 67630 Lauterbourg;67630;48,9754961;8,1814661;Crédit Agricole - Alsace Vosges
Relais CA - Boucherie Jacquel - Provenchères-et-Colroy;80 Grande Rue, 88490 Provenchères-et-Colroy;88490;48,3083995;7,081587;Crédit Agricole - Alsace Vosges
