nom;adresse;code_postal;latitude;longitude;region_source
Agence bancaire ASPET;Place de la Republique, 31160 Aspet;31160;;;Crédit Agricole - Toulouse 31
Agence bancaire AUCAMVILLE;37 Route de Fronton, 31140 Aucamville;31140;;;Crédit Agricole - Toulouse 31
Agence bancaire AURIGNAC;Avenue de Boulogne, 31420 Aurignac;31420;;;Crédit Agricole - Toulouse 31
Agence bancaire AUSSONNE;271 Avenue de la Republique, 31840 Aussonne;31840;;;Crédit Agricole - Toulouse 31
Agence bancaire ANTENNE DES PROFESSIONNELS EST AUTERIVE;3 Rue Jean Proudhom, 31190 Auterive;31190;43,3512205;1,477556800000002;Crédit Agricole - Toulouse 31
Agence bancaire AUTERIVE;3 Rue Jean Proudhom, 31190 Auterive;31190;43,3512205;1,477556800000002;Crédit Agricole - Toulouse 31
Relais CA Relais CA (Carrefour Express) - Ayguesvives;Route de Ticaille, 31450 Ayguesvives;31450;43,4418342;1,599676400000021;Crédit Agricole - Toulouse 31
Agence bancaire LUCHON;24 Allee d'Etigny, 31110 Bagneres-de-Luchon;31110;;;Crédit Agricole - Toulouse 31
Agence bancaire BALMA;23 Avenue Antoine Parmentier, 31130 Balma;31130;;;Crédit Agricole - Toulouse 31
Guichet Automatique de banque Distributeur Baziège;39 Grand Rue, 31450 Baziège;31450;43,4549977;1,6149233;Crédit Agricole - Toulouse 31
Relais CA Relais CA (tabac presse) - Beaumont-sur-Lèze;1 Rue des Écoles, 31870 Beaumont-sur-Lèze;31870;43,3810119;1,357430099999988;Crédit Agricole - Toulouse 31
Agence bancaire BEAUZELLE;79 Rue des Pins, 31700 Beauzelle;31700;;;Crédit Agricole - Toulouse 31
Agence bancaire BESSIERES;657 A Route de Montauban, 31660 Bessieres;31660;;;Crédit Agricole - Toulouse 31
Relais CA Relais CA (tabac presse) - Bérat;17 Chemin de la Carrère, 31370 Bérat;31370;43,3802019;1,176111200000037;Crédit Agricole - Toulouse 31
Agence bancaire AGENCE DES PROFESSIONNELS OUEST;29 Avenue d'Andromede, 31700 Blagnac;31700;43,6564278;1,371605499999987;Crédit Agricole - Toulouse 31
Agence bancaire BLAGNAC;11 Rue Prosper Ferradou, 31700 Blagnac;31700;43,6343707;1,396659099999965;Crédit Agricole - Toulouse 31
Agence bancaire BLAGNAC ANDROMEDE;Carre Mondrian - ZAC Andromede 29A, avenue d'Andromede, 31700 Blagnac;31700;43,656178;1,371666;Crédit Agricole - Toulouse 31
Guichet Automatique de banque Distributeur Marronniers;7 Place des Marronniers, 31700 Blagnac;31700;43,6358601;1,384100499999931;Crédit Agricole - Toulouse 31
Guichet Automatique de banque Distributeur Bouloc;7 Rue du Fontanas, 31620 Bouloc;31620;43,7803653;1,405090299999984;Crédit Agricole - Toulouse 31
Agence bancaire BOULOGNE SUR GESSE;Place de la Mairie, 31350 Boulogne Sur Gesse;31350;;;Crédit Agricole - Toulouse 31
Relais CA Relais CA (tabac presse Brax) - Brax;10 Place du Château, 31490 Brax;31490;43,6170165;1,240845199999967;Crédit Agricole - Toulouse 31
Agence bancaire BRUGUIERES;17 Place de la Republique, 31150 Bruguieres;31150;;;Crédit Agricole - Toulouse 31
Relais CA Relais CA(Tabac presse) - Buzet-sur-Tarn;95 Le Promenade, 31660 Buzet-sur-Tarn;31660;43,7795534;1,633744500000034;Crédit Agricole - Toulouse 31
Agence bancaire CADOURS;12 Cours des Anciens Combattants, 31480 Cadours;31480;;;Crédit Agricole - Toulouse 31
Relais CA Relais CA (La Source épicerie multi-services) - Caignac;10 Grand Rue, 31560 Caignac;31560;43,3202647223797;1,712550843239455;Crédit Agricole - Toulouse 31
Relais CA Relais CA (tabac - alimentation) - Calmont;3 Rue du Temple, 31560 Calmont;31560;43,2869659;1,632872700000007;Crédit Agricole - Toulouse 31
Agence bancaire ANTENNE DES PROFESSIONNELS EST CARAMAN;9 Cours Alsace Lorraine, 31460 Caraman;31460;43,5301491;1,758502399999998;Crédit Agricole - Toulouse 31
Agence bancaire CARAMAN;9 Cours Alsace Lorraine, 31460 Caraman;31460;43,5301491;1,758502399999998;Crédit Agricole - Toulouse 31
Agence bancaire ANTENNE DES PROFESSIONNELS SUD CARBONNE;10 Rue Gambetta, 31390 Carbonne;31390;43,294706;1,226497;Crédit Agricole - Toulouse 31
Agence bancaire CARBONNE;10 Rue Gambetta, 31390 Carbonne;31390;43,29467;1,22632;Crédit Agricole - Toulouse 31
Agence bancaire CASTANET TOLOSAN;46 Avenue de Toulouse, 31320 Castanet-Tolosan;31320;;;Crédit Agricole - Toulouse 31
Agence bancaire CASTELGINEST;5 Rue Magressolles, 31780 Castelginest;31780;;;Crédit Agricole - Toulouse 31
Relais CA Relais CA (restaurant tabac Le Flamingo) - Castelmaurou;13 Route d'Albi, 31180 Castelmaurou;31180;43,6779002;1,534238800000026;Crédit Agricole - Toulouse 31
Guichet Automatique de banque Distributeur Castenau-d'Estrétefonds;1 Avenue de Toulouse, 31620 Castelnau-d'Estrétefonds;31620;43,7801019;1,360619799999995;Crédit Agricole - Toulouse 31
Agence bancaire CAZERES;26 Boulevard Jean Jaures, 31220 Cazeres;31220;;;Crédit Agricole - Toulouse 31
Relais CA Relais CA (tabac - alimentation) - Cepet;187 Avenue de Toulouse, 31790 Cepet;31790;43,7480133;1,432238200000029;Crédit Agricole - Toulouse 31
Relais CA Relais CA (alimentation tabac presse) - Chein-Dessus;Place de l'Eglise, 31160 Chein-Dessus;31160;43,01858165069166;0,8832820252473539;Crédit Agricole - Toulouse 31
Relais CA Relais CA (boulangerie) - Cierp-Gaud;59 Rue du Docteur Huguet, 31440 Cierp-Gaud;31440;42,9166241;0,6405366000000186;Crédit Agricole - Toulouse 31
Agence bancaire CINTEGABELLE;23 Rue de la Republique, 31550 Cintegabelle;31550;;;Crédit Agricole - Toulouse 31
Agence bancaire COLOMIERS HOTEL DE VILLE;12 Allee du Roussillon, 31770 Colomiers;31770;43,6098074;1,335045000000036;Crédit Agricole - Toulouse 31
Agence bancaire COLOMIERS VILLAGE;4 Rue de l'eglise, 31770 Colomiers;31770;43,6125;1,33894;Crédit Agricole - Toulouse 31
Agence bancaire CORNEBARRIEU;Immeuble de la Villanelle Route de Toulouse, 31700 Cornebarrieu;31700;;;Crédit Agricole - Toulouse 31
Agence bancaire CUGNAUX;10 Avenue de Toulouse, 31270 Cugnaux;31270;;;Crédit Agricole - Toulouse 31
Relais CA Relais CA (tabac presse Yogayo) - Donneville;29 Route Nationale 113, 31450 Donneville;31450;43,4724393;1,5518161;Crédit Agricole - Toulouse 31
Agence bancaire ESCALQUENS;6 Place de la Cousquille, 31750 Escalquens;31750;;;Crédit Agricole - Toulouse 31
Agence bancaire FENOUILLET;1 Avenue des Sports, 31150 Fenouillet;31150;;;Crédit Agricole - Toulouse 31
Agence bancaire FONSORBES;2002 Route de Tarbes, 31470 Fonsorbes;31470;;;Crédit Agricole - Toulouse 31
Relais CA Relais CA (Tabac presse) - Fontenilles;14 Place Campariol, 31470 Fontenilles;31470;43,5480479;1,193418100000031;Crédit Agricole - Toulouse 31
Agence bancaire ANTENNE DES PROFESSIONNELS NORD FRONTON;1-2, place du 11 Novembre 1918, 31620 Fronton;31620;43,841177;1,389207;Crédit Agricole - Toulouse 31
Agence bancaire FRONTON;1-2 Place du 11 Novembre 1918, 31620 Fronton;31620;43,8411;1,38972;Crédit Agricole - Toulouse 31
Relais CA Relais CA (tabac presse Ray) - Frouzins;38 Rue de la République, 31270 Frouzins;31270;43,5156874;1,325138400000014;Crédit Agricole - Toulouse 31
Relais CA Relais CA (Bar tabac brasserie La Fontaine) - Gagnac-sur-Garonne;87 Rue de la Voie Romaine, 31150 Gagnac-sur-Garonne;31150;43,705232;1,3762222;Crédit Agricole - Toulouse 31
Relais CA Relais CA (tabac presse Loto) - Gardouch;6 Avenue du Lauragais, 31290 Gardouch;31290;43,390592;1,684423000000038;Crédit Agricole - Toulouse 31
Relais CA Relais CA (Maeva Sport) - Gouaux-de-Larboust;Station Les Agudes, 31110 Gouaux-de-Larboust;31110;42,78746953090452;0,477991428287396;Crédit Agricole - Toulouse 31
Agence bancaire GOURDAN MONTREJEAU;Zone Commerciale Lane Bazert, 31210 Gourdan-Polignan;31210;;;Crédit Agricole - Toulouse 31
Relais CA Relais CA (Tabac presse Loto) - Gratentour;6A Rue Léo Ferré, 31150 Gratentour;31150;43,7229338;1,432106100000055;Crédit Agricole - Toulouse 31
Agence bancaire ANTENNE DES PROFESSIONNELS NORD GRENADE;77 Rue de la République, 31330 Grenade Sur Garonne;31330;43,772574;1,292889;Crédit Agricole - Toulouse 31
Agence bancaire GRENADE SUR GARONNE;77 Rue de la Republique, 31330 Grenade Sur Garonne;31330;43,77251;1,29291;Crédit Agricole - Toulouse 31
Relais CA Chez COCO - Grépiac;29 Grande Rue Saint-Martin, 31190 Grépiac;31190;43,4053952;1,446852100000001;Crédit Agricole - Toulouse 31
Agence bancaire L'ISLE EN DODON;12 Place du Bourguet, 31230 L'Isle-en-Dodon;31230;;;Crédit Agricole - Toulouse 31
Agence bancaire L'UNION;43 Avenue de Toulouse, 31240 L'Union;31240;;;Crédit Agricole - Toulouse 31
Agence bancaire LA SALVETAT SAINT GILLES;2 bis Avenue des Capitouls, 31880 La Savetat Saint Gilles;31880;;;Crédit Agricole - Toulouse 31
Relais CA Relais CA (Tabac presse Le Massenet) - Labarthe-Rivière;5 Place Jules Massenet, 31800 Labarthe-Rivière;31800;43,08112916293234;0,6717583402390801;Crédit Agricole - Toulouse 31
Agence bancaire LABARTHE SUR LEZE;Chemin des Agries, 31860 Labarthe-sur-Leze;31860;;;Crédit Agricole - Toulouse 31
Relais CA Relais CA (superette Labas Tienda) - Labastide-Beauvoir;7b Avenue du Lauragais, 31450 Labastide-Beauvoir;31450;43,4831656;1,664750000000026;Crédit Agricole - Toulouse 31
Relais CA Relais CA (Tabac presse alimentation) - Labastide-Saint-Sernin;37 Rue Jean Pascal, 31620 Labastide-Saint-Sernin;31620;43,7395489;1,471015500000021;Crédit Agricole - Toulouse 31
Agence bancaire AGENCE DES PROFESSIONNELS EST;Immeuble Stratege batiment B1 1, rue Ampere, 31670 Labege;31670;;;Crédit Agricole - Toulouse 31
Guichet Automatique de banque Distributeur Lacroix Falgarde;Centre Commercial Verte Campagne, 31120 Lacroix-Falgarde;31120;43,504799;1,411511;Crédit Agricole - Toulouse 31
Relais CA Relais CA (tabac presse) - Lagardelle-sur-Lèze;8 Rue de l'Oratoire, 31870 Lagardelle-sur-Lèze;31870;43,4120689;1,388061200000038;Crédit Agricole - Toulouse 31
Agence bancaire LANTA;6 ter Route de Caraman, 31570 Lanta;31570;;;Crédit Agricole - Toulouse 31
Relais CA Relais CA (Carrefour Express) - Lapeyrouse-Fossat;Rue des Poiriers, 31180 Lapeyrouse-Fossat;31180;43,69483376697092;1,515441502307908;Crédit Agricole - Toulouse 31
Relais CA Relais CA (L'Atelier des Pains) - Launac;Rue du Parc, 31330 Launac;31330;43,7430039;1,1828383;Crédit Agricole - Toulouse 31
Relais CA Relais CA (Bar tabac Le Lavalette) - Lavalette;11 Rue Jean Parisot, 31590 Lavalette;31590;43,6377678;1,5959519;Crédit Agricole - Toulouse 31
Relais CA Relais CA (restaurant Chez Kim) - Lavelanet-de-Comminges;425 bis Route de Saint-Julien, 31220 Lavelanet-de-Comminges;31220;43,25525444486082;1,119511362110188;Crédit Agricole - Toulouse 31
Guichet Automatique de banque Distributeur Lavernose-Lacasse;Avenue des Pyrénées, 31410 Lavernose-Lacasse;31410;43,394354;1,259787;Crédit Agricole - Toulouse 31
Relais CA Relais CA (Le Kasin tabac presse) - Lavernose-Lacasse;1 Avenue des Pyrénées, 31410 Lavernose-Lacasse;31410;43,3940577;1,259959600000002;Crédit Agricole - Toulouse 31
Agence bancaire LE FOUSSERET;1 Rue Sicard, 31430 Le Fousseret;31430;;;Crédit Agricole - Toulouse 31
Relais CA Relais CA (alimentation) - Le Plan;Fossé D'Aquillon, 31220 Le Plan;31220;43,167117;1,12021290000007;Crédit Agricole - Toulouse 31
Agence bancaire LEGUEVIN;1 Rue de la Bastide, 31490 Leguevin;31490;;;Crédit Agricole - Toulouse 31
Agence bancaire LEVIGNAC;64 avenue de la Republique test, 31530 Levignac;31530;;;Crédit Agricole - Toulouse 31
Relais CA Relais CA (tabac presse) - Lherm;3 Place de l'Église, 31600 Lherm;31600;43,4299885;1,222628500000042;Crédit Agricole - Toulouse 31
Relais CA Relais CA (Le Fournil de Longages) - Longages;7 Rue de l'Oasis, 31410 Longages;31410;43,3551176;1,239605900000015;Crédit Agricole - Toulouse 31
Relais CA Relais CA (Auberge de Loubens) - Loubens-Lauragais;13 Place de la Halle, 31460 Loubens-Lauragais;31460;43,5734236;1,784528399999999;Crédit Agricole - Toulouse 31
Guichet Automatique de banque Distributeur Martres-Tolosane;8 Boulevard de la Magdeleine, 31220 Martres-Tolosane;31220;43,1982837;1,01066830000002;Crédit Agricole - Toulouse 31
Relais CA Relais CA  (tabac presse) - Martres-Tolosane;20 Boulevard du Nord, 31220 Martres-Tolosane;31220;43,2000693;1,011382099999992;Crédit Agricole - Toulouse 31
Relais CA Relais CA (Le Café des Sports) - Mazères-sur-Salat;1 place de la Mairie, 31260 Mazères-sur-Salat;31260;43,13315532691842;0,974066734970279;Crédit Agricole - Toulouse 31
Guichet Automatique de banque Distributeur Merville;27 Rue du Huit Mai 1945, 31330 Merville;31330;43,7215863;1,297679399999993;Crédit Agricole - Toulouse 31
Guichet Automatique de banque Distributeur Mondonville;Centre Commercial Le Moulin à Vent, 31700 Mondonville;31700;43,672783;1,283989;Crédit Agricole - Toulouse 31
Relais CA Relais CA (Tabac Loto) - Montaigut-sur-Save;9 Route de Toulouse, 31530 Montaigut-sur-Save;31530;43,6917202;1,2312585;Crédit Agricole - Toulouse 31
Agence bancaire MONTASTRUC LA CONSEILLERE;15 Avenue du General Curieres de Castelnau, 31380 Montastruc la Conseillere;31380;;;Crédit Agricole - Toulouse 31
Relais CA Relais CA (tabac La Presse de Montberon) - Montberon;2 Place Aimé Lacanal, 31140 Montberon;31140;43,71657285673712;1,480826884384669;Crédit Agricole - Toulouse 31
Agence bancaire MONTESQUIEU VOLVESTRE;7 Rue Mages, 31310 Montesquieu-Volvestre;31310;;;Crédit Agricole - Toulouse 31
Agence bancaire MONTGISCARD;Lieu-dit En Rouzaut RN 113 Centre Commercial, 31450 Montgiscard;31450;;;Crédit Agricole - Toulouse 31
Relais CA Relais CA (Bar tabac Le Vidalot) - Montjoire;Route de Bessières, 31380 Montjoire;31380;43,76769312857439;1,544793119080015;Crédit Agricole - Toulouse 31
Guichet Automatique de banque Distributeur Montréjeau;2 Place Valentin Abeille, 31210 Montréjeau;31210;43,08525789999999;0,568809500000043;Crédit Agricole - Toulouse 31
Agence bancaire AGENCE DES PROFESSIONNELS SUD;181-185-187, avenue Jacques Douzans, 31600 Muret;31600;43,473;1,33087;Crédit Agricole - Toulouse 31
Agence bancaire MURET;3 Avenue Saint-Germier, 31600 Muret;31600;43,4618213;1,324087999999961;Crédit Agricole - Toulouse 31
Agence bancaire MURET NORD;187 Avenue Jacques Douzans, 31600 Muret;31600;43,47283720000001;1,330522900000005;Crédit Agricole - Toulouse 31
Agence bancaire NAILLOUX;27 bis Rue de la Republique, 31560 Nailloux;31560;;;Crédit Agricole - Toulouse 31
Relais CA Relais CA (tabac presse) - Noe;4 Place de Pardailhan, 31410 Noe;31410;43,3544241;1,274529099999995;Crédit Agricole - Toulouse 31
Agence bancaire PECHBONNIEU;3 Route de Saint-Loup Cammas, 31140 Pechbonnieu;31140;;;Crédit Agricole - Toulouse 31
Agence bancaire PIBRAC;65 Avenue de Toulouse, 31820 Pibrac;31820;;;Crédit Agricole - Toulouse 31
Relais CA Relais CA (Mag Presse) - Pins-Justaret;21 Chemin de la Croisette, 31860 Pins-Justaret;31860;43,4810052;1,386194700000033;Crédit Agricole - Toulouse 31
Relais CA Relais CA (tabac presse) - Pinsaguel;73 Rue d'Andorre, 31120 Pinsaguel;31120;43,5079722;1,390427300000056;Crédit Agricole - Toulouse 31
Agence bancaire PLAISANCE DU TOUCH;58 Rue du Prat Dessus, 31830 Plaisance-du-Touch;31830;;;Crédit Agricole - Toulouse 31
Agence bancaire PORTET SUR GARONNE;5 Rue Principale, 31120 Portet Sur Garonne;31120;;;Crédit Agricole - Toulouse 31
Agence bancaire FONSEGRIVES;1 Cours Goudouli, 31130 Quint-Fonsegrives;31130;;;Crédit Agricole - Toulouse 31
Agence bancaire RAMONVILLE SAINT-AGNE;12 Avenue Tolosane, 31520 Ramonville-Saint-Agne;31520;;;Crédit Agricole - Toulouse 31
Agence bancaire ANTENNE DES PROFESSIONNELS EST REVEL;20 Boulevard de la République, 31250 Revel;31250;43,460407;2,003503;Crédit Agricole - Toulouse 31
Agence bancaire REVEL;20 Boulevard de la Republique, 31250 Revel;31250;43,46027;2,00339;Crédit Agricole - Toulouse 31
Agence bancaire RIEUMES;18 Allee de la Liberation, 31370 Rieumes;31370;;;Crédit Agricole - Toulouse 31
Guichet Automatique de banque Distributeur Rieux Volvestre;15 Rue du Préau, 31310 Rieux-Volvestre;31310;43,25783879999999;1,195419000000015;Crédit Agricole - Toulouse 31
Relais CA Relais CA (tabac presse) - Roques;1 Place Jean Jaurès, 31120 Roques;31120;43,5089325;1,375944699999991;Crédit Agricole - Toulouse 31
Relais CA Relais CA (tabac presse) - Roquettes;Centre commercial du Château, 31120 Roquettes;31120;43,4995062;1,365968199999998;Crédit Agricole - Toulouse 31
Agence bancaire ANTENNE DES PROFESSIONNELS NORD ROUFFIAC;Zone Louradou, 31180 Rouffiac-Tolosan;31180;43,67054;1,516167;Crédit Agricole - Toulouse 31
Agence bancaire ROUFFIAC-TOLOSAN;Zone Louradou, 31180 Rouffiac-Tolosan;31180;43,67054;1,516167;Crédit Agricole - Toulouse 31
Agence bancaire AGENCE DES PROFESSIONNELS NORD;13 ter Avenue de Fronton, 31140 Saint Alban;31140;;;Crédit Agricole - Toulouse 31
Agence bancaire ANTENNE DES PROFESSIONNELS SUD SAINT GAUDENS;9 Boulevard Charles de Gaulle, 31800 Saint Gaudens;31800;43,108681;0,721294;Crédit Agricole - Toulouse 31
Agence bancaire SAINT GAUDENS;9 Boulevard Charles de Gaulle, 31800 Saint Gaudens;31800;43,10883;0,72156;Crédit Agricole - Toulouse 31
Agence bancaire SAINT JORY;Lieu dit En Cabourdy D820, 31790 Saint Jory;31790;;;Crédit Agricole - Toulouse 31
Agence bancaire SAINT LYS;1 Avenue de Toulouse, 31470 Saint Lys;31470;;;Crédit Agricole - Toulouse 31
Relais CA Relais CA (alimentation générale) - Saint-Élix-le-Château;1 Le Communal, 31430 Saint-Élix-le-Château;31430;43,28112460534583;1,137128711292235;Crédit Agricole - Toulouse 31
Relais CA Relais CA (coiffure) - Saint-Félix-Lauragais;26 Rue Déodat de Sévérac, 31540 Saint-Félix-Lauragais;31540;43,4489651;1,887068699999986;Crédit Agricole - Toulouse 31
Relais CA Relais CA (Carrefour City) - Saint-Jean;4 Allée Victor Hugo, 31240 Saint-Jean;31240;43,6643279;1,501522799999975;Crédit Agricole - Toulouse 31
Relais CA Relais CA (alimentation générale) - Saint-Léon;place de l'Eglise, 31560 Saint-Léon;31560;43,4016967;1,563115700000026;Crédit Agricole - Toulouse 31
Relais CA Relais CA (tabac presse) - Saint-Martory;6 Rue du Centre, 31360 Saint-Martory;31360;43,1423569;0,9297285000000102;Crédit Agricole - Toulouse 31
Agence bancaire SAINT ORENS DE GAMEVILLE;35 Avenue de Gameville, 31650 Saint-Orens-de-Gameville;31650;;;Crédit Agricole - Toulouse 31
Guichet Automatique de banque Distributeur Saint-Sulpice-sur-Lèze;Place de l'Hôtel de Ville, 31410 Saint-Sulpice-sur-Lèze;31410;43,328462;1,322337;Crédit Agricole - Toulouse 31
Agence bancaire SALIES-DU-SALAT;2 Boulevard des Thermes, 31260 Salies-du-Salat;31260;;;Crédit Agricole - Toulouse 31
Relais CA Relais CA (Tabac Severac) - Seilh;16 Route de Grenade, 31840 Seilh;31840;43,6951849;1,3516525;Crédit Agricole - Toulouse 31
Agence bancaire SEYSSES;6 Place de la Liberation, 31600 Seysses;31600;;;Crédit Agricole - Toulouse 31
Relais CA Relais CA (Le P'tit Soueichois alimentation) - Soueich;1 impasse des Colporteurs, 31160 Soueich;31160;43,04606389251438;0,7795036400351592;Crédit Agricole - Toulouse 31
Agence bancaire AGENCE DES PROFESSIONNELS CENTRE;63 Boulevard Lazare Carnot, 31000 Toulouse;31000;43,6040312;1,450001199999974;Crédit Agricole - Toulouse 31
Agence bancaire AGENCE DU DEVELOPPEMENT IMMOBI. ET DES TERRITOIRES;9 Rue Ozenne, 31000 Toulouse;31000;43,5972608;1,446413300000017;Crédit Agricole - Toulouse 31
Agence bancaire Banque Privee;9 Rue Ozenne, 31000 Toulouse;31000;43,5972608;1,4464133;Crédit Agricole - Toulouse 31
Guichet Automatique de banque Distributeur Alsace Lorraine;22 Rue d'Alsace Lorraine, 31000 Toulouse;31000;43,6033335;1,445847700000058;Crédit Agricole - Toulouse 31
Guichet Automatique de banque Distributeur Bayard;40 Rue de Bayard, 31000 Toulouse;31000;43,6097963;1,449657200000047;Crédit Agricole - Toulouse 31
Guichet Automatique de banque Distributeur Bedouce;69 Avenue Albert Bedouce, 31400 Toulouse;31400;43,5791157;1,458771200000001;Crédit Agricole - Toulouse 31
Guichet Automatique de banque Distributeur Carmes;9 Place des Carmes, 31000 Toulouse;31000;43,5976995;1,444183599999974;Crédit Agricole - Toulouse 31
Guichet Automatique de banque Distributeur Concorde;21 Rue de la Concorde, 31000 Toulouse;31000;43,6118987;1,444714999999974;Crédit Agricole - Toulouse 31
Guichet Automatique de banque Distributeur Daurade;6 Place de la Daurade, 31000 Toulouse;31000;43,6017826;1,43974819999994;Crédit Agricole - Toulouse 31
Guichet Automatique de banque Distributeur Dupuy;12 Place Dupuy, 31000 Toulouse;31000;43,6003702;1,454759400000057;Crédit Agricole - Toulouse 31
Guichet Automatique de banque Distributeur Gabriel Péri;11 Rue Gabriel Péri, 31000 Toulouse;31000;43,6058883;1,451436199999989;Crédit Agricole - Toulouse 31
Guichet Automatique de banque Distributeur Lafayette;1 Rue Lafayette, 31000 Toulouse;31000;43,6050237;1,443980099999976;Crédit Agricole - Toulouse 31
Guichet Automatique de banque Distributeur Lafourcade;4 Place Lafourcade, 31400 Toulouse;31400;43,5920067;1,444361800000024;Crédit Agricole - Toulouse 31
Guichet Automatique de banque Distributeur Maourines;61 Avenue Maurice Bourges-Maunoury, 31200 Toulouse;31200;43,6399646;1,451915800000052;Crédit Agricole - Toulouse 31
Guichet Automatique de banque Distributeur Ozenne;9 Rue Ozenne, 31000 Toulouse;31000;43,5972608;1,446413300000017;Crédit Agricole - Toulouse 31
Guichet Automatique de banque Distributeur Peyrou;6 Place du Peyrou, 31000 Toulouse;31000;43,6074378;1,440090000000055;Crédit Agricole - Toulouse 31
Guichet Automatique de banque Distributeur Ravelin;1 Place du Ravelin, 31100 Toulouse;31100;43,5990182;1,428995999999984;Crédit Agricole - Toulouse 31
Guichet Automatique de banque Distributeur Saint-Georges;4 Place Saint-Georges, 31000 Toulouse;31000;43,6017872;1,4475281;Crédit Agricole - Toulouse 31
Guichet Automatique de banque Distributeur Strasbourg;42 Boulevard de Strasbourg, 31000 Toulouse;31000;43,609004;1,445619999999963;Crédit Agricole - Toulouse 31
Guichet Automatique de banque Distributeur Taur;4 Rue du Taur, 31000 Toulouse;31000;43,6052572;1,442789700000048;Crédit Agricole - Toulouse 31
Guichet Automatique de banque Distributeur Victor Hugo;21 Place Victor Hugo, 31000 Toulouse;31000;43,6065803;1,446198999999979;Crédit Agricole - Toulouse 31
Guichet Automatique de banque Distributeur Wilson;5 Allées du Président Franklin Roosevelt, 31000 Toulouse;31000;43,6055166;1,447844000000032;Crédit Agricole - Toulouse 31
Agence bancaire ENTREPRISES;9 Rue Theodore Ozenne, 31000 Toulouse;31000;43,5967952;1,4468585;Crédit Agricole - Toulouse 31
Agence bancaire GRANDES ENTREPRISES INVESTISSEURS INSTITUTIONNELS;9 Rue Ozenne, 31000 Toulouse;31000;43,5972608;1,446413300000017;Crédit Agricole - Toulouse 31
Agence bancaire HABITAT CONSEIL;1 Rue Matabiau, 31000 Toulouse;31000;43,6101337;1,4463952;Crédit Agricole - Toulouse 31
Relais CA Relais CA (restaurant tabac Les Marronniers) - Toulouse;125 Route de Bayonne, 31300 Toulouse;31300;43,608233;1,382260299999984;Crédit Agricole - Toulouse 31
Relais CA Relais CA (tabac presse Les 7 Deniers) - Toulouse;81 Route de Blagnac, 31200 Toulouse;31200;43,6153136;1,409860999999978;Crédit Agricole - Toulouse 31
Agence bancaire TOULOUSE AVENUE DE MURET;55 Avenue de Muret, 31300 Toulouse;31300;43,581673;1,4245253;Crédit Agricole - Toulouse 31
Agence bancaire TOULOUSE BONNEFOY;66 Rue du Faubourg Bonnefoy, 31500 Toulouse;31500;43,6199857;1,457554200000004;Crédit Agricole - Toulouse 31
Agence bancaire TOULOUSE CAMILLE PUJOL;117 Avenue Camille Pujol, 31500 Toulouse;31500;43,6007818;1,466446200000064;Crédit Agricole - Toulouse 31
Agence bancaire TOULOUSE CAPITOLE;3 Place du Capitole, 31000 Toulouse;31000;43,6037542;1,443714399999976;Crédit Agricole - Toulouse 31
Agence bancaire TOULOUSE COMPANS CAFFARELLI;5 Boulevard Lascrosses, 31000 Toulouse;31000;43,6110542;1,43775299999993;Crédit Agricole - Toulouse 31
Agence bancaire TOULOUSE CROIX DAURADE;126 Route d'Albi, 31200 Toulouse;31200;43,6363427;1,464451499999996;Crédit Agricole - Toulouse 31
Agence bancaire TOULOUSE DUPUY;18 Place Dupuy, 31000 Toulouse;31000;43,5993218;1,454608399999984;Crédit Agricole - Toulouse 31
Agence bancaire TOULOUSE JEAN JAURES;1-3 Allees du President Franklin Roosevelt, 31000 Toulouse;31000;43,6054562;1,447841100000005;Crédit Agricole - Toulouse 31
Agence bancaire TOULOUSE JEANNE D'ARC;6 Place Jeanne d'Arc, 31000 Toulouse;31000;43,6097921;1,44626889999995;Crédit Agricole - Toulouse 31
Agence bancaire TOULOUSE JULES JULIEN;58 Avenue Jules Julien, 31400 Toulouse;31400;43,5763272;1,45128509999995;Crédit Agricole - Toulouse 31
Agence bancaire TOULOUSE L'ORMEAU;343 Avenue Jean Rieux, 31500 Toulouse;31500;43,5793185;1,483762599999977;Crédit Agricole - Toulouse 31
Agence bancaire TOULOUSE LA ROSERAIE;23 Route d'Agde, 31500 Toulouse;31500;43,6225185;1,472078399999987;Crédit Agricole - Toulouse 31
Agence bancaire TOULOUSE LA TERRASSE;1 Rue du Mont Ventoux, 31500 Toulouse;31500;43,58681199999999;1,482337199999961;Crédit Agricole - Toulouse 31
Agence bancaire TOULOUSE LA VACHE;8 bis Rue Paul Verlaine, 31200 Toulouse;31200;43,63342;1,43536;Crédit Agricole - Toulouse 31
Agence bancaire TOULOUSE LARDENNE;267 Avenue de Lardenne, 31100 Toulouse;31100;43,5898865;1,377531800000042;Crédit Agricole - Toulouse 31
Agence bancaire TOULOUSE MAOURINES;61 Avenue Maurice Bourges-Maunoury, 31200 Toulouse;31200;43,6399646;1,451915800000052;Crédit Agricole - Toulouse 31
Agence bancaire TOULOUSE MINIMES;128 Avenue des Minimes, 31200 Toulouse;31200;43,6235846;1,43481589999999;Crédit Agricole - Toulouse 31
Agence bancaire TOULOUSE OLIVIER;13 Place Olivier, 31300 Toulouse;31300;43,5986156;1,434519200000068;Crédit Agricole - Toulouse 31
Agence bancaire TOULOUSE OZENNE;9 Rue Ozenne, 31000 Toulouse;31000;43,59726500000001;1,4464135;Crédit Agricole - Toulouse 31
Agence bancaire TOULOUSE PATTE D'OIE;8 Place de la Patte d'Oie, 31300 Toulouse;31300;43,5960499;1,423052900000016;Crédit Agricole - Toulouse 31
Agence bancaire TOULOUSE PONT DES DEMOISELLES;15 Avenue Saint-Exupery, 31400 Toulouse;31400;43,5872011;1,462256499999967;Crédit Agricole - Toulouse 31
Agence bancaire TOULOUSE SAINT SIMON;61 Chemin de Basso Cambo, 31100 Toulouse;31100;43,5573205;1,380050200000028;Crédit Agricole - Toulouse 31
Agence bancaire TOURNEFEUILLE;4 Boulevard Vincent Auriol, 31170 Tournefeuille;31170;;;Crédit Agricole - Toulouse 31
Agence bancaire VENERQUE;28 Grand-Rue Remusat, 31810 Venerque;31810;;;Crédit Agricole - Toulouse 31
Agence bancaire VERFEIL;4 Place Francois Mitterrand, 31590 Verfeil;31590;;;Crédit Agricole - Toulouse 31
Agence bancaire ANTENNE DES PROFESSIONNELS EST VILLEFRANCHE;110 Rue de la République, 31290 Villefranche-De-Lauragais;31290;43,399754;1,716188;Crédit Agricole - Toulouse 31
Agence bancaire VILLEFRANCHE-DE-LAURAGAIS;110 Rue de la Republique, 31290 Villefranche-De-Lauragais;31290;43,39965;1,71604;Crédit Agricole - Toulouse 31
Agence bancaire VILLEMUR-SUR-TARN;45  Allees Charles de Gaulle, 31340 Villemur-Sur-Tarn;31340;;;Crédit Agricole - Toulouse 31
Agence bancaire VILLENEUVE TOLOSANE;3 Avenue de Cugnaux, 31270 Villeneuve-Tolosane;31270;;;Crédit Agricole - Toulouse 31
