nom;adresse;code_postal;latitude;longitude;region_source
Relais CA S.A.R.L. AUX GOURMETS VIVAL - ALLIGNY COSNE;16 B ROUTE DE BOUHY, 58200 ALLIGNY COSNE;58200;47,4544;3,06260999999995;Crédit Agricole - Centre Loire
Relais CA LE FOURNIL D ALLOGNY - Allogny;1 Route d'Henrichemont, 18110 Allogny;18110;47,22539219999999;2,320256200000017;Crédit Agricole - Centre Loire
Agence bancaire 100 POUR CENT HABITAT MONTARGIS;699 Avenue d'Antibes, 45200 Amilly;45200;47,981017;2,733124;Crédit Agricole - Centre Loire
Agence bancaire AMILLY AGENCE HABITAT PATRIMOINE;699 Avenue d'Antibes, 45200 Amilly;45200;47,981017;2,7331239;Crédit Agricole - Centre Loire
Agence bancaire AMILLY VILLAGE;44 Rue de la Mairie, 45200 AMILLY;45200;47,9749344;2,7672795;Crédit Agricole - Centre Loire
Relais CA SNC MAISON BOUCHET - Amilly;303 Rue du Gros Moulin, 45200 Amilly;45200;47,9679338;2,77467630000001;Crédit Agricole - Centre Loire
Agence bancaire ARGENT SUR SAULDRE;27, Avenue Nationale, 18410 ARGENT SUR SAULDRE;18410;;;Crédit Agricole - Centre Loire
Relais CA POIRIER HELENA-MARIA - ARQUIAN;10 B PLACE JEAN CARRIES LOGEMENT 1, 58310 ARQUIAN;58310;47,54077;2,98804;Crédit Agricole - Centre Loire
Agence bancaire ARTENAY;22, rue d Orléans, 45410 ARTENAY;45410;;;Crédit Agricole - Centre Loire
Agence bancaire AUBIGNY-SUR-NERE;13, Rue Cambournac, 18700 AUBIGNY-SUR-NERE;18700;;;Crédit Agricole - Centre Loire
Relais CA M. GUILLAUDEAU LAURENT - Augy-sur-Aubois;Place de l'Église, 18600 Augy-sur-Aubois;18600;46,78501500000001;2,843301999999994;Crédit Agricole - Centre Loire
Relais CA MME JOELLE BRUNET - AUNAY EN BAZOIS;LE BOURG, 58110 AUNAY EN BAZOIS;58110;47,1166;3,699610000000007;Crédit Agricole - Centre Loire
Relais CA MR CHRISTIAN LESAGE - AUTRY LE CHATEL;2 RUE DE L EGLISE, 45500 AUTRY LE CHATEL;45500;47,5977143;2,601857;Crédit Agricole - Centre Loire
Agence bancaire AVORD;2, Place du Docteur Tillet, 18520 AVORD;18520;;;Crédit Agricole - Centre Loire
Relais CA M OU ME BROCADET PT VRT - Azy;Le Haut Fouillet, 18220 Azy;18220;47,2034026;2,734378600000014;Crédit Agricole - Centre Loire
Relais CA MR AZZEDINE EL HANI   AU RENDEZ VOUS DES CHASSEURS - Azy-le-Vif;Le Bourg, 58240 Azy-le-Vif;58240;46,786108;3,230369999999994;Crédit Agricole - Centre Loire
Agence bancaire BAUGY;14, Rue Saint Martin, 18800 BAUGY;18800;;;Crédit Agricole - Centre Loire
Distributeur automatique de billets BAULE HYPER U 97S1;les coutures, 45130 Baule;45130;47,810866;1,670724999999948;Crédit Agricole - Centre Loire
Agence bancaire BAZOCHES LES GALLERANDES;3, rue Robine, 45480 BAZOCHES LES GALLERANDES;45480;;;Crédit Agricole - Centre Loire
Agence bancaire BEAUGENCY;26, Place du Martroi, 45190 BEAUGENCY;45190;;;Crédit Agricole - Centre Loire
Distributeur automatique de billets BEAULIEU SUR LOIRE97E1;1 Rue de la Gaité, 45630 Beaulieu-sur-Loire;45630;47,5425803;2,817313900000045;Crédit Agricole - Centre Loire
Relais CA MME DEFROMERIE MAGALI - BEAUMONT LA FERRIERE;CAFE DES BERTRANGES, 58700 BEAUMONT LA FERRIERE;58700;47,1904;3,225609999999961;Crédit Agricole - Centre Loire
Agence bancaire BEAUNE LA ROLANDE;12 bis, Mail est, 45340 BEAUNE LA ROLANDE;45340;;;Crédit Agricole - Centre Loire
Agence bancaire BELLEGARDE;5, rue Demersay, 45270 BELLEGARDE;45270;;;Crédit Agricole - Centre Loire
Relais CA MR M TROMPAT POINT VERT - BENGY SUR CRAON;1 GRANDE RUE, 18520 BENGY SUR CRAON;18520;46,9994389;2,7482392;Crédit Agricole - Centre Loire
Relais CA M OU MME BRUNO CYPRES LA BONNE FOI - BESSAIS LE FROMENTAL;17 RUE NATIONALE, 18210 BESSAIS LE FROMENTAL;18210;46,74593;2,76333;Crédit Agricole - Centre Loire
Relais CA MME KARINE RICHETIN - Blancafort;8 Petite route d'Argent, 18410 Blancafort;18410;47,52892139999999;2,517701299999999;Crédit Agricole - Centre Loire
Relais CA M. CORTAT XAVIER - Blet;13 Route de Bourges, 18350 Blet;18350;46,8959517;2,729287399999976;Crédit Agricole - Centre Loire
Distributeur automatique de billets BOIGNY SUR BIONNE 97E1;Place des Chevaliers Saint-Lazare, 45760 Boigny-sur-Bionne;45760;47,921671;2,010618000000022;Crédit Agricole - Centre Loire
Distributeur automatique de billets BONNY SUR LOIRE 97E1;4 Place Beaupin Lagier, 45420 Bonny-sur-Loire;45420;47,5601092;2,840367000000015;Crédit Agricole - Centre Loire
Relais CA MR THIERRY THOMELIN - BOUHY;LE BOURG, 58310 BOUHY;58310;47,4857809;3,1656045;Crédit Agricole - Centre Loire
Relais CA MME FRANCOISE LACHASSE - Boulancourt;37 Rue Grande, 77760 Boulancourt;77760;48,2584423;2,436166899999989;Crédit Agricole - Centre Loire
Agence bancaire ASNIERES LES BOURGES;39 place du 14 juillet, 18000 BOURGES;18000;47,1240137;2,4027519;Crédit Agricole - Centre Loire
Agence bancaire BANQUE PRIVEE BOURGES;39 rue Moyenne, 18000 BOURGES;18000;47,081852;2,397469;Crédit Agricole - Centre Loire
Agence bancaire BOURGES AEROPORT;117, Avenue Marcel Haegelen, 18000 BOURGES;18000;47,0710049;2,3779804;Crédit Agricole - Centre Loire
Distributeur automatique de billets BOURGES CARREFOURMARKET;Centre commercial Carrefour, 18000 Bourges;18000;47,0818269;2,403933800000004;Crédit Agricole - Centre Loire
Distributeur automatique de billets BOURGES CARREFOURMARKET 97S1;114 Avenue de Dun-sur-Auron, 18000 Bourges;18000;47,0671912;2,416041199999995;Crédit Agricole - Centre Loire
Distributeur automatique de billets BOURGES CUJAS 97E1;1 Rue Edouard Branly, 18000 Bourges;18000;47,0854529;2,394653800000015;Crédit Agricole - Centre Loire
Agence bancaire BOURGES LITTRE;18, rue Littré, 18000 BOURGES;18000;47,0855745;2,3911571;Crédit Agricole - Centre Loire
Agence bancaire BOURGES MARRONNIERS;1 Rue des hemerettes, 18000 BOURGES;18000;47,079876;2,400623;Crédit Agricole - Centre Loire
Distributeur automatique de billets BOURGES PRADO 97E1;Le Prado, 18000 Bourges;18000;47,0837261;2,384102399999961;Crédit Agricole - Centre Loire
Distributeur automatique de billets BOURGES SAINT BONNET 97E1;1 Rue Parmentier, 18000 Bourges;18000;47,0869722;2,3990508;Crédit Agricole - Centre Loire
Agence bancaire BOURGES TURLY;38-40, rue de Turly, 18000 BOURGES;18000;47,0970872;2,4121817;Crédit Agricole - Centre Loire
Agence bancaire BOURGES VAL D'AURON;Centre Commercial Val d Auron, 18000 BOURGES;18000;47,062914;2,41089;Crédit Agricole - Centre Loire
Agence bancaire CENTRE D'AFFAIRES - PME BOURGES;8 Allée Samuel PATY, 18920 BOURGES Cedex 9, 18000 BOURGES;18920;47,1006879;2,4221802;Crédit Agricole - Centre Loire
Distributeur automatique de billets LE RELAIS DE BOURGES;9155 Rue Nicéphore Niépce, 18000 Bourges;18000;47,0432186;2,3466375;Crédit Agricole - Centre Loire
Agence Immobilière SQUARE HABITAT BOURGES Square Habitat;2 Boulevard Georges Clemenceau, 18000 Bourges;18000;47,0861466;2,398899300000039;Crédit Agricole - Centre Loire
Relais CA SARL RABEUX PERE FILS - BRASSY;ROUTE DE SAULIEU, 58140 BRASSY;58140;47,26203;3,93476;Crédit Agricole - Centre Loire
Relais CA MR PATRICE CORBELIN - Bray-en-Val;11 Rue du Val, 45460 Bray-en-Val;45460;47,8300291;2,365302400000019;Crédit Agricole - Centre Loire
Agence bancaire BRIARE;8, place de la République, 45250 BRIARE;45250;;;Crédit Agricole - Centre Loire
Agence bancaire BRINON-SUR-BEUVRON;Place du Bourg, 58420 BRINON-SUR-BEUVRON;58420;;;Crédit Agricole - Centre Loire
Agence bancaire BRINON-SUR-SAULDRE;9 Grande Rue, 18410 BRINON-SUR-SAULDRE;18410;;;Crédit Agricole - Centre Loire
Relais CA S.N.C. BAR DU COMMERCE - Bruère-Allichamps;2 Avenue de Saint-Amand, 18200 Bruère-Allichamps;18200;46,7693701;2,432887100000016;Crédit Agricole - Centre Loire
Distributeur automatique de billets CEPOY 97E1;1 Rue de la Libération, 45120 Cepoy;45120;48,045442;2,73826269999995;Crédit Agricole - Centre Loire
Agence bancaire CERCY LA TOUR;56, avenue Louis Coudant, 58340 CERCY LA TOUR;58340;;;Crédit Agricole - Centre Loire
Relais CA SARL MB ALIMENTATION - Cerdon;6 Place du Marché, 45620 Cerdon;45620;47,6361971;2,361610700000028;Crédit Agricole - Centre Loire
Relais CA BERTON GUILLAUME BELLEVUE - Cernoy-en-Berry;Rue de Châtillon, 45360 Cernoy-en-Berry;45360;47,5406904;2,668336899999986;Crédit Agricole - Centre Loire
Distributeur automatique de billets CHAINGY 97E1;18 Place du Bourg, 45380 Chaingy;45380;47,88323889999999;1,772477400000071;Crédit Agricole - Centre Loire
Agence bancaire CHALETTE SUR LOING;8 rue Edouard Branly, 45120 CHALETTE SUR LOING;45120;;;Crédit Agricole - Centre Loire
Relais CA M PASCAL DEWOLF CAFE DES SPORTS - CHALIVOY MILON;BOURG, 18130 CHALIVOY MILON;18130;46,8603;3,647829999999999;Crédit Agricole - Centre Loire
Relais CA S.N.C.LE COMPTOIR DES SPORTS - Challuy;17 Route de Lyon, 58000 Challuy;58000;46,97669579999999;3,158762499999966;Crédit Agricole - Centre Loire
Relais CA SARL CP PROXIMARCHE - CHANTENAY ST IMBERT;PLACE DE L EGLISE            ., 58240 CHANTENAY ST IMBERT;58240;46,7330651;3,1833051;Crédit Agricole - Centre Loire
Distributeur automatique de billets CHARENTON DU CHER 97E1;Place Jeanne Buret, 18210 Charenton-du-Cher;18210;46,731347;2,638864000000012;Crédit Agricole - Centre Loire
Distributeur automatique de billets CHAROST 97E1;Place François Chaput, 18290 Charost;18290;46,9923711;2,118367300000045;Crédit Agricole - Centre Loire
Agence bancaire CHATEAU-CHINON;10 bis, Route de Nevers, 58120 CHATEAU-CHINON;58120;;;Crédit Agricole - Centre Loire
Agence bancaire CHATEAUMEILLANT;11, Place Saint Blaise, 18370 CHATEAUMEILLANT;18370;;;Crédit Agricole - Centre Loire
Agence bancaire CHATEAUNEUF SUR CHER;Grande Rue, 18190 CHATEAUNEUF SUR CHER;18190;;;Crédit Agricole - Centre Loire
Agence bancaire CHATEAUNEUF SUR LOIRE;10, rue de la Vrillière, 45110 CHATEAUNEUF SUR LOIRE;45110;;;Crédit Agricole - Centre Loire
Agence bancaire CHATEAURENARD;18 place du Chateau, 45220 CHATEAURENARD;45220;;;Crédit Agricole - Centre Loire
Agence bancaire CHATILLON EN BAZOIS;Rue du Docteur Duret, 58110 CHATILLON EN BAZOIS;58110;;;Crédit Agricole - Centre Loire
Agence bancaire CHATILLON SUR LOIRE;1, Square de la Victoire, 45360 CHATILLON SUR LOIRE;45360;;;Crédit Agricole - Centre Loire
Agence bancaire CHATILLON-COLIGNY;7, Place Montmorency Luxembourg, 45230 CHATILLON-COLIGNY;45230;;;Crédit Agricole - Centre Loire
Relais CA S.A.R.L. WILGTEN - Châteauneuf-Val-de-Bargis;27 Grande Rue, 58350 Châteauneuf-Val-de-Bargis;58350;47,28403669999999;3,226332299999967;Crédit Agricole - Centre Loire
Agence bancaire CHECY;3 Avenue de Patay, 45430 CHECY;45430;;;Crédit Agricole - Centre Loire
Relais CA MLE NOEMIE VINCENT LE - CHEZAL BENOIT;2 GRANDE RUE, 18160 CHEZAL BENOIT;18160;46,8264;2,11396000000002;Crédit Agricole - Centre Loire
Relais CA SARL BOITE AUX LUNETTES - Chilleurs-aux-Bois;8 Place de Romand, 45170 Chilleurs-aux-Bois;45170;48,07118939999999;2,135014800000022;Crédit Agricole - Centre Loire
Relais CA MME OURIDA VOIZENET - Chuelles;7 Rue de Châteaurenard, 45220 Chuelles;45220;48,00269609999999;2,966073700000038;Crédit Agricole - Centre Loire
Agence bancaire CLAMECY;17 avenue de la République, 58501 CLAMECY;58501;;;Crédit Agricole - Centre Loire
Relais CA MR JULIEN GERAULT - CLEMONT;1 PLACE BOYER, 18410 CLEMONT;18410;47,5666;2,305370000000039;Crédit Agricole - Centre Loire
Agence bancaire CLERY SAINT ANDRE;144, rue du maréchal Foch, 45370 CLERY SAINT ANDRE;45370;;;Crédit Agricole - Centre Loire
Agence bancaire CORBEILLES EN GATINAIS;18, Avenue de la Libération, 45490 CORBEILLES EN GATINAIS;45490;;;Crédit Agricole - Centre Loire
Agence bancaire CORBIGNY;13, Avenue Saint-Jean, 58800 CORBIGNY;58800;;;Crédit Agricole - Centre Loire
Agence bancaire COSNE SUR LOIRE;15, Square Gambon, 58201 COSNE SUR LOIRE;58201;;;Crédit Agricole - Centre Loire
Agence bancaire COULANGES LES NEVERS;ZAC de Beauregard, 58660 COULANGES LES NEVERS;58660;;;Crédit Agricole - Centre Loire
Agence bancaire COURTENAY;Place Honoré Combe, 45320 COURTENAY;45320;;;Crédit Agricole - Centre Loire
Relais CA LE P TIT BOUCHON YANNICK DELAGE - CREZANCY EN SANCERRE;14 PLACE EDGARD HUBERT, 18300 CREZANCY EN SANCERRE;18300;47,3051;2,743640000000028;Crédit Agricole - Centre Loire
Agence bancaire 100 POUR CENT HABITAT BOURGES;Résidence Corolle 39-41 rue de Sarrebourg, 18000 CRÉDIT HABITAT BOURGES;18000;;;Crédit Agricole - Centre Loire
Relais CA MR ALAIN LAVAUT COMPTE - CUFFY;LE GUETIN 15 RUE DES ECLUSES, 18150 CUFFY;18150;46,96275;3,05238;Crédit Agricole - Centre Loire
Agence bancaire CULAN;4 Pl. du Champ de Foire, 18270 Culan;18270;;;Crédit Agricole - Centre Loire
Relais CA MME MARIE-ANGE DUMONT - DAMPIERRE SOUS BOUHY;20 GRANDE RUE LE BOURG, 58310 DAMPIERRE SOUS BOUHY;58310;47,49869;3,13512;Crédit Agricole - Centre Loire
Relais CA MR QUENARDEL RELAIS DE ST PIERRE - Dampierre-en-Burly;1 Rue de Saint-Pierre, 45570 Dampierre-en-Burly;45570;47,7617279;2,518843500000003;Crédit Agricole - Centre Loire
Relais CA MONSIEUR GARCIA MANUEL - DECIZE;9 ROUTE DE MOULINS, 58300 DECIZE;58300;46,8233438;3,4523374;Crédit Agricole - Centre Loire
Agence Immobilière SQUARE HABITAT DECIZE Square Habitat;17 Quai de Loire, 58300 Decize;58300;46,82972729999999;3,4631181;Crédit Agricole - Centre Loire
Agence bancaire DECIZE SUR LOIRE;17 Quai de Loire, 58300 DECIZE LOIRE;58300;;;Crédit Agricole - Centre Loire
Relais CA MR OU MME L JOUANNEAU LE DUQUESNE - Donnery;26 Rue Saint-Etienne, 45450 Donnery;45450;47,91506469999999;2,102638399999932;Crédit Agricole - Centre Loire
Agence bancaire DONZY;6 boulevard d'Osmond, 58220 DONZY;58220;;;Crédit Agricole - Centre Loire
Agence bancaire DORDIVES;9, rue Pasteur, 45680 DORDIVES;45680;;;Crédit Agricole - Centre Loire
Agence bancaire DORNES;17 Route de Moulins, 58390 DORNES;58390;;;Crédit Agricole - Centre Loire
Relais CA MR JEAN-PIERRE FLEURY - Dry;1 Rue Francis Carret, 45370 Dry;45370;47,797743;1,715000599999939;Crédit Agricole - Centre Loire
Agence bancaire DUN SUR AURON;1, Place Gustave Vinadelle, 18130 DUN SUR AURON;18130;;;Crédit Agricole - Centre Loire
Relais CA LOUETTE MELODIE LFDJ - Dun-les-Places;Rue du 26 Juin 1944, 58230 Dun-les-Places;58230;47,285244;4,015663000000018;Crédit Agricole - Centre Loire
Distributeur automatique de billets DUN SUR AURON SUPER U;14 bis Route de Bourges, 18340 Dun-sur-Auron;18340;46,8896151;2,569876799999974;Crédit Agricole - Centre Loire
Agence bancaire ENTRAINS SUR NOHAIN;2 place du Puits de Fer, 58410 ENTRAINS SUR NOHAIN;58410;;;Crédit Agricole - Centre Loire
Agence bancaire FAY AUX LOGES;41, Rue Abbé Thomas, 45450 FAY AUX LOGES;45450;;;Crédit Agricole - Centre Loire
Agence bancaire FERRIERES;16, Grande Rue, 45210 FERRIERES;45210;;;Crédit Agricole - Centre Loire
Agence bancaire FLEURY LES AUBRAIS LAMBALLE;100, Boulevard de Lamballe, 45400 FLEURY LES AUBRAIS;45400;;;Crédit Agricole - Centre Loire
Relais CA MME CATHERINE HUSSON - Foëcy;7 Rue Gaston Cornavin, 18500 Foëcy;18500;47,1771476;2,161840500000039;Crédit Agricole - Centre Loire
Agence bancaire FOURCHAMBAULT;65, rue Gambetta, 58600 FOURCHAMBAULT;58600;;;Crédit Agricole - Centre Loire
Agence bancaire FOURS;7, Route de Luzy, 58250 FOURS;58250;;;Crédit Agricole - Centre Loire
Agence bancaire FUSSY;15 route de Paris, 18110 FUSSY;18110;;;Crédit Agricole - Centre Loire
Relais CA S.A.R.L. LA FONTAINE DE GERMIGNY - Germigny-l'Exempt;2 Route de la Guerche, 18150 Germigny-l'Exempt;18150;46,9182284;2,897760800000015;Crédit Agricole - Centre Loire
Agence bancaire GIEN;28, Avenue du Maréchal Leclerc, 45500 GIEN;45500;47,6849935;2,63293147;Crédit Agricole - Centre Loire
Distributeur automatique de billets GIEN AUCHAN 97S1;80 Place de la Victoire, 45500 Gien;45500;47,68835439999999;2,619459099999972;Crédit Agricole - Centre Loire
Agence bancaire GIEN VAL SOLOGNE;Rue de la Bosserie Zone Val Sologne, 45500 GIEN;45500;47,7069452;2,6379975;Crédit Agricole - Centre Loire
Relais CA BOUTTET DAVID - Givraines;8 Rue du Portail, 45300 Givraines;45300;48,1511553;2,381512100000009;Crédit Agricole - Centre Loire
Relais CA BIBRACTE EPCC REGIE - GLUX EN GLENNE;CENTRE ARCHEOLOGIQUE EUROPEEN, 58370 GLUX EN GLENNE;58370;46,9561;4,031039999999962;Crédit Agricole - Centre Loire
Agence bancaire GRACAY;3 rue Félix Pyat, 18310 GRACAY;18310;;;Crédit Agricole - Centre Loire
Agence bancaire GUÉRIGNY;18-20, Grande-Rue, 58130 GUERIGNY;58130;;;Crédit Agricole - Centre Loire
Agence bancaire HENRICHEMONT;Place Henri IV, 18250 HENRICHEMONT;18250;;;Crédit Agricole - Centre Loire
Relais CA MR DUMUR PHILIPPE EPIC HERRY - Herry;42 Rue du Prieuré, 18140 Herry;18140;47,2170928;2,954010700000026;Crédit Agricole - Centre Loire
Relais CA MR THIERRY VILLARD - Huisseau-sur-Mauves;34 Rue du Parc, 45130 Huisseau-sur-Mauves;45130;47,8921929;1,704080100000056;Crédit Agricole - Centre Loire
Agence bancaire IMPHY;38, rue Jean Jaurès, 58160 IMPHY;58160;;;Crédit Agricole - Centre Loire
Agence bancaire INGRÉ;2, place de la mairie, 45140 INGRE;45140;;;Crédit Agricole - Centre Loire
Relais CA DENIS TORREZ - Ivoy-le-Pré;7 Place de la Fontaine, 18380 Ivoy-le-Pré;18380;47,34397209999999;2,48824209999998;Crédit Agricole - Centre Loire
Agence bancaire JARGEAU;2, Boulevard du saumon, 45150 JARGEAU;45150;;;Crédit Agricole - Centre Loire
Relais CA MME SEVERINE BERHAULT - JARS;LE BOURG ROUTE DE VAILLY, 18260 JARS;18260;47,4033947;2,6757158;Crédit Agricole - Centre Loire
Agence bancaire JOUET-SUR-L'AUBOIS;10 Place Daumy, 18320 JOUET-SUR-L'AUBOIS;18320;;;Crédit Agricole - Centre Loire
Relais CA MME MARINETTE BERGER - La Celle;2 Rue des Pèlerins, 18200 La Celle;18200;46,7680905;2,44391829999995;Crédit Agricole - Centre Loire
Agence bancaire LA CHAPELLE SAINT MESMIN;39, Rue Nationale, 45380 LA CHAPELLE SAINT MESMIN;45380;;;Crédit Agricole - Centre Loire
Agence bancaire LA CHAPELLE SAINT URSIN;2, rue de la Gare, 18570 LA CHAPELLE SAINT URSIN;18570;;;Crédit Agricole - Centre Loire
Agence bancaire LA CHARITÉ SUR LOIRE;Place du Général de Gaulle, 58401 LA CHARITE SUR LOIRE;58401;;;Crédit Agricole - Centre Loire
Agence Immobilière SQUARE HABITAT LA CHARITE SUR LOIRE Square Habitat;Place du Général de Gaulle, 58400 La Charité-sur-Loire;58400;47,1768013;3,0189135;Crédit Agricole - Centre Loire
Agence bancaire LA FERTÉ SAINT AUBIN;53, Avenue du Maréchal Leclerc, 45240 LA FERTE SAINT AUBIN;45240;;;Crédit Agricole - Centre Loire
Agence bancaire LA GUERCHE SUR L'AUBOIS;18-20 rue Henri Barbusse, 18150 LA GUERCHE SUR L'AUBOIS;18150;;;Crédit Agricole - Centre Loire
Agence bancaire LA MACHINE;51, avenue de la République, 58260 LA MACHINE;58260;;;Crédit Agricole - Centre Loire
Relais CA MR BRUNO GALMICHE - La Nocle-Maulaix;Le Bourg, 58250 La Nocle-Maulaix;58250;46,7642793;3,779188200000021;Crédit Agricole - Centre Loire
Relais CA SARL PASQUIER - La Selle-sur-le-Bied;24 Rue de Bretagne, 45210 La Selle-sur-le-Bied;45210;48,0658785;2,89162280000005;Crédit Agricole - Centre Loire
Relais CA MR MICHEL RAFFARD - Ladon;27 Rue du Croissant, 45270 Ladon;45270;48,0027998;2,537208999999962;Crédit Agricole - Centre Loire
Relais CA RAFFARD MARINA - Ladon;27 Rue du Croissant, 45270 Ladon;45270;48,0027998;2,537208999999962;Crédit Agricole - Centre Loire
Relais CA MR YVES CHAMPION - Lailly-en-Val;7 Rue du Bourg, 45740 Lailly-en-Val;45740;47,77095;1,68734280000001;Crédit Agricole - Centre Loire
Distributeur automatique de billets LE CHATELET SUPER U;Avenue de l'Europe, 18170 Le Chatelet;18170;46,643302;2,28438200000005;Crédit Agricole - Centre Loire
Agence bancaire LE CHÂTELET EN BERRY;7 Grande Rue, 18170 LE CHATELET EN BERRY;18170;;;Crédit Agricole - Centre Loire
Agence bancaire LERE;35 Grande Rue, 18240 LERE;18240;;;Crédit Agricole - Centre Loire
Agence bancaire LES AIX D'ANGILLON;2 rue de la Liberté, 18220 LES AIX D'ANGILLON;18220;;;Crédit Agricole - Centre Loire
Relais CA TISSERAND EVELYNE - LES AIX D'ANGUILLON;33 Q ROUTE DE RIANS, 18220 LES AIX D'ANGUILLON;18220;47,1992;2,578340000000026;Crédit Agricole - Centre Loire
Relais CA M CHAUMETTE JEAN-MICHEL - Les Bordes;3 Rue de la Mairie, 45460 Les Bordes;45460;47,8130472;2,40255639999998;Crédit Agricole - Centre Loire
Agence bancaire LEVET;36 avenue Nationale, 18340 LEVET;18340;;;Crédit Agricole - Centre Loire
Agence bancaire LIGNIÈRES;13 rue Jean Jaurès, 18160 LIGNIERES;18160;;;Crédit Agricole - Centre Loire
Agence bancaire LORMES;4, rue du Pont-National, 58140 LORMES;58140;;;Crédit Agricole - Centre Loire
Agence bancaire LORRIS;3, Rue Guillaume de Lorris, 45260 LORRIS;45260;;;Crédit Agricole - Centre Loire
Distributeur automatique de billets LOURY SUPER U 97E1;RN 152, 45470 Loury;45470;48,0018839;2,085480999999959;Crédit Agricole - Centre Loire
Agence bancaire LUCENAY LES AIX;rue Théodore de Banville, 58380 LUCENAY LES AIX;58380;;;Crédit Agricole - Centre Loire
Relais CA ASSOCIATION NA  ZDROWIE - LUNERY;4 RUE YVES LACELLE ROSIERES, 18400 LUNERY;18400;46,9357;2,268950000000018;Crédit Agricole - Centre Loire
Relais CA MR OU MME M PORCHERON - Lunery;Place Jacques Georges, 18400 Lunery;18400;46,9356221;2,269446000000016;Crédit Agricole - Centre Loire
Agence bancaire LURY SUR ARNON;7 rue des Tours, 18120 LURY SUR ARNON;18120;;;Crédit Agricole - Centre Loire
Relais CA MR OU MME THERY RESTAURANT LE SAINT HUBERT - Luthenay-Uxeloup;Rue des Bruyères Radon, 58240 Luthenay-Uxeloup;58240;46,8223609;3,246951500000023;Crédit Agricole - Centre Loire
Agence bancaire LUZY;Place du Champ de Foire, 58170 LUZY;58170;;;Crédit Agricole - Centre Loire
Agence bancaire MALESHERBES;5, Place du Martroi, 45330 MALESHERBES;45330;;;Crédit Agricole - Centre Loire
Relais CA SARL LE PRIMEUR DE - MARCILLY EN VILLETTE;296 ROUTE D ORLEANS, 45240 MARCILLY EN VILLETTE;45240;47,7676;2,019859999999994;Crédit Agricole - Centre Loire
Relais CA SARL LE PRIMEUR DE  SOLOGNE - marcilly en villette;296 ROUTE D ORLEANS, 45240 marcilly en villette;45240;47,7676;2,019859999999994;Crédit Agricole - Centre Loire
Relais CA MLE ISABELLE ASSAOULOFF - Mareuil sur Arnon;2 Place du Marché, 18290 Mareuil sur Arnon;18290;46,8796;2,160079999999994;Crédit Agricole - Centre Loire
Relais CA MR MOHAMED FELLAHI - Marigny-les-Usages;Place de l'Église, 45760 Marigny-les-Usages;45760;47,95719889999999;2,015128600000026;Crédit Agricole - Centre Loire
Agence bancaire MARMAGNE;3 rue de la Mairie, 18500 MARMAGNE;18500;;;Crédit Agricole - Centre Loire
Relais CA M OU MME MICHEL SUARD - Marseilles-lès-Aubigny;1 Quai Auguste Mahaut, 18320 Marseilles-lès-Aubigny;18320;47,0683181;3,01430270000003;Crédit Agricole - Centre Loire
Relais CA GRAF AURELIE FDJ - Massay;20 Rue Pasteur, 18120 Massay;18120;47,1526475;1,992176500000028;Crédit Agricole - Centre Loire
Agence bancaire MEHUN-SUR-YÈVRE;8, rue Agnès Sorel, 18500 MEHUN-SUR-YEVRE;18500;;;Crédit Agricole - Centre Loire
Relais CA MLE M-CECILE DA SILVA    HYVERNIN - Meillant;2 Avenue de Saint-Amand, 18200 Meillant;18200;46,7804782;2,504973899999982;Crédit Agricole - Centre Loire
Agence bancaire MENETOU SALON;2 rue de la Mairie, 18510 MENETOU SALON;18510;;;Crédit Agricole - Centre Loire
Relais CA S.N.C. CHERRIER - Mereau;12 Avenue d'Issoudun, 18120 Mereau;18120;47,1629112;2,049724200000014;Crédit Agricole - Centre Loire
Agence bancaire MEUNG SUR LOIRE;46-48, Rue du Général de Gaulle, 45130 MEUNG SUR LOIRE;45130;;;Crédit Agricole - Centre Loire
Relais CA DELANNE MARTINE - Ménestreau-en-Villette;34 Rue du Bourg, 45240 Ménestreau-en-Villette;45240;47,6996376;2,02203499999996;Crédit Agricole - Centre Loire
Relais CA MADAME FATH MARLENE - Monceaux-le-Comte;Rue Edouard Grosjean, 58190 Monceaux-le-Comte;58190;47,32951500000001;3,661775000000034;Crédit Agricole - Centre Loire
Agence bancaire BANQUE PRIVEE MONTARGIS;1 place Jules Ferry, 45200 MONTARGIS;45200;47,996655;2,734359;Crédit Agricole - Centre Loire
Agence bancaire MONTARGIS JULES FERRY;1, Place Jules Ferry, 45200 MONTARGIS;45200;47,9967705;2,7338701;Crédit Agricole - Centre Loire
Agence bancaire MONTARGIS LA CHAUSSÉE;Centre Commercial La Chaussée, 45200 MONTARGIS;45200;47,997968;2,739453;Crédit Agricole - Centre Loire
Agence bancaire MONTSAUCHE;1 place Danielle MITTERRAND, 58230 MONTSAUCHE-LES-SETTONS;58230;;;Crédit Agricole - Centre Loire
Relais CA LA MAISON DES VIES LOCALES TIERS LIEUX DE MOROGUES - Morogues;6 Grande Rue, 18220 Morogues;18220;47,2410917;2,597751399999993;Crédit Agricole - Centre Loire
Agence bancaire MOULINS-ENGILBERT;4, rue des Fossés, 58290 MOULINS-ENGILBERT;58290;;;Crédit Agricole - Centre Loire
Relais CA MR ARNAUD VIGINIER - Nançay;3 Rue de Vierzon, 18330 Nançay;18330;47,3497656;2,194516199999953;Crédit Agricole - Centre Loire
Agence bancaire NÉRONDES;19 Grande Rue, 18350 NERONDES;18350;;;Crédit Agricole - Centre Loire
Relais CA LEVERGER YANN - NEUILLY EN SANCERRE;164 ROUTE DE SANCERRE, 18250 NEUILLY EN SANCERRE;18250;47,3044;2,743069999999989;Crédit Agricole - Centre Loire
Agence bancaire NEUVILLE AUX BOIS;4 allée René Cassin, 45170 NEUVILLE AUX BOIS;45170;;;Crédit Agricole - Centre Loire
Agence bancaire NEUVY SUR BARANGEON;8, Place de la Mairie, 18330 NEUVY SUR BARANGEON;18330;;;Crédit Agricole - Centre Loire
Relais CA MME BRIGITTE POUILLART - NEUVY SUR LOIRE;1 PLACE DE LA PAIX, 58450 NEUVY SUR LOIRE;58450;47,5232;2,881520000000023;Crédit Agricole - Centre Loire
Relais CA MR RENATO BATTAGLIA - Neuvy-en-Sullias;9 Place du Bourg, 45510 Neuvy-en-Sullias;45510;47,7956777;2,244320099999982;Crédit Agricole - Centre Loire
Agence bancaire NEVERS BANLAY;41, Bd Maréchal de Lattre de Tassigny, 58000 NEVERS;58000;46,999455;3,158624;Crédit Agricole - Centre Loire
Agence bancaire NEVERS MAISON DE L'AGRICULTURE;1 rue du Ravelin, 58000 NEVERS;58000;46,9884324;3,1641071;Crédit Agricole - Centre Loire
Agence bancaire NEVERS MONTOTS;92, rue Henri Bouquillard, 58000 NEVERS;58000;46,9945217;3,1347667;Crédit Agricole - Centre Loire
Agence bancaire NEVERS SAINT MARTIN;24 rue des Merciers, 58000 NEVERS;58000;46,9895798;3,1605478;Crédit Agricole - Centre Loire
Agence Immobilière SQUARE HABITAT NEVERS Square Habitat;74 Rue François Mitterrand, 58000 Nevers;58000;46,9901501;3,1621491;Crédit Agricole - Centre Loire
Relais CA EURL AU PETIT MARCHE - Nevoy;135 Rue du Vieux Bourg, 45500 Nevoy;45500;47,7133944;2,580587199999968;Crédit Agricole - Centre Loire
Agence bancaire NOGENT SUR VERNISSON;2, rue Aristide Briand, 45290 NOGENT SUR VERNISSON;45290;;;Crédit Agricole - Centre Loire
Agence bancaire OLIVET;516, Rue Marcel Belot, 45160 OLIVET;45160;47,847423;1,910143;Crédit Agricole - Centre Loire
Distributeur automatique de billets OLIVET LECLERC 97S1;181 Rue d'Artois, 45160 Olivet;45160;47,8425083;1,916668999999956;Crédit Agricole - Centre Loire
Agence bancaire OLIVET PROVINCES;Zac des Provinces 21 rue de Champagne, 45160 OLIVET;45160;47,84142;1,918577;Crédit Agricole - Centre Loire
Relais CA MLE CHERY ELISABETH MULTISERVICE EVENTAIL - Orcenais;27 Route de Marçais, 18200 Orcenais;18200;46,7150775;2,420177299999978;Crédit Agricole - Centre Loire
Agence bancaire GRANDS INVESTISSEURS PRIVES;12, rue de la République, 45000 ORLEANS;45000;1,9092533;47,904311;Crédit Agricole - Centre Loire
Agence bancaire ORLEANS COLIGNY;128, rue du Faubourg Bannier, 45000 ORLEANS;45000;47,915145;1,899485;Crédit Agricole - Centre Loire
Agence bancaire ORLÉANS BOURGOGNE;130 Ter Faubourg Bourgogne, 45000 ORLEANS;45000;47,903817;1,934247;Crédit Agricole - Centre Loire
Agence bancaire ORLÉANS CARMES;14, Rue des Carmes, 45000 ORLEANS;45000;47,9015556;1,9008687;Crédit Agricole - Centre Loire
Agence bancaire ORLÉANS CHOLLET;23, Rue Théophile Chollet, 45000 ORLEANS;45000;47,904311;1,9092533;Crédit Agricole - Centre Loire
Agence bancaire ORLÉANS LA SOURCE;Centre Commercial 2002 35 place du Commerce, 45100 ORLEANS;45100;47,8377896;1,93397999;Crédit Agricole - Centre Loire
Agence bancaire ORLÉANS MADELEINE;14 bis, Faubourg Madeleine, 45000 ORLEANS;45000;47,9009749;1,8898339;Crédit Agricole - Centre Loire
Agence bancaire ORLÉANS ST MARCEAU;98, Avenue Dauphine, 45100 ORLEANS;45100;47,8887474;1,9050143;Crédit Agricole - Centre Loire
Agence bancaire ORMES;résidence le Vieux Puits 110 rue Nationale, 45140 ORMES;45140;;;Crédit Agricole - Centre Loire
Agence bancaire ORVAL;1, Route de Lignières, 18200 ORVAL;18200;;;Crédit Agricole - Centre Loire
Relais CA GUIHARD MARIE-FRANCE - OUROUER LES BOURDELINS;35 GRANDE RUE, 18350 OUROUER LES BOURDELINS;18350;46,9307;2,783419999999978;Crédit Agricole - Centre Loire
Relais CA MME MARTINE BEAUPERE   HOTEL DU LION D'OR - OUROUER LES BOURDELINS;41 GRANDE RUE, 18350 OUROUER LES BOURDELINS;18350;46,930203;2,7832574;Crédit Agricole - Centre Loire
Agence bancaire OUROUX-EN-MORVAN;30 rue du Commerce, 58230 OUROUX-EN-MORVAN;58230;;;Crédit Agricole - Centre Loire
Relais CA M. CHEVALIER MICHEL - Ousson-sur-Loire;5 Rue Daniel Depond, 45250 Ousson-sur-Loire;45250;47,589056;2,785872700000027;Crédit Agricole - Centre Loire
Agence bancaire OUTARVILLE;20 Grande Rue, 45480 OUTARVILLE;45480;;;Crédit Agricole - Centre Loire
Agence bancaire OUZOUER SUR LOIRE;84, rue de Gien, 45570 OUZOUER SUR LOIRE;45570;;;Crédit Agricole - Centre Loire
Agence bancaire PATAY;13, Place Jeanne d'Arc, 45310 PATAY;45310;;;Crédit Agricole - Centre Loire
Relais CA SNC MARTEDDU - Pigny;2 Route de Bourges, 18110 Pigny;18110;47,1700168;2,447030300000051;Crédit Agricole - Centre Loire
Agence bancaire PITHIVIERS;35, Mail ouest, 45300 PITHIVIERS;45300;;;Crédit Agricole - Centre Loire
Relais CA LA P'TITE MILLETTE MME - Planchez;Le Bourg, 58230 Planchez;58230;47,08131;4,00578;Crédit Agricole - Centre Loire
Relais CA LE BERRY LA TERRASSE DE MARCAUT - POILLY LEZ GIEN;5 ALLEE DES MERISIERS, 45500 POILLY LEZ GIEN;45500;47,6712;2,601679999999988;Crédit Agricole - Centre Loire
Relais CA MME BRIGITTE FOUGERON - Poisieux;Le Bourg, 18290 Poisieux;18290;48,3222;0,3314619999999877;Crédit Agricole - Centre Loire
Agence bancaire POUGUES-LES-EAUX;72, avenue de Paris, 58320 POUGUES-LES-EAUX;58320;;;Crédit Agricole - Centre Loire
Agence bancaire AGENCE VITICOLE DE POUILLY;5 Place de la République, 58150 POUILLY-SUR-LOIRE;58150;47,2842861;2,9539722;Crédit Agricole - Centre Loire
Agence bancaire POUILLY-SUR-LOIRE;5 place de la République, 58150 POUILLY-SUR-LOIRE;58150;47,2842861;2,9539722;Crédit Agricole - Centre Loire
Relais CA FERNANDES NATHALIE - Pressigny-les-Pins;17 Route de Montargis, 45290 Pressigny-les-Pins;45290;47,8827419;2,748592700000017;Crédit Agricole - Centre Loire
Agence bancaire PRÉMERY;3 Avenue de la Gare, 58700 Prémery;58700;;;Crédit Agricole - Centre Loire
Agence bancaire PRÉVERANGES;41 Place du Marché, 18370 PRÉVERANGES;18370;;;Crédit Agricole - Centre Loire
Agence bancaire PUISEAUX;2, Place de la République, 45390 PUISEAUX;45390;;;Crédit Agricole - Centre Loire
Relais CA M.JEAN-MARIE SIRE - Quincy;29 Grande Rue, 18120 Quincy;18120;47,1341149;2,1557696;Crédit Agricole - Centre Loire
Relais CA EURL CACY - REBRESCHIEN;48 PLACE DE L EGLISE, 45470 REBRESCHIEN;45470;47,9873;2,04525000000001;Crédit Agricole - Centre Loire
Relais CA LAPORTE VERONIQUE - Rezay;Le Bourg, 18170 Rezay;18170;46,6719124;2,176000599999952;Crédit Agricole - Centre Loire
Agence bancaire SAINT AMAND EN PUISAYE;17 route de Cosne, 58310 SAINT AMAND EN PUISAYE;58310;;;Crédit Agricole - Centre Loire
Agence bancaire SAINT AMAND MONTROND;25, rue Nationale, 18200 SAINT AMAND MONTROND;18200;;;Crédit Agricole - Centre Loire
Agence bancaire SAINT BENIN D'AZY;place du Champ de Foire, 58270 SAINT BENIN D'AZY;58270;;;Crédit Agricole - Centre Loire
Agence bancaire SAINT DENIS DE L'HÔTEL;22 avenue de la Tête verte, 45550 SAINT DENIS DE L'HOTEL;45550;;;Crédit Agricole - Centre Loire
Agence bancaire SAINT DENIS EN VAL;1, rue Saint Denis, 45560 SAINT DENIS EN VAL;45560;;;Crédit Agricole - Centre Loire
Agence bancaire SAINT DOULCHARD;8 place de l'Hôtel de ville, 18230 SAINT DOULCHARD;18230;47,1004796;2,3729505;Crédit Agricole - Centre Loire
Agence bancaire SAINT DOULCHARD MALITORNE;374 route d'Orléans, 18230 SAINT DOULCHARD;18230;47,1076785;2,3784353;Crédit Agricole - Centre Loire
Agence bancaire SAINT FLORENT SUR CHER;Square Henri Barbusse, 18400 SAINT FLORENT SUR CHER;18400;;;Crédit Agricole - Centre Loire
Agence bancaire SAINT GERMAIN DU PUY;Centre Cial  Place du 8 Mai 1945, 18390 SAINT GERMAIN DU PUY;18390;;;Crédit Agricole - Centre Loire
Agence bancaire CAISSE RÉGIONALE DE CRÉDIT AGRICOLE MUTUEL CENTRE LOIRE;26 rue de la Godde BP 45806 Cedex, 45806 SAINT JEAN DE BRAYE;45806;47,912048;1,970843;Crédit Agricole - Centre Loire
Agence bancaire CENTRE D'AFFAIRES - AGENCE ENTREPRISES (PME);Agence Entreprises PME 26, rue de la Godde BP 90071, 45802 SAINT JEAN DE BRAYE;90071;47,919359;1,978247;Crédit Agricole - Centre Loire
Agence bancaire CENTRE D'AFFAIRES - AGENCE SUCCESSION;26 rue de la Godde, 45806 SAINT JEAN DE BRAYE;45806;47,9194;1,978219999999965;Crédit Agricole - Centre Loire
Agence bancaire CENTRE D'AFFAIRES AGENCE ENTREPRISES ORLEANS I.A.A;26 rue de la Godde, 45802 SAINT JEAN DE BRAYE;45802;47,919112;1,978741;Crédit Agricole - Centre Loire
Agence bancaire PROJIMMO;26, rue de la Godde, 45806 SAINT JEAN DE BRAYE;45806;47,919148;1,978859;Crédit Agricole - Centre Loire
Agence bancaire SAINT JEAN DE LA RUELLE;86, rue Charles Beauhaire, 45140 SAINT JEAN DE LA RUELLE;45140;;;Crédit Agricole - Centre Loire
Agence bancaire SAINT JEAN LE BLANC;Clos de l Arche Route de Sandillon, 45650 SAINT JEAN LE BLANC;45650;;;Crédit Agricole - Centre Loire
Agence bancaire SAINT MARTIN D'AUXIGNY;4 avenue de la République, 18110 SAINT MARTIN D'AUXIGNY;18110;;;Crédit Agricole - Centre Loire
Agence bancaire SAINT PIERRE LE MOUTIER;11 rue du 11 Novembre, 58240 SAINT PIERRE LE MOUTIER;58240;;;Crédit Agricole - Centre Loire
Agence bancaire SAINT PRYVÉ SAINT MESMIN;Centre commercial Les 15 Pierres, Avenue du Traité de Rome, 45750 SAINT PRYVE SAINT MESMIN;45750;;;Crédit Agricole - Centre Loire
Agence bancaire SAINT SAULGE;13 bis rue du Champ de Foire, 58330 SAINT SAULGE;58330;;;Crédit Agricole - Centre Loire
Relais CA S.A.R.L. BOULANGERIE BOUVELLE - Saint-Ay;72 Route nationale, 45130 Saint-Ay;45130;47,85975579999999;1,754875900000002;Crédit Agricole - Centre Loire
Relais CA MME SONIA HUREAU - Saint-Cyr-en-Val;165 Rue du 11 Novembre 1918, 45590 Saint-Cyr-en-Val;45590;47,8319631;1,969480599999997;Crédit Agricole - Centre Loire
Distributeur automatique de billets ST CYR EN VAL 97E1;140 Rue du 11 Novembre 1918, 45590 Saint-Cyr-en-Val;45590;47,832086;1,969068300000004;Crédit Agricole - Centre Loire
Relais CA TABAC DE L UNION - Saint-Eloi;17 Rue des Hortensias, 58000 Saint-Eloi;58000;46,9794898;3,226434799999993;Crédit Agricole - Centre Loire
Distributeur automatique de billets ST GERMAIN PUY 4VENT 97E1;Route de la Charité- Lieu dit La Sente à Rabot, 18000 Saint-Germain-du-Puy;18000;47,09578279999999;2,436491400000023;Crédit Agricole - Centre Loire
Relais CA SARL ALIMENTATION GIENNOISE - Saint-Gondon;11 Route de Gien, 45500 Saint-Gondon;45500;47,6984852;2,543029700000034;Crédit Agricole - Centre Loire
Distributeur automatique de billets ST HILAIRE ST MESMIN 97E1;1048 Route d'Orléans, 45160 Saint-Hilaire-Saint-Mesmin;45160;47,8649143;1,832739400000037;Crédit Agricole - Centre Loire
Relais CA SARL DARNAY - Saint-Honoré-les-Bains;53 Rue de L Hâte, 58360 Saint-Honoré-les-Bains;58360;46,908643;3,836471999999958;Crédit Agricole - Centre Loire
Distributeur automatique de billets ST HONORE BAINS CASINO;Avenue Jean Mermoz - parc de l'etablissement thermal, 58360 Saint-Honoré-les-Bains;58360;46,9067776;3,829750099999956;Crédit Agricole - Centre Loire
Agence bancaire AGENCE SAINT JEAN DE BRAYE;30 Rue de la Planche de Pierre, 45800 Saint-Jean-de-Braye;45800;47,9115038;1,9696545;Crédit Agricole - Centre Loire
Agence bancaire Agence Coll. Publiques Communes Cher;Rue de la Godde, 45800 Saint-Jean-de-Braye;45800;47,9215985478579;1,97334077584336;Crédit Agricole - Centre Loire
Agence Immobilière SQUARE HABITAT SAINT JEAN DE BRAYE Square Habitat;30 Rue de la Planche de Pierre, 45800 Saint-Jean-de-Braye;45800;47,9115038;1,9696545;Crédit Agricole - Centre Loire
Agence Immobilière SQUARE HABITAT ST JEAN DE BRAYE Square Habitat;94 Avenue du Général Leclerc, 45800 Saint-Jean-de-Braye;45800;47,9156174;1,972401699999978;Crédit Agricole - Centre Loire
Agence bancaire Secteur Public et Social;Rue de la Godde, 45800 Saint-Jean-de-Braye;45800;47,92161547079493;1,973229408843298;Crédit Agricole - Centre Loire
Relais CA SARL SOREJU - Saint-Just;7 Rue de l'Enfer, 18340 Saint-Just;18340;46,9921098;2,509253599999965;Crédit Agricole - Centre Loire
Relais CA LE MARCHE DU P TIT LEO - Saint-Léger-des-Vignes;1 rue de la loge mairie, 58300 Saint-Léger-des-Vignes;58300;46,839172;3,451337999999964;Crédit Agricole - Centre Loire
Relais CA SNC CARTHY - Saint-Martin-d'Abbat;88 Grande Rue, 45110 Saint-Martin-d'Abbat;45110;47,8568094;2,26726009999993;Crédit Agricole - Centre Loire
Relais CA MME MARTINE GILLET - Saint-Michel-de-Volangis;2 Rue de Bel air, 18390 Saint-Michel-de-Volangis;18390;47,14781199999999;2,488964200000055;Crédit Agricole - Centre Loire
Relais CA M BROSSE ALAIN  LE BALTO - Saint-Père-sur-Loire;1 Rue de Touraine, 45600 Saint-Père-sur-Loire;45600;47,7730257;2,367671599999994;Crédit Agricole - Centre Loire
Relais CA MME M-T GUILLOT PT VERT - Saint-Priest-la-Marche;LE VALERON, 18370 Saint-Priest-la-Marche;18370;46,4485219;2,176621999999952;Crédit Agricole - Centre Loire
Agence bancaire AGENCE VITICOLE DE SANCERRE;4 Route de Chavignol, 18300 Saint-Satur;18300;;;Crédit Agricole - Centre Loire
Relais CA S.A.S. LE 111 - Saint-Seine;Le Bourg, 58250 Saint-Seine;58250;46,733055;3,824049800000012;Crédit Agricole - Centre Loire
Agence bancaire SANCERGUES;Grande Rue, 18140 SANCERGUES;18140;;;Crédit Agricole - Centre Loire
Distributeur automatique de billets SANCERRE VILLE 97E1;3 Place du Puits Saint-Jean, 18300 Sancerre;18300;47,3310377;2,83832689999997;Crédit Agricole - Centre Loire
Agence bancaire SANCOINS;38-40, rue Fernand Duruisseau, 18600 SANCOINS;18600;;;Crédit Agricole - Centre Loire
Distributeur automatique de billets SANDILLON 97E1;7 Route d'Orléans, 45640 Sandillon;45640;47,8454023;2,032812899999954;Crédit Agricole - Centre Loire
Distributeur automatique de billets SANDILLON SUPER U;Route de Jargeau- zone d'activité du bois vert, 45640 Sandillon;45640;47,8504307;2,052736200000027;Crédit Agricole - Centre Loire
Agence bancaire SARAN;182, rue du Bourg, 45770 SARAN;45770;;;Crédit Agricole - Centre Loire
Relais CA S.N.C. AS2V - Sauvigny-les-Bois;27 Route du Morvan, 58160 Sauvigny-les-Bois;58160;46,9835492;3,238068399999975;Crédit Agricole - Centre Loire
Relais CA S.N.C. AS2V - Sauvigny-les-Bois;27 Route du Morvan, 58160 Sauvigny-les-Bois;58160;46,9835492;3,238068399999975;Crédit Agricole - Centre Loire
Relais CA ROBE MARLENE LE PAVILLON - Savigny-en-Septaine;10 Place de la Poste, 18390 Savigny-en-Septaine;18390;47,04414879999999;2,561882700000069;Crédit Agricole - Centre Loire
Relais CA OUILLON DIDIER - Sens-Beaujeu;la martaine, 18300 Sens-Beaujeu;18300;47,32627799999999;2,709771000000046;Crédit Agricole - Centre Loire
Agence bancaire SERMAISES;3, rue de paris, 45300 SERMAISES;45300;;;Crédit Agricole - Centre Loire
Relais CA MR OU MME P GARRAUD - Soye-en-Septaine;7 Rue de la Mairie, 18340 Soye-en-Septaine;18340;47,0272653;2,489791999999966;Crédit Agricole - Centre Loire
Relais CA MR MICHEL VALLEE - st baudel;Le Bourg, 18160 st baudel;18160;46,8384;2,206940000000031;Crédit Agricole - Centre Loire
Relais CA S.N.C. L'ESCALE - ST BOUIZE;ROUTE DU BOURG, 18300 ST BOUIZE;18300;47,2840577;2,8848637;Crédit Agricole - Centre Loire
Agence bancaire SANCERRE FONTENAY;4, route de Chavignol, 18300 ST SATUR;18300;;;Crédit Agricole - Centre Loire
Relais CA AUCHAPT VERONIQUE - ST SATURNIN;LIEU DIT CHANTAFRET, 18370 ST SATURNIN;18370;46,52685;2,26638;Crédit Agricole - Centre Loire
Relais CA POINT VERT - ST VERAIN;PLACE DU PRIEURE, 58310 ST VERAIN;58310;47,4808;3,055389999999988;Crédit Agricole - Centre Loire
Relais CA POINT VERT - SUBLIGNY;5 RUE DU PRESBYTERE, 18260 SUBLIGNY;18260;47,4033;2,754850000000033;Crédit Agricole - Centre Loire
Relais CA MME FABIENNE COULON - SULLY LA CHAPELLE;30 Route de Fay aux Loges, 45450 SULLY LA CHAPELLE;45450;47,9755013;2,1814579;Crédit Agricole - Centre Loire
Agence bancaire SULLY SUR LOIRE;23, rue du Grand Sully, 45600 SULLY SUR LOIRE;45600;;;Crédit Agricole - Centre Loire
Agence bancaire TANNAY;2, rue Emile Régnault, 58190 TANNAY;58190;;;Crédit Agricole - Centre Loire
Relais CA MME NATHALIE ANSELMI - THEILLAY;23 T RUE DES ROBINS, 41300 THEILLAY;41300;47,3052;2,034329999999954;Crédit Agricole - Centre Loire
Relais CA BOULANGERIE PETOUILLAT - Torteron;5 GRANDE RUE, 18320 Torteron;18320;47,023;2,966450000000009;Crédit Agricole - Centre Loire
Relais CA S.A.R.L. SARL SAVRE LE FIVE - Toury-Lurcy;les oudilles, 58300 Toury-Lurcy;58300;46,7661;3,437239999999974;Crédit Agricole - Centre Loire
Relais CA S.N.C. JCM - Traînou;3 Place de l'Église, 45470 Traînou;45470;47,974789;2,102561199999968;Crédit Agricole - Centre Loire
Relais CA MR JACQUES DELVINQUIERE FLEURS DU RIVAGE - Triguères;3 Avenue de la Gare, 45220 Triguères;45220;47,9391098;2,984736399999974;Crédit Agricole - Centre Loire
Agence bancaire VAILLY-SUR-SAULDRE;29 Grande Rue, 18260 VAILLY-SUR-SAULDRE;18260;;;Crédit Agricole - Centre Loire
Relais CA MME REBECHE SANDRA - VALLENAY;BIGNY 1 ROUTE DE CREZANCAY, 18190 VALLENAY;18190;46,7851658;2,3711918;Crédit Agricole - Centre Loire
Relais CA MR JACQUES COSNARD  TABAC LOTO - Varennes-Changy;6 Place Duchesse de Dalmatie, 45290 Varennes-Changy;45290;47,8657815;2,658918200000016;Crédit Agricole - Centre Loire
Agence bancaire BANQUE PRIVEE NEVERS;2 route de Paris, 58641 VARENNES-VAUZELLES;58641;47,022623;3,147616;Crédit Agricole - Centre Loire
Agence bancaire CAISSE RÉGIONALE DE CRÉDIT AGRICOLE MUTUEL CENTRE LOIRE;2 route de Paris Cedex, 58642 VARENNES-VAUZELLES;58642;47,022718;3,1484;Crédit Agricole - Centre Loire
Agence bancaire CENTRE D'AFFAIRES - AGENCE PME NEVERS;Les Commailes, 58640 VARENNES-VAUZELLES;58640;47,050216;3,138252;Crédit Agricole - Centre Loire
Relais CA MEESEMAECKER NICOLAS - Varennes-Vauzelles;13 Rue Jules Renard, 58640 Varennes-Vauzelles;58640;47,0168994;3,161608300000012;Crédit Agricole - Centre Loire
Distributeur automatique de billets VARENNES VAUZ INTER 97S1;Centre commercial du Fleuron, 58640 Varennes-Vauzelles;58640;47,0117913;3,138854300000048;Crédit Agricole - Centre Loire
Agence bancaire VARENNES-VAUZELLES;89 boulevard Camille Dagonneau., 58640 VARENNES-VAUZELLES;58640;47,050225;3,138258;Crédit Agricole - Centre Loire
Agence bancaire VARZY;6 place du Marché, 58210 VARZY;58210;;;Crédit Agricole - Centre Loire
Relais CA EURL GUILLOT - Veaugues;Route de Vinon, 18300 Veaugues;18300;47,2571369;2,76048000000003;Crédit Agricole - Centre Loire
Relais CA MR BRUNO AUBAILLY - Veaugues;12 Grande Rue, 18300 Veaugues;18300;47,25776219999999;2,757672299999967;Crédit Agricole - Centre Loire
Relais CA MME JOCELYNE CHEVALIER - Venesmes;14 Route de Châteauneuf, 18190 Venesmes;18190;46,8390751;2,314100899999971;Crédit Agricole - Centre Loire
Relais CA S.A.R.L. AU BON VIENNOIS - Vienne-en-Val;4 Route de Tigy, 45510 Vienne-en-Val;45510;47,8007289;2,135445000000004;Crédit Agricole - Centre Loire
Relais CA E.U.R.L. LE PARADIS DES DELICES - Vierzon;118 Route de Bellon, 18100 Vierzon;18100;47,2019537;2,081369799999948;Crédit Agricole - Centre Loire
Distributeur automatique de billets LES AIX ANGILLON CARREFOUR MARKET;17 Route de Bourges, 18100 Vierzon;18100;47,2152346;2,110097999999994;Crédit Agricole - Centre Loire
Relais CA S.N.C. CROVISIER 109262 - Vierzon;102 Rue Etienne Marcel, 18100 Vierzon;18100;47,2167799;2,101673300000016;Crédit Agricole - Centre Loire
Agence bancaire VIERZON BOURGNEUF;6-8, avenue du 14 Juillet, 18100 VIERZON;18100;47,2158316;2,0649772;Crédit Agricole - Centre Loire
Distributeur automatique de billets VIERZON PORTE BOEUFS 97E1;Place Vaillant Couturier, 18100 Vierzon;18100;47,2234623;2,070232799999985;Crédit Agricole - Centre Loire
Agence bancaire VIERZON RÉPUBLIQUE;17, Avenue de la République, 18100 VIERZON;18100;47,2228196;2,0664004;Crédit Agricole - Centre Loire
Agence bancaire VIERZON VILLAGE;31, Rue du Docteur Léo Mérigot, 18100 VIERZON;18100;47,2285787;2,0512671;Crédit Agricole - Centre Loire
Relais CA MR CLAUDE TREMBLEAU  BOULANGERIE PATISSERIE - Viglain;7 Place de l'Église, 45600 Viglain;45600;47,7284557;2,30256410000004;Crédit Agricole - Centre Loire
Relais CA MLE MARYLINE FLEURANT - Vignoux-sur-Barangeon;1 Rue Jean Graczyk, 18500 Vignoux-sur-Barangeon;18500;47,2027651;2,17069349999997;Crédit Agricole - Centre Loire
Relais CA SNC LACOMBE - VILLAPOURCON;LE BOURG, 58370 VILLAPOURCON;58370;46,9488763;3,9600928;Crédit Agricole - Centre Loire
Agence bancaire VILLEMANDEUR;16, Avenue de la Libération, 45700 VILLEMANDEUR;45700;;;Crédit Agricole - Centre Loire
Relais CA MR MOHAMED AKDIM COMPTE - Villemurlin;40 Place de l'Église, 45600 Villemurlin;45600;47,68605350000001;2,333938699999976;Crédit Agricole - Centre Loire
Relais CA SIMONNEAU LAURA - Villequiers;8 Route de Garigny, 18800 Villequiers;18800;47,0708032;2,808085500000061;Crédit Agricole - Centre Loire
