nom;adresse;code_postal;latitude;longitude;region_source
Agence bancaire ANCERVILLE;53 RUE DU CHATEAU, 55170 ANCERVILLE;55170;;;Crédit Agricole - Lorraine
Agence bancaire ARS SUR MOSELLE;5 RUE DU MARECHAL FOCH, 57130 ARS SUR MOSELLE;57130;;;Crédit Agricole - Lorraine
Guichet Automatique de banque AUDUN LE ROMAN;1 RUE DU LUXEMBOURG, 54560 AUDUN LE ROMAN;54560;49,3648;5,90575;Crédit Agricole - Lorraine
Agence bancaire AUMETZ;6 Rue Saint-Martin, 57710 Aumetz;57710;;;Crédit Agricole - Lorraine
Agence bancaire BACCARAT;2, place des Arcades, 54120 BACCARAT;54120;;;Crédit Agricole - Lorraine
Agence bancaire BAR LE DUC ROCHELLE;20-24 boulevard de la Rochelle, 55000 BAR LE DUC;55000;;;Crédit Agricole - Lorraine
Agence bancaire BAYON;3AD AV DE VIRECOURT, 54290 BAYON;54290;;;Crédit Agricole - Lorraine
Agence bancaire BITCHE;26 rue de Sarreguemines, 57230 BITCHE;57230;;;Crédit Agricole - Lorraine
Agence bancaire BLAINVILLE SUR L'EAU;25, avenue Pierre Semard, 54360 BLAINVILLE SUR L'EAU;54360;;;Crédit Agricole - Lorraine
Agence bancaire BLAMONT;11, rue du 18 novembre, 54450 BLAMONT;54450;;;Crédit Agricole - Lorraine
Agence bancaire BOULAY;2 rue de la Halle, 57220 BOULAY;57220;;;Crédit Agricole - Lorraine
Agence bancaire BOUZONVILLE;7 rue de Sarrelouis, 57320 BOUZONVILLE;57320;;;Crédit Agricole - Lorraine
Agence bancaire BRIEY;3 RUE OLYMPE DE GOUGES, 54150 BRIEY;54150;;;Crédit Agricole - Lorraine
Agence bancaire CHALIGNY;4 Place des Tricoteries, 54230 Chaligny;54230;;;Crédit Agricole - Lorraine
Agence bancaire CHAMPIGNEULLES;4, rue de Nancy, 54250 CHAMPIGNEULLES;54250;;;Crédit Agricole - Lorraine
Agence bancaire CHATEAU SALINS;24 PLACE DE LA REPUBLIQUE, 57170 CHATEAU SALINS;57170;;;Crédit Agricole - Lorraine
Agence bancaire CLERMONT EN ARGONNE;6 RUE DE LA LIBERATION, 55120 CLERMONT EN ARGONNE;55120;;;Crédit Agricole - Lorraine
Guichet Automatique de banque COLOMBEY LES BELLES;7 Rue Alexandre III, 54170 COLOMBEY LES BELLES;54170;48,5323;5,89851;Crédit Agricole - Lorraine
Agence bancaire COMMERCY;2-4 place Charles de Gaulle, 55200 COMMERCY;55200;;;Crédit Agricole - Lorraine
Agence bancaire COURCELLES CHAUSSY;21 avenue Charles de Gaulle, 57530 COURCELLES CHAUSSY;57530;;;Crédit Agricole - Lorraine
Agence bancaire CREUTZWALD;26 rue de la Houve, 57150 CREUTZWALD;57150;;;Crédit Agricole - Lorraine
Agence bancaire DELME;PLACE DE LA REPUBLIQUE, 57590 DELME;57590;;;Crédit Agricole - Lorraine
Agence bancaire DIEULOUARD;25 AVENUE DU GENERAL DE GAULLE, 54380 DIEULOUARD;54380;;;Crédit Agricole - Lorraine
Agence bancaire DIEUZE;25 AVENUE DU GENERAL DE GAULLE, 57260 DIEUZE;57260;;;Crédit Agricole - Lorraine
Agence bancaire DOMBASLE SUR MEURTHE;RUE JEANNE D ARC, 54110 DOMBASLE;54110;;;Crédit Agricole - Lorraine
Agence bancaire DUN;4 place de la Gare, 55110 DOULCON;55110;;;Crédit Agricole - Lorraine
Agence bancaire ESSEY LES NANCY;2 AV DU PRESIDENT ROOSEVELT, 54270 ESSEY LES NANCY;54270;;;Crédit Agricole - Lorraine
Agence bancaire ETAIN;8 AVENUE PRUD HOMME HAVETTE, 55400 ETAIN;55400;;;Crédit Agricole - Lorraine
Guichet Automatique de banque FAINS-VEEL;40 rue de Bar, 55000 FAINS VEEL;55000;48,7874;5,136049;Crédit Agricole - Lorraine
Agence bancaire FAULQUEMONT;PLACE DU MARCHE, 57380 FAULQUEMONT;57380;;;Crédit Agricole - Lorraine
Agence bancaire FORBACH;80 AVENUE SAINT REMY, 57600 FORBACH;57600;49,1862;6,89679;Crédit Agricole - Lorraine
Agence bancaire FORBACH VILLE HAUTE;37 A RUE NATIONALE, 57600 FORBACH;57600;49,1877;6,90271;Crédit Agricole - Lorraine
Agence bancaire FREYMING MERLEBACH;27 RUE EUGENE KLOSTER, 57801 FREYMING MERLEBACH;57801;;;Crédit Agricole - Lorraine
Agence bancaire FROUARD;62 RUE DE L'HOTEL DE VILLE, 54390 FROUARD;54390;;;Crédit Agricole - Lorraine
Agence bancaire GONDRECOURT;1 RUE RAYMOND POINCARE, 55130 GONDRECOURT;55130;;;Crédit Agricole - Lorraine
Guichet Automatique de banque GUENANGE;rue de Metzervisse, 57310 GUENANGE;57310;49,294356;6,201267;Crédit Agricole - Lorraine
Agence bancaire HAGONDANGE;12 rue Anatole France, 57300 HAGONDANGE;57300;;;Crédit Agricole - Lorraine
Agence bancaire HAYANGE;5 RUE DE LA FLATTE, 57700 HAYANGE;57700;;;Crédit Agricole - Lorraine
Agence bancaire HETTANGE GRANDE;71 RUE DU GENERAL PATTON, 57330 HETTANGE GRANDE;57330;;;Crédit Agricole - Lorraine
Agence bancaire INSMING;136 rue de l'Albe, 57670 INSMING;57670;;;Crédit Agricole - Lorraine
Agence bancaire JARNY GARE;144, rue Victor Hugo, 54800 JARNY;54800;;;Crédit Agricole - Lorraine
Agence bancaire JARVILLE;26 RUE DE LA REPUBLIQUE, 54140 JARVILLE;54140;;;Crédit Agricole - Lorraine
Agence bancaire JOEUF;10 PLACE DE L HOTEL DE VILLE, 54240 JOEUF;54240;;;Crédit Agricole - Lorraine
Agence bancaire E-AGENCE CA PROXIMITE;8 Avenue de la Résistance, 54520 Laxou;54520;48,6950557;6,1346678;Crédit Agricole - Lorraine
Agence bancaire LAXOU CHAMP LE BOEUF;8 AVENUE DE LA RESISTANCE, 54520 LAXOU;54520;48,694;6,13491;Crédit Agricole - Lorraine
Agence bancaire LORRAINE SUD BANQUE PRIVEE;Espace Affaires - 1 rue de la Vologne, 54520 LAXOU;54520;48,695855;6,1347792;Crédit Agricole - Lorraine
Agence bancaire LORRAINE SUD ENTREPRISES;1 RUE DE LA VOLOGNE, 54520 LAXOU;54520;48,694;6,13491;Crédit Agricole - Lorraine
Agence bancaire LIGNY;14 PLACE DE LA REPUBLIQUE, 55500 LIGNY EN BARROIS;55500;;;Crédit Agricole - Lorraine
Agence bancaire LONGUYON;45 RUE DE L HOTEL DE VILLE, 54260 LONGUYON;54260;;;Crédit Agricole - Lorraine
Agence bancaire LONGWY HAUT;Place Darche, 54400 LONGWY;54400;;;Crédit Agricole - Lorraine
Guichet Automatique de banque LUDRES;161, Place Ferri, 54710 LUDRES;54710;49,4712751;5,9320101;Crédit Agricole - Lorraine
Agence bancaire LUNEVILLE BANAUDON;7, rue Banaudon, 54300 LUNEVILLE;54300;;;Crédit Agricole - Lorraine
Agence bancaire MAIZIERES LES METZ;64 Grand'rue, 57280 MAIZIERES LES METZ;57280;;;Crédit Agricole - Lorraine
Guichet Automatique de banque MALZEVILLE;2, rue de la république, 54220 MALZEVILLE;54220;48,709252;6,18475;Crédit Agricole - Lorraine
Agence bancaire MARLY;5 Grand'rue, 57155 MARLY;57155;;;Crédit Agricole - Lorraine
Agence bancaire LORRAINE NORD BANQUE PRIVEE;Espace affaires - 56-58 avenue André Malraux, 57000 METZ;57000;49,1061223;6,1793394;Crédit Agricole - Lorraine
Agence bancaire LORRAINE NORD ENTREPRISES;56-58 Avenue André Malraux, 57000 METZ;57000;49,1034;6,17973;Crédit Agricole - Lorraine
Agence bancaire METZ AMPHITHÉÂTRE;56-58 AVENUE ANDRE MALRAUX, 57000 METZ;57000;49,0982;6,18068;Crédit Agricole - Lorraine
Agence bancaire METZ CENTRE;32, rue des Clercs, 57000 METZ;57000;49,116691;6,173352;Crédit Agricole - Lorraine
Agence bancaire METZ LES HAUTS DE QUEULEU;23 RUE DU PRE GONDE, 57070 METZ;57070;49,1051;6,20846;Crédit Agricole - Lorraine
Agence bancaire METZ SAINT LOUIS;32 place Saint-Louis, 57000 METZ;57000;49,1165;6,17916;Crédit Agricole - Lorraine
Agence bancaire PÔLE ENTREPRENEUR METZ;23 RUE DU PRE GONDE, 57070 METZ;57070;49,1054;6,20864;Crédit Agricole - Lorraine
Agence bancaire METZERVISSE;3 RUE DES ANCIENS FOURS A CHAUX, 57940 METZERVISSE;57940;;;Crédit Agricole - Lorraine
Agence bancaire MONTIGNY CENTRE;2 place Joseph Schaff, 57950 MONTIGNY LES METZ;57950;49,100868;6,154343;Crédit Agricole - Lorraine
Agence bancaire MONTIGNY LIZE;4 Avenue des Compagnons de la Libération, 57950 MONTIGNY LES METZ;57950;49,0937767;6,1559829;Crédit Agricole - Lorraine
Agence bancaire MONTMEDY;5 Rue Ernest Mabille, 55600 Montmédy;55600;;;Crédit Agricole - Lorraine
Agence bancaire MORHANGE;30 PLACE DE LA REPUBLIQUE, 57340 MORHANGE;57340;;;Crédit Agricole - Lorraine
Guichet Automatique de banque MOULINS LES METZ;1, chemin de la pie grièche, 57160 MOULINS LES METZ;57160;49,082008;6,10312;Crédit Agricole - Lorraine
Agence bancaire NANCY BLANDAN;173 B AVENUE DU GENERAL LECLERC, 54000 NANCY;54000;48,6722;6,17253;Crédit Agricole - Lorraine
Agence bancaire NANCY MAGINOT;59, rue Pierre Semard, 54000 NANCY;54000;48,6895;6,17837;Crédit Agricole - Lorraine
Guichet Automatique de banque NANCY MARCHE;20B Rue Raugraff, 54000 NANCY;54000;48,689553;6,181845;Crédit Agricole - Lorraine
Agence bancaire NANCY MICHOTTES;6 RUE DES MICHOTTES, 54000 NANCY;54000;48,693;6,17863;Crédit Agricole - Lorraine
Agence bancaire NANCY TROIS MAISONS;36 RUE DU FAUBOURG DES 3 MAISONS, 54000 NANCY;54000;48,7018;6,17614;Crédit Agricole - Lorraine
Agence bancaire PÔLE ENTREPRENEUR NANCY;6 RUE DES MICHOTTES, 54000 NANCY;54000;49,4451;5,60156;Crédit Agricole - Lorraine
Guichet Automatique de banque NEUVES MAISONS;1137, Rue Pasteur, 54230 NEUVES MAISONS;54230;48,615059;6,090223;Crédit Agricole - Lorraine
Agence bancaire NOMENY;1 Rue du Grand Couronne, 54610 Nomeny;54610;;;Crédit Agricole - Lorraine
Agence bancaire PAGNY SUR MOSELLE;31 - 33 RUE DE SERRE, 54530 PAGNY SUR MOSELLE;54530;;;Crédit Agricole - Lorraine
Guichet Automatique de banque PELTRE;45, rue de Gargan, 57245 PELTRE;57245;49,075769;6,226893;Crédit Agricole - Lorraine
Agence bancaire PHALSBOURG;9 place d 'armes, 57370 PHALSBOURG;57370;;;Crédit Agricole - Lorraine
Agence bancaire PIENNES;8, rue de Verdun, 54490 PIENNES;54490;;;Crédit Agricole - Lorraine
Agence bancaire PONT A MOUSSON;4, rue Maréchal Joffre, 54700 PONT A MOUSSON;54700;;;Crédit Agricole - Lorraine
Agence bancaire PUTTELANGE AUX LACS;37 rue Wilson, 57510 PUTTELANGE AUX LACS;57510;;;Crédit Agricole - Lorraine
Agence bancaire REMILLY;56 RUE DE METZ, 57580 REMILLY;57580;;;Crédit Agricole - Lorraine
Agence bancaire REVIGNY;2 rue Aristide Briand, 55800 REVIGNY;55800;;;Crédit Agricole - Lorraine
Agence bancaire ROHRBACH LES BITCHE;7 rue de l'Agriculture, 57410 ROHRBACH LES BITCHE;57410;;;Crédit Agricole - Lorraine
Agence bancaire ROMBAS;5 PLACE DE L HOTEL DE VILLE, 57120 ROMBAS;57120;;;Crédit Agricole - Lorraine
Agence bancaire SAINT JULIEN LA TANNERIE;18 RUE LA TANNERIE, 57070 SAINT JULIEN LES METZ;57070;;;Crédit Agricole - Lorraine
Agence bancaire SAINT NICOLAS DE PORT;27, avenue Jolain, 54210 SAINT NICOLAS DE PORT;54210;;;Crédit Agricole - Lorraine
Agence bancaire SAINT-AVOLD;31 PLACE DE LA VICTOIRE, 57500 SAINT-AVOLD;57500;;;Crédit Agricole - Lorraine
Agence bancaire SAINT-MIHIEL;1 PLACE DU SOUVENIR FRANCAIS, 55300 SAINT-MIHIEL;55300;;;Crédit Agricole - Lorraine
Agence bancaire SAINTE MARIE AUX CHENES;25 avenue Gambetta, 57255 SAINTE MARIE AUX CHENES;57255;;;Crédit Agricole - Lorraine
Guichet Automatique de banque SARRALBE;24 RUE NAPOLEON 1ER, 57430 SARRALBE;57430;49,0016;7,02985;Crédit Agricole - Lorraine
Guichet Automatique de banque SARRALBE;86, rue de Strasbourg, 57430 SARRALBE;57430;48,98564;7,026104;Crédit Agricole - Lorraine
Agence bancaire SARREBOURG;8 RUE NAPOLEON 1ER, 57400 SARREBOURG;57400;;;Crédit Agricole - Lorraine
Agence bancaire EST-MOSELLAN - ENTREPRISES;BATIMENT LE ROOFTOP 1ER ETAGE - 301 RUE DE LA MONTAGNE, 57200 SARREGUEMINES;57200;49,1112;7,06066;Crédit Agricole - Lorraine
Agence bancaire SARREGUEMINES;Angle rue Eglise Moulin, 57200 SARREGUEMINES;57200;49,1127;7,06712;Crédit Agricole - Lorraine
Guichet Automatique de banque SAVONNIERES DEVANT BAR;1, rue de Longeville, 55000 SAVONNIERES DEVANT BAR;55000;48,754975;5,177875;Crédit Agricole - Lorraine
Guichet Automatique de banque SEICHAMPS;21 avenue du Général De Gaulle, 54280 SEICHAMPS;54280;48,712051;6,252093;Crédit Agricole - Lorraine
Agence bancaire SIERCK LES BAINS;17, quai des Ducs de Lorraine, 57480 SIERCK LES BAINS;57480;;;Crédit Agricole - Lorraine
Agence bancaire SPINCOURT;8 rue de l'Europe, 55230 SPINCOURT;55230;;;Crédit Agricole - Lorraine
Agence bancaire STENAY;51 PLACE DE LA REPUBLIQUE, 55700 STENAY;55700;;;Crédit Agricole - Lorraine
Guichet Automatique de banque STIRING WENDEL;41, rue Saint François, 57350 STIRING WENDEL;57350;49,1984337;6,9284321;Crédit Agricole - Lorraine
Guichet Automatique de banque THIAUCOURT;16 bis, rue Carnot, 54470 THIAUCOURT REGNIEVILLE;54470;48,9532;5,86582;Crédit Agricole - Lorraine
Agence bancaire PÔLE ENTREPRENEUR THIONVILLE;16 Place Turenne, 57100 THIONVILLE;57100;49,3594;6,16416;Crédit Agricole - Lorraine
Agence bancaire THIONVILLE CAPUCINS;13 Rue du Cygne, 57100 Thionville;57100;49,3576298;6,1643688;Crédit Agricole - Lorraine
Agence bancaire TOMBLAINE;34, avenue de la Paix, 54510 TOMBLAINE;54510;;;Crédit Agricole - Lorraine
Agence bancaire TOUL DROUAS;21, rue Drouas, 54200 TOUL;54200;;;Crédit Agricole - Lorraine
Agence bancaire VANDOEUVRE DOUMER;13, avenue Paul Doumer, 54500 VANDOEUVRE LES NANCY;54500;48,6749;6,18728;Crédit Agricole - Lorraine
Agence bancaire VANDOEUVRE NATIONS;23 BOULEVARD DE L'EUROPE, 54500 VANDOEUVRE LES NANCY;54500;48,6615;6,17474;Crédit Agricole - Lorraine
Agence bancaire VAUCOULEURS;26 rue Jeanne d'Arc, 55140 VAUCOULEURS;55140;;;Crédit Agricole - Lorraine
Agence bancaire VERDUN MAZEL;13 rue Mazel, 55100 VERDUN;55100;;;Crédit Agricole - Lorraine
Agence bancaire VERNY;15 rue de la mairie, 57420 VERNY;57420;;;Crédit Agricole - Lorraine
Agence bancaire VEZELISE;5 PLACE DE L HOTEL DE VILLE, 54330 VEZELISE;54330;;;Crédit Agricole - Lorraine
Guichet Automatique de banque VIC SUR SEILLE;32, place Jeanne d'Arc, 57630 VIC SUR SEILLE;57630;48,7824644;6,5312361;Crédit Agricole - Lorraine
Guichet Automatique de banque VIGNEULLES LES HATTONCHATEL;32 Rue Raymond Poincaré, 55210 VIGNEULLES LES HATTONCHATEL;55210;48,9808;5,70628;Crédit Agricole - Lorraine
Agence bancaire VILLERS LES NANCY;133 AVENUE ANDRE MALRAUX, 54600 VILLERS LES NANCY;54600;;;Crédit Agricole - Lorraine
Agence bancaire VILLERUPT;35, rue Carnot, 54190 VILLERUPT;54190;;;Crédit Agricole - Lorraine
Agence bancaire WOIPPY;RUE DU GENERAL DE GAULLE, 57140 WOIPPY;57140;;;Crédit Agricole - Lorraine
Agence bancaire YUTZ;36 avenue des Nations, 57970 YUTZ;57970;;;Crédit Agricole - Lorraine
