nom;adresse;code_postal;latitude;longitude;region_source
Relais CA Boulangerie Patisserie Hélène et Grégory BRIET - ACHEVILLE;1 RUE ROGER MARECHAL, 62320 ACHEVILLE;62320;50,382881;2,88431;Crédit Agricole - Nord De France
Relais CA Café de la presse le N'acheville - Acheville;2 Rue Jean Lennes, 62320 Acheville;62320;50,383545;2,88364;Crédit Agricole - Nord De France
Agence bancaire ACHICOURT REX;4 Route de Bapaume, 62217 Achicourt;62217;;;Crédit Agricole - Nord De France
Relais CA Café des sports - ACQ;13 RUE DE LA REPUBLIQUE, 62144 ACQ;62144;50,347525;2,65516;Crédit Agricole - Nord De France
Relais CA Bieres et terroir - AGNY;40 RUE EMILE ZOLA, 62217 AGNY;62217;50,261188;2,758015;Crédit Agricole - Nord De France
Relais CA Chez Jean-Marc - AIRE SUR LA LYS;99 RUE HAUTE RINCQ, 62120 AIRE SUR LA LYS;62120;50,64796;2,355095;Crédit Agricole - Nord De France
Relais CA L'embuscade - Allennes-les-Marais;40 Rue du Général de Gaulle, 59251 Allennes-les-Marais;59251;50,5347816;2,9503224;Crédit Agricole - Nord De France
Relais CA Tabac Chez Sandrine et Daniel - ALLOUAGNE;1 RUE DE L EAURIRIE, 62157 ALLOUAGNE;62157;50,533739;2,512313;Crédit Agricole - Nord De France
Relais CA Boulangerie d'Alquines - Alquines;6 Rue Gaston et Emile Rocourt, 62850 Alquines;62850;50,74043469999999;1,9923857;Crédit Agricole - Nord De France
Relais CA SNC L'andresienne - Andres;1 Rue des Écoles, 62340 Andres;62340;50,8660998;1,9221857;Crédit Agricole - Nord De France
Relais CA LA CIVETTE - ANGRES;25 RUE ROGER SALENGRO, 62143 ANGRES;62143;50,41071;2,757947;Crédit Agricole - Nord De France
Relais CA Café des soprts - ANHIERS;591 RUE GABRIEL PERI, 59194 ANHIERS;59194;50,407151;3,155607;Crédit Agricole - Nord De France
Agence bancaire ANICHE;7 Place Jean Jaurès, 59580 Aniche;59580;;;Crédit Agricole - Nord De France
Relais CA Le Carré d'As - ANNEZIN;336 AVENUE DE LA MORINIE, 62232 ANNEZIN;62232;50,539329;2,622633;Crédit Agricole - Nord De France
Agence bancaire ANNOEULLIN;10 Rue Pierre Ogée, 59112 Annœullin;59112;;;Crédit Agricole - Nord De France
Relais CA Chez Rachelle - ANVIN;109 RUE DE FRUGES, 62134 ANVIN;62134;50,446806;2,256918;Crédit Agricole - Nord De France
Agence bancaire ANZIN;201 Avenue Anatole France, 59410 Anzin;59410;;;Crédit Agricole - Nord De France
Agence bancaire ARDRES;9 Place Belle Roze, 62610 Ardres;62610;50,8548541;1,9789397;Crédit Agricole - Nord De France
Agence bancaire Centre d'affaires Agri d'Ardres;9 Place Belle Roze, 62610 Ardres;62610;50,8548541;1,9789397;Crédit Agricole - Nord De France
Agence bancaire ARLEUX;34 Rue Fily, 59151 ARLEUX;59151;;;Crédit Agricole - Nord De France
Agence bancaire ARMENTIERES;32 Place Saint-Vaast, 59280 Armentières;59280;50,6866206;2,8842034;Crédit Agricole - Nord De France
Agence bancaire Centre d'affaires Pro d'Armentières;32 Place Saint-Vaast, 59280 Armentières;59280;50,6866206;2,8842034;Crédit Agricole - Nord De France
Agence Immobilière Square habitat Armentières Square Habitat;68, place Jules Guesde, 59280 Armentières;59280;50,68227435765127;2,885605167458738;Crédit Agricole - Nord De France
Agence bancaire ARNEKE;13 rue de Cassel, 59285 ARNEKE;59285;;;Crédit Agricole - Nord De France
Agence bancaire ARQUES;15 place Roger Salengro, 62510 ARQUES;62510;;;Crédit Agricole - Nord De France
Agence bancaire ARRAS BACHELET;9 Grand'Place, 62000 Arras;62000;50,2917169;2,779265;Crédit Agricole - Nord De France
Agence bancaire ARRAS ERNESTALE;15 Rue Ernestale, 62000 ARRAS;62000;50,289545;2,7740872;Crédit Agricole - Nord De France
Agence bancaire ARRAS HOCHETTES;21 Place Courbet, 62000 ARRAS;62000;50,2922327;2,7472989;Crédit Agricole - Nord De France
Agence bancaire Banque Privée Artois Cambresis;13 Grand'Place, 62000 Arras;62000;50,2919255;2,7792073;Crédit Agricole - Nord De France
Agence bancaire CAF PME  Arras;13 Grand'Place, 62000 Arras;62000;50,293114694811;2,779164382023504;Crédit Agricole - Nord De France
Agence bancaire Centre d'affaires Pro d'Arras;13 Grand'Place, 62000 Arras;62000;50,2919255;2,7792073;Crédit Agricole - Nord De France
Relais CA L'envie by Isa - ARRAS;1 PLACE VICTOR HUGO, 62000 ARRAS;62000;50,288034;2,768772;Crédit Agricole - Nord De France
Agence Immobilière Square habitat Arras Churchill Square Habitat;49Ter, avenue Winston Churchill, 62000 Arras;62000;50,2971475;2,7560829;Crédit Agricole - Nord De France
Agence Immobilière Square habitat Arras Héros Square Habitat;18 Place des Héros, 62000 Arras;62000;50,2907129;2,7774951;Crédit Agricole - Nord De France
Relais CA CAFE SAINTE CECILE AUBERS - Aubers;5 Rue du Bourg, 59249 Aubers;59249;50,5958238;2,8260635;Crédit Agricole - Nord De France
Relais CA Café des Sports - AUBIGNY AU BAC;9 RUE CALMETTE, 59265 AUBIGNY AU BAC;59265;50,263078;3,164841;Crédit Agricole - Nord De France
Agence bancaire AUBIGNY;1, Place du Manoir, 62690 AUBIGNY EN ARTOIS;62690;;;Crédit Agricole - Nord De France
Relais CA Le Balto - Auby;2 Rue du Général de Gaulle, 59950 Auby;59950;50,4154961;3,0540165;Crédit Agricole - Nord De France
Agence bancaire AUCHEL;17 Place Jules Guesde, 62260 Auchel;62260;;;Crédit Agricole - Nord De France
Relais CA carrefour contact - Auchy-lès-Hesdin;Rue Wattinne Bossut, 62770 Auchy-lès-Hesdin;62770;50,400291;2,101743;Crédit Agricole - Nord De France
Relais CA Au petit paradis - Audresselles;98 Rue Edouard Quenu, 62164 Audresselles;62164;50,8235962;1,5916823;Crédit Agricole - Nord De France
Agence bancaire AUDRUICQ;147 Rue du Général Leclerc, 62370 AUDRUICQ;62370;;;Crédit Agricole - Nord De France
Agence bancaire AULNOYE AYMERIES;7-9 Place de la Gare, 59620 AULNOYE AYMERIES;59620;;;Crédit Agricole - Nord De France
Agence bancaire AUXI LE CHATEAU;47 place de l Hôtel de Ville, 62390 AUXI LE CHATEAU;62390;;;Crédit Agricole - Nord De France
Agence bancaire AVESNES LE COMTE;77 GRAND RUE, 62810 Avesnes-le-Comte;62810;;;Crédit Agricole - Nord De France
Agence bancaire AVESNES-LEZ-AUBERT;9 rue Karl Marx, 59129 AVESNES-LEZ-AUBERT;59129;;;Crédit Agricole - Nord De France
Agence bancaire AVESNES-SUR-HELPE;4 Rue Vauban, 59440 Avesnes-sur-Helpe;59440;50,12176669999999;3,927048;Crédit Agricole - Nord De France
Agence bancaire Centre d'affaires Agri d'Avesnes sur Helpe;4 Rue Vauban, 59440 Avesnes-sur-Helpe;59440;50,12176669999999;3,927048;Crédit Agricole - Nord De France
Agence bancaire AVION;73 Boulevard Gabriel Péri, 62210 Avion;62210;;;Crédit Agricole - Nord De France
Relais CA Le Dragone - Avroult;48 Rue Principale, 62560 Avroult;62560;50,6340307;2,1457611;Crédit Agricole - Nord De France
Agence bancaire BAILLEUL;16, Rue d Ypres, 59270 BAILLEUL;59270;;;Crédit Agricole - Nord De France
Relais CA Cafe de la mairie - Bailleul-Sir-Berthoult;17 Rue de Fampoux, 62580 Bailleul-Sir-Berthoult;62580;50,3370566;2,8521366;Crédit Agricole - Nord De France
Relais CA ANSELIN DOMINIQUE - Baives;13 Rue Principale, 59132 Baives;59132;50,0626586;4,2027205;Crédit Agricole - Nord De France
Agence bancaire BAPAUME;16 Rue de Douai, 62450 BAPAUME;62450;;;Crédit Agricole - Nord De France
Agence bancaire BARLIN;2 Grand Place, 62620 BARLIN;62620;;;Crédit Agricole - Nord De France
Relais CA Au Lion de Bauvin - BAUVIN;16 RUE JULES GUESDE, 59221 BAUVIN;59221;50,519093;2,891503;Crédit Agricole - Nord De France
Agence bancaire BAVAY;40, Rue Pierre Mathieu, 59570 BAVAY;59570;;;Crédit Agricole - Nord De France
Relais CA Boucherie Charcuterie EURL CNOCKAERT - BAVINCHOVE;3 RUE DE L EGLISE, 59670 BAVINCHOVE;59670;50,784318;2,455147;Crédit Agricole - Nord De France
Agence bancaire BEAUMETZ;25 Rue nationale, 62123 Beaumetz-lès-Loges;62123;;;Crédit Agricole - Nord De France
Agence bancaire BELLAING LECLERC;Centre Commercial Leclerc, 140 rue Jean Jaures, 59135 BELLAING;59135;;;Crédit Agricole - Nord De France
Relais CA BELLISHOP - BELLIGNIES;5 RUE DE LA POSTE, 59570 BELLIGNIES;59570;50,326473;3,771496;Crédit Agricole - Nord De France
Agence bancaire BERCK;38 Rue de l'Impératrice, 62600 Berck;62600;50,4046659;1,5656415;Crédit Agricole - Nord De France
Agence bancaire Centre d'affaires Pro de Berck;38 Rue de l'Impératrice, 62600 Berck;62600;50,4046659;1,5656415;Crédit Agricole - Nord De France
Agence Immobilière Square habitat Berck-sur-Mer Square Habitat;23 rue de l'impératrice, 62600 Berck-sur-Mer;62600;50,4048031;1,5650759;Crédit Agricole - Nord De France
Agence bancaire BERGUES;26 rue nationale, 59380 BERGUES;59380;;;Crédit Agricole - Nord De France
Relais CA L'imprévu - Bersée;35 Rue Nestor Longue Épée, 59235 Bersée;59235;50,4809152;3,1420785;Crédit Agricole - Nord De France
Agence bancaire BERTINCOURT;10 rue de l Hérault, 62124 BERTINCOURT;62124;;;Crédit Agricole - Nord De France
Agence bancaire BEUVRY;25, Place Salengro BP 18, 62660 BEUVRY;62660;;;Crédit Agricole - Nord De France
Agence bancaire BANQUE PRIVEE Béthune Lens;159 Place du Maréchal Joffre, 62400 Béthune;62400;50,53304019999999;2,6430693;Crédit Agricole - Nord De France
Agence bancaire BETHUNE JOFFRE;159 Place du Maréchal Joffre, 62400 Béthune;62400;50,53304019999999;2,6430693;Crédit Agricole - Nord De France
Agence bancaire BETHUNE VILLE;9 Rue Grosse Tête, 62400 Béthune;62400;50,5302502;2,639395;Crédit Agricole - Nord De France
Agence bancaire Centre d'affaires Pro de Bethune;159 Place du Maréchal Joffre, 62400 Béthune;62400;50,53304019999999;2,6430693;Crédit Agricole - Nord De France
Agence Immobilière Square habitat Béthune Square Habitat;2 boulevard vauban, 62400 Béthune;62400;50,5291257;2,6337419;Crédit Agricole - Nord De France
Agence bancaire BIACHE SAINT VAAST;1, Rue Hériot BP16, 62118 BIACHE SAINT VAAST;62118;;;Crédit Agricole - Nord De France
Agence bancaire BILLY MONTIGNY;17, rue Jean Jaurès BP 1, 62420 BILLY MONTIGNY;62420;;;Crédit Agricole - Nord De France
Relais CA AU VERGER DES 7 VALLEES - BLANGY SUR TERNOISE;16 A PLACE DU GENERAL DE GAULLE, 62770 BLANGY SUR TERNOISE;62770;50,422097;2,170128;Crédit Agricole - Nord De France
Agence bancaire BLENDECQUES;22 place de la Libération, 62570 BLENDECQUES;62570;;;Crédit Agricole - Nord De France
Relais CA CAFE DU CENTRE - BLESSY;30 GRAND RUE, 62120 BLESSY;62120;50,616141;2,330821;Crédit Agricole - Nord De France
Relais CA Le Country - BLINGEL;7 RUE D HESDIN, 62770 BLINGEL;62770;50,406616;2,149121;Crédit Agricole - Nord De France
Relais CA Boucherie DEHAUDT - Isabelle Lotten Dehaudt - BOESCHEPE;24 RUE DE LA MAIRIE, 59299 BOESCHEPE;59299;50,800298;2,690683;Crédit Agricole - Nord De France
Agence bancaire BOLLEZEELE;5, Grand Place, 59470 BOLLEZEELE;59470;;;Crédit Agricole - Nord De France
Agence bancaire BONDUES CROIX BLANCHE;1906, Avenue du Général De Gaulle, 59910 BONDUES;59910;50,721952;3,110557;Crédit Agricole - Nord De France
Agence bancaire Banque Privée MEL Nord;1071 Avenue du Général de Gaulle, 59910 Bondues;59910;50,7049501;3,099740600000001;Crédit Agricole - Nord De France
Agence bancaire Centre d'affaires Pro de santé de Bondues;1906 Avenue du Général de Gaulle, 59910 Bondues;59910;50,7218792;3,110845;Crédit Agricole - Nord De France
Relais CA Le Saint Eloi - Borre;1429 Route nationale, 59190 Borre;59190;50,7313807;2,5845687;Crédit Agricole - Nord De France
Agence bancaire BOUCHAIN;222 RUE LEON PIERARD, 59111 BOUCHAIN;59111;;;Crédit Agricole - Nord De France
Relais CA Jacky JEWEL - BOULOGNE SUR MER;27 RUE DE LILLE, 62200 BOULOGNE SUR MER;62200;1,61424249828195;50,5589925458934;Crédit Agricole - Nord De France
Agence bancaire BOURBOURG;3 Place du Général de Gaulle, 59630 BOURBOURG;59630;;;Crédit Agricole - Nord De France
Relais CA Carrefour contact - Bousies;Rue de Landrecies, 59222 Bousies;59222;50,1506019;3,6274144;Crédit Agricole - Nord De France
Agence bancaire BRAY DUNES;30 rue Roger Salengro, 59123 BRAY DUNES;59123;;;Crédit Agricole - Nord De France
Agence bancaire BREBIERES;2, Rue de Corbehem BP13, 62117 BREBIERES;62117;;;Crédit Agricole - Nord De France
Agence bancaire BRUAY CENTRE;41, Rue Lamendin BP 3, 62700 BRUAY;62700;50,480982;2,544909;Crédit Agricole - Nord De France
Agence bancaire BRUAY GARE;422, Rue Jules Guesde - BP 3, 62700 BRUAY;62700;50,472384;2,5556403;Crédit Agricole - Nord De France
Agence Immobilière Square habitat Bruay-la-Buissière Square Habitat;38 rue de la république, 62700 Bruay-la-Buissière;62700;50,480588;2,5441879;Crédit Agricole - Nord De France
Relais CA Le MUTILE - Bruille-Saint-Amand;8 Place Roger Salengro, 59199 Bruille-Saint-Amand;59199;50,45432109999999;3,5198528;Crédit Agricole - Nord De France
Agence bancaire BUCQUOY;101 Rue Dierville, 62116 Bucquoy;62116;;;Crédit Agricole - Nord De France
Agence bancaire BULLY LES MINES;10-12, Rue Salengro BP 28, 62160 BULLY LES MINES;62160;;;Crédit Agricole - Nord De France
Relais CA Café des sports Chez Nathalie - BURBURE;90 PL DU RIETZ, 62151 BURBURE;62151;50,535939;2,471391;Crédit Agricole - Nord De France
Relais CA LE SAINT JEAN - BURBURE;1 RUE CAVIN, 62151 BURBURE;62151;50,538454;2,466489;Crédit Agricole - Nord De France
Agence bancaire CALAIS EGALITE;176, Boulevard de l Egalité BP 116, 62102 CALAIS;62102;50,9457519;1,8754134;Crédit Agricole - Nord De France
Agence bancaire CALAIS LAFAYETTE;77, Boulevard Lafayette, 62100 CALAIS;62100;50,946777;1,857784;Crédit Agricole - Nord De France
Agence bancaire CALAIS NORD;64, Rue Royale  BP 425, 62226 CALAIS;62226;50,9583266;1,8489263;Crédit Agricole - Nord De France
Agence bancaire Centre d'affaires Pro de Calais;77 Boulevard la Fayette, 62102 Calais;62102;50,9469567;1,8577383;Crédit Agricole - Nord De France
Agence Immobilière Square habitat Calais Square Habitat;24 boulevard lafayette, 62100 Calais;62100;50,94689;1,856067;Crédit Agricole - Nord De France
Agence bancaire CALONNE RICOUART;18, Rue de Mancey BP 15, 62470 CALONNE RICOUART;62470;;;Crédit Agricole - Nord De France
Agence bancaire CAMBRAI;27 Rue de Nice, 59400 Cambrai;59400;50,1770152;3,2344614;Crédit Agricole - Nord De France
Agence bancaire Centre d'affaires Agri de Cambrai;27 Rue de Nice, 59400 Cambrai;59400;50,1770152;3,2344614;Crédit Agricole - Nord De France
Agence bancaire Centre d'affaires Pro de Cambrai;27 Rue de Nice, 59400 Cambrai;59400;50,1770152;3,2344614;Crédit Agricole - Nord De France
Relais CA Le Week-end - CAMBRAI;6 RUE DES DOCKS, 59400 CAMBRAI;59400;50,177616;3,21701;Crédit Agricole - Nord De France
Agence Immobilière Square habitat Cambrai Square Habitat;1 rue saint ladre, 59400 Cambrai;59400;50,1676612;3,2411894;Crédit Agricole - Nord De France
Agence bancaire CAMPAGNE LES HESDIN;220 Rue Daniel Ranger, 62870 Campagne-lès-Hesdin;62870;;;Crédit Agricole - Nord De France
Agence bancaire CARVIN;Rue du 11 Novembre, 62220 CARVIN;62220;;;Crédit Agricole - Nord De France
Agence bancaire CASSEL;61, Rue Moeneclaey, 59670 CASSEL;59670;50,801555;2,482109;Crédit Agricole - Nord De France
Agence bancaire Centre d'affaires Agri de Cassel;61 Rue Constant Moeneclaey, 59670 Cassel;59670;50,80147460000001;2,4820404;Crédit Agricole - Nord De France
Agence bancaire Banque Privée Avesnois;11 Rue Gambetta, 59540 Caudry;59540;50,1222268;3,4077759;Crédit Agricole - Nord De France
Agence bancaire CAUDRY;11, Rue Gambetta, 59540 CAUDRY;59540;50,1222722;3,4077546;Crédit Agricole - Nord De France
Agence Immobilière Square habitat Caudry Square Habitat;16 place du général de Gaule, 59540 Caudry;59540;50,1239195;3,4108315;Crédit Agricole - Nord De France
Agence Immobilière Square habitat Chéreng Square Habitat;21 rue nationale, 59152 Chéreng;59152;50,611538;3,197323;Crédit Agricole - Nord De France
Agence bancaire CHOCQUES;254, Rue Principale BP 18, 62920 CHOCQUES;62920;;;Crédit Agricole - Nord De France
Agence bancaire COMINES;5 Rue d Hurlupin, 59560 Comines;59560;;;Crédit Agricole - Nord De France
Agence bancaire CONDE SUR L'ESCAUT;47 rue Gambetta, 59163 CONDE SUR L'ESCAUT;59163;;;Crédit Agricole - Nord De France
Agence bancaire COUDEKERQUE;4 Place de la République, 59210 Coudekerque-Branche;59210;;;Crédit Agricole - Nord De France
Agence bancaire COULOGNE;116, Rue des Hauts Champs BP 9, 62137 COULOGNE;62137;;;Crédit Agricole - Nord De France
Relais CA Café des sports - COURCELLES LES LENS;1B RUE FERRER, 62970 COURCELLES LES LENS;62970;50,418678;3,018086;Crédit Agricole - Nord De France
Agence bancaire COURRIERES;01 rue jean de Montmorency, 62710 COURRIERES;62710;;;Crédit Agricole - Nord De France
Agence bancaire COUSOLRE;132, Place De Gaulle, 59149 COUSOLRE;59149;;;Crédit Agricole - Nord De France
Agence bancaire CROISILLES;3 grande place, 62128 CROISILLES;62128;;;Crédit Agricole - Nord De France
Agence bancaire CROIX;1, Rue de la Gare, 59170 CROIX;59170;;;Crédit Agricole - Nord De France
Agence bancaire CYSOING;42 Rue Gambetta, 59830 Cysoing;59830;50,56742;3,2145809;Crédit Agricole - Nord De France
Agence bancaire Centre d'affaires Agri de Cysoing;42 Rue Gambetta, 59830 Cysoing;59830;50,56742;3,2145809;Crédit Agricole - Nord De France
Agence bancaire DENAIN;1 Rue Lazare Bernard, 59220 Denain;59220;;;Crédit Agricole - Nord De France
Agence bancaire DESVRES;10 Rue des Potiers, 62240 DESVRES;62240;;;Crédit Agricole - Nord De France
Agence bancaire DIVION;8 place des Martyrs, 62460 DIVION;62460;;;Crédit Agricole - Nord De France
Agence bancaire Centre d'affaires Pro de Douai;179 Rue de Paris, 59500 Douai;59500;50,3660806;3,081308;Crédit Agricole - Nord De France
Agence bancaire DOUAI;179 Rue de Paris, 59500 Douai;59500;50,3660806;3,081308;Crédit Agricole - Nord De France
Agence bancaire DOUAI 2;52, Rue du Faubourg de Béthune, 59500 DOUAI;59500;50,376408;3,065874;Crédit Agricole - Nord De France
Relais CA LE FLANDRE - DOUAI;160 RUE D'OCRE, 59500 DOUAI;59500;50,376767;3,077176;Crédit Agricole - Nord De France
Relais CA Le Flash - DOUAI;138 RUE D'ESQUERCHIN, 59500 DOUAI;59500;50,370315;3,072801;Crédit Agricole - Nord De France
Agence Immobilière Square habitat Douai Square Habitat;120 rue de paris, 59500 Douai;59500;50,3666949;3,0809733;Crédit Agricole - Nord De France
Relais CA LE BI'STROH - Dourlers;14 Voie Communale Place Stroh, 59440 Dourlers;59440;50,1759248;3,9369806;Crédit Agricole - Nord De France
Relais CA L'etier - Douvrin;13 Rue Jean Jaurès, 62138 Douvrin;62138;50,5086492;2,828908;Crédit Agricole - Nord De France
Relais CA Le rallye - Drocourt;51 Rue Joseph Noël, 62320 Drocourt;62320;50,39101489999999;2,928033;Crédit Agricole - Nord De France
Agence bancaire Banque Privée Littoral;5 Boulevard Sainte-Barbe, 59140 Dunkerque;59140;51,0346346;2,3786279;Crédit Agricole - Nord De France
Agence bancaire CAF PME  Littoral;5 Boulevard Sainte-Barbe, 59140 Dunkerque;59140;51,0346346;2,3786279;Crédit Agricole - Nord De France
Agence bancaire Centre d'Affaires Pro de Dunkerque;5 Boulevard Sainte-Barbe, 59140 Dunkerque;59140;51,0346346;2,37862789999997;Crédit Agricole - Nord De France
Agence bancaire DUNKERQUE;5 - 7, Rue Sainte Barbe, 59140 DUNKERQUE;59140;51,034592;2,378627;Crédit Agricole - Nord De France
Agence bancaire ROSENDAEL;40, Rue Paul Machy, 59240 DUNKERQUE;59240;51,0414092;2,4068579;Crédit Agricole - Nord De France
Agence Immobilière Square habitat Dunkerque Square Habitat;51 avenue des bains, 59140 Dunkerque;59140;51,043321;2,382959;Crédit Agricole - Nord De France
Relais CA QUEEN'S - ECAILLON;72 ROUTE NATIONALE, 59176 ECAILLON;59176;50,335697;3,211024;Crédit Agricole - Nord De France
Relais CA Camping du ballons - Enquin-sur-Baillons;35 Route de l'Épinette, 62650 Enquin-sur-Baillons;62650;50,5697781;1,842006;Crédit Agricole - Nord De France
Relais CA Le baillon - Enquin-sur-Baillons;6 Route du Bois Ratel, 62650 Enquin-sur-Baillons;62650;50,571317;1,8372073;Crédit Agricole - Nord De France
Relais CA LES CAPRICES D'ANNE - Eppe-Sauvage;Le Val Joly, 59132 Eppe-Sauvage;59132;50,1190025;4,1362396;Crédit Agricole - Nord De France
Relais CA La vie sauvage - Eppe-Sauvage;6 Rue la Place, 59132 Eppe-Sauvage;59132;50,1199186;4,1776233;Crédit Agricole - Nord De France
Agence bancaire Centre d'affaires Agri d'Estaires;1 Place Saint-Vaast, 59940 Estaires;59940;50,6439385;2,7235704;Crédit Agricole - Nord De France
Agence bancaire ESTAIRES;1 Place Saint-Vaast, 59940 Estaires;59940;50,6439385;2,7235704;Crédit Agricole - Nord De France
Agence bancaire ETAPLES;3 PLACE DU GENERAL DE GAULLE, 62630 ETAPLES;62630;;;Crédit Agricole - Nord De France
Agence bancaire FAUQUEMBERGUES;7 Rue Monsigny, 62560 Fauquembergues;62560;;;Crédit Agricole - Nord De France
Agence bancaire FEIGNIES;33, Rue Jean Jaurès, 59750 FEIGNIES;59750;;;Crédit Agricole - Nord De France
Relais CA COCCIMARKET - FELLERIES;7 RUE DU DR CAYET, 59740 FELLERIES;59740;50,143194;4,029845;Crédit Agricole - Nord De France
Agence bancaire FENAIN;2, Rue Jean Jaurès, 59179 FENAIN;59179;;;Crédit Agricole - Nord De France
Relais CA Le Korthals - FERIN;10 RUE DE GOEULZIN, 59169 FERIN;59169;50,327375;3,074918;Crédit Agricole - Nord De France
Agence bancaire FLEURBAIX;3 PLACE DU GENERAL DE GAULLE, 62840 FLEURBAIX;62840;;;Crédit Agricole - Nord De France
Agence bancaire FLINES-LEZ-RACHES;45, Rue des Résistants, 59148 FLINES-LEZ-RACHES;59148;;;Crédit Agricole - Nord De France
Relais CA LAURIE'GINALE - Foncquevillers;17 Rue Haute, 62111 Foncquevillers;62111;50,1494596;2,6317761;Crédit Agricole - Nord De France
Agence bancaire FOURMIES;52 Rue Saint-Louis, 59612 Fourmies;59612;;;Crédit Agricole - Nord De France
Agence bancaire FOURNES EN WEPPES;1191, Rue Faidherbe, 59134 FOURNES EN WEPPES;59134;;;Crédit Agricole - Nord De France
Relais CA COCCIMARKET - FRELINGHEIN;5001F ROUTE D ARMENTIERES, 59236 FRELINGHEIN;59236;50,710758;2,932514;Crédit Agricole - Nord De France
Agence bancaire FREVENT;Place Jean Jaurès BP 4, 62270 FREVENT;62270;;;Crédit Agricole - Nord De France
Agence bancaire FRUGES;18, Place du Général de Gaulle BP 8, 62310 FRUGES;62310;;;Crédit Agricole - Nord De France
Relais CA Café tabac de la mairie - GOUY SOUS BELLONNE;4 RUE DE L EGLISE, 62112 GOUY SOUS BELLONNE;62112;50,312436;3,055946;Crédit Agricole - Nord De France
Agence bancaire GOUZEAUCOURT;840, Rue du Général De Gaulle, 59231 GOUZEAUCOURT;59231;;;Crédit Agricole - Nord De France
Relais CA Chez Pascal - GRAND FAYT;4 RUE DU MOULIN, 59244 GRAND FAYT;59244;50,113039;3,804199;Crédit Agricole - Nord De France
Agence bancaire GRANDE SYNTHE;77 Avenue de l Ancien Village, 59760 Grande-Synthe;59760;;;Crédit Agricole - Nord De France
Agence bancaire GRAVELINES;15 Place Albert Denvers, 59820 Gravelines;59820;;;Crédit Agricole - Nord De France
Relais CA LE CAMPAGNARD - Guarbecque;2 Place Clemenceau, 62330 Guarbecque;62330;50,6102813;2,4881712;Crédit Agricole - Nord De France
Agence bancaire GUINES;29 RUE GEORGES CLEMENCEAU, 62340 GUINES;62340;;;Crédit Agricole - Nord De France
Agence bancaire HALLUIN;97 RUE DE LILLE, 59250 HALLUIN;59250;;;Crédit Agricole - Nord De France
Relais CA Estaminet au Lion D'or - HARDINGHEN;28B RUE DE LEGLISE, 62132 HARDINGHEN;62132;50,800057;1,820809;Crédit Agricole - Nord De France
Agence bancaire HARNES;23, Rue des Fusillés BP 77, 62440 HARNES;62440;;;Crédit Agricole - Nord De France
Agence bancaire HAUBOURDIN;1 RUE LEON GAMBETTA, 59320 HAUBOURDIN;59320;;;Crédit Agricole - Nord De France
Relais CA Dhalci Bar - HAUSSY;5 RUE CELESTIN DELOGE, 59294 HAUSSY;59294;50,217782;3,480741;Crédit Agricole - Nord De France
Agence bancaire HAUTMONT;11, Place De Gaulle, 59330 HAUTMONT;59330;;;Crédit Agricole - Nord De France
Agence bancaire Banque Privée les Flandres;5 Rue de l'Église, 59190 Hazebrouck;59190;50,7213326;2,5364682;Crédit Agricole - Nord De France
Agence bancaire Centre d'affaires Pro de Hazebrouck;5 Rue de l'Église, 59190 Hazebrouck;59190;50,7213326;2,5364682;Crédit Agricole - Nord De France
Agence bancaire HAZEBROUCK;5, Rue de l Eglise, 59190 HAZEBROUCK;59190;50,7214905;2,5361826;Crédit Agricole - Nord De France
Agence Immobilière Square habitat Hazebrouck Square Habitat;3 rue de l'église, 59190 Hazebrouck;59190;50,72138;2,536625;Crédit Agricole - Nord De France
Agence bancaire HELLEMMES;243, Rue Roger Salengro, 59260 HELLEMMES;59260;;;Crédit Agricole - Nord De France
Agence bancaire HEM;34 Bis, Rue du Général Leclerc, 59510 HEM;59510;;;Crédit Agricole - Nord De France
Agence bancaire HENIN BEAUMONT;58 RUE MONTPENCHER, 62253 HENIN BEAUMONT;62253;;;Crédit Agricole - Nord De France
Relais CA HOOGERS JACKY - Hergnies;28 Place de la République, 59199 Hergnies;59199;50,4731927;3,5256684;Crédit Agricole - Nord De France
Relais CA Au bon coin - HERLIES;1 RUE D'AUBERS, 59134 HERLIES;59134;50,578884;2,852215;Crédit Agricole - Nord De France
Relais CA GREENIE CAMP - Herlies;Rue Madoue, 59134 Herlies;59134;50,5747799;2,849933;Crédit Agricole - Nord De France
Agence bancaire HERMIES;2 Rue de l Église, 62147 HERMIES;62147;;;Crédit Agricole - Nord De France
Relais CA AU LION BLANC - Herzeele;27 Rue de Wormhout, 59470 Herzeele;59470;50,88625940000001;2,5301284;Crédit Agricole - Nord De France
Agence bancaire HESDIN;1 place d armes, 62140 HESDIN;62140;;;Crédit Agricole - Nord De France
Relais CA au bon coin - Heuringhem;170 Rue de Thérouanne, 62575 Heuringhem;62575;50,6953378;2,281681;Crédit Agricole - Nord De France
Agence bancaire HONDSCHOOTE;10, Place du Général De Gaulle, 59122 HONDSCHOOTE;59122;;;Crédit Agricole - Nord De France
Agence bancaire HOUDAIN;Place des Martyrs BP 12, 62150 HOUDAIN;62150;;;Crédit Agricole - Nord De France
Relais CA CARPEDIEM - Huby-Saint-Leu;1 Rue Fernand Lemercier, 62140 Huby-Saint-Leu;62140;50,38112719999999;2,0371562;Crédit Agricole - Nord De France
Agence bancaire HUCQUELIERS;5, Place de la République BP 1, 62650 HUCQUELIERS;62650;;;Crédit Agricole - Nord De France
Relais CA Le tremblay - Hulluch;75 Rue Roger Salengro, 62410 Hulluch;62410;50,4876795;2,8498775;Crédit Agricole - Nord De France
Agence bancaire ISBERGUES;114, Rue R. Salengro BP 24, 62330 ISBERGUES;62330;;;Crédit Agricole - Nord De France
Agence Immobilière Square habitat Iwuy Square Habitat;3 rue foch, 59141 Iwuy;59141;50,2305259;3,3217737;Crédit Agricole - Nord De France
Relais CA Café des Sports - IZEL LES EQUERCHIN;16 ROUTE DE L EGLISE, 62490 IZEL LES EQUERCHIN;62490;50,361558;2,949633;Crédit Agricole - Nord De France
Relais CA Le Pennsylvanie - IZEL LES HAMEAUX;12 RUE D ARRAS, 62690 IZEL LES HAMEAUX;62690;50,315095;2,534438;Crédit Agricole - Nord De France
Agence bancaire JEUMONT;226, Rue Despret, 59460 JEUMONT;59460;;;Crédit Agricole - Nord De France
Agence bancaire LA BASSEE;5, Rue du Général Leclerc, 59480 LA BASSEE;59480;;;Crédit Agricole - Nord De France
Agence bancaire LA CAPELLE;202 Avenue de la Forêt, 62360 La Capelle-lès-Boulogne;62360;;;Crédit Agricole - Nord De France
Agence bancaire LA MADELEINE;57, Avenue Saint-Maur Résidence Minerve, 59110 LA MADELEINE;59110;50,652459;3,081099;Crédit Agricole - Nord De France
Agence bancaire LA MADELEINE 2;158, Rue du Général De Gaulle, 59110 LA MADELEINE;59110;50,653792;3,073452;Crédit Agricole - Nord De France
Agence Immobilière Square habitat La Madeleine Square Habitat;223 avenue de la république, 59110 La Madeleine;59110;50,649708;3,078859;Crédit Agricole - Nord De France
Agence bancaire LAMBERSART;2 Avenue Henri Delecaux, 59130 Lambersart;59130;;;Crédit Agricole - Nord De France
Agence bancaire LANDRECIES;41, Rue du Général De Gaulle, 59550 LANDRECIES;59550;;;Crédit Agricole - Nord De France
Agence bancaire LANNOY;23 RUE DE TOURNAI, 59390 LANNOY;59390;;;Crédit Agricole - Nord De France
Agence bancaire LAVENTIE;43, Rue du 11 Novembre BP 3, 62840 LAVENTIE;62840;;;Crédit Agricole - Nord De France
Agence bancaire LE CATEAU;36 Rue Jean Jaurès, 59360 Le CATEAU-CAMBRESIS;59360;;;Crédit Agricole - Nord De France
Relais CA FERME AVICOLE - Le Doulieu;1092 Rue du Courant, 59940 Le Doulieu;59940;50,669797;2,7084443;Crédit Agricole - Nord De France
Relais CA LE DOULIEU - Le Doulieu;1 Rue du Calvaire, 59940 Le Doulieu;59940;50,6825748;2,7190986;Crédit Agricole - Nord De France
Agence bancaire Centre d'affaires Pro de Le Quesnoy;8 Rue Henri Weibel, 59530 Le Quesnoy;59530;50,2477741;3,6392086;Crédit Agricole - Nord De France
Agence bancaire LE QUESNOY;8 Rue Henri Weibel, 59530 Le Quesnoy;59530;50,2477741;3,6392086;Crédit Agricole - Nord De France
Agence Immobilière Square habitat Le Quesnoy Square Habitat;8 rue thiers, 59530 Le Quesnoy;59530;50,2477073;3,6384963;Crédit Agricole - Nord De France
Agence bancaire LE TOUQUET;39 boulevard daloz, 62520 LE TOUQUET;62520;;;Crédit Agricole - Nord De France
Relais CA Le Jean Bart - Lederzeele;1 Route de Saint-Omer, 59143 Lederzeele;59143;50,8189457;2,3018196;Crédit Agricole - Nord De France
Agence bancaire LEERS;2 Place Lucien DEMONCHAUX, 59115 LEERS;59115;;;Crédit Agricole - Nord De France
Agence bancaire LEFOREST;26, Rue Gambetta BP 15, 62790 LEFOREST;62790;;;Crédit Agricole - Nord De France
Agence bancaire LENS LANOY;27 Rue René Lanoy, 62300 Lens;62300;;;Crédit Agricole - Nord De France
Relais CA Au Pont d'Ardres - LES ATTAQUES;4066 ROUTE NATIONALE 43, 62730 LES ATTAQUES;62730;50,912349;1,926205;Crédit Agricole - Nord De France
Agence bancaire LESQUIN;113 Rue Faidherbe, 59810 Lesquin;59810;;;Crédit Agricole - Nord De France
Agence bancaire LESTREM;10 Route de Béthune, 62136 Lestrem;62136;;;Crédit Agricole - Nord De France
Agence bancaire LICQUES;6 place Henri et Christiane Collette, 62850 LICQUES;62850;;;Crédit Agricole - Nord De France
Relais CA LA FORESTIERE - Liessies;48 Rue Clemenceau, 59740 Liessies;59740;50,114442;4,0731318;Crédit Agricole - Nord De France
Agence bancaire LIEVIN;163 Rue Jean Baptiste Défernez, 62800 Liévin;62800;;;Crédit Agricole - Nord De France
Agence bancaire Banque Privée MEL SUD;77 Rue Nationale, 59800 Lille;59800;50,6353637;3,0591662;Crédit Agricole - Nord De France
Agence bancaire Banque du Dirigeant & Gestion de fortune;77 Rue Nationale, 59800 Lille;59800;50,6353637;3,0591662;Crédit Agricole - Nord De France
Agence bancaire Centre d'Affaires Entreprises de Lille;77 Rue Nationale, 59800 Lille;59800;50,6353637;3,0591662;Crédit Agricole - Nord De France
Agence bancaire Centre d'affaires Grandes Entreprises;91 Rue Nationale, 59800 Lille;59800;50,6349931;3,0580673;Crédit Agricole - Nord De France
Agence bancaire Centre d'affaires Promotion Immobilière;91 Rue Nationale, 59800 Lille;59800;50,6349931;3,0580673;Crédit Agricole - Nord De France
Agence bancaire Centre d'affaires Secteur Economie sociale;91 Rue Nationale, 59800 Lille;59800;50,6349931;3,0580673;Crédit Agricole - Nord De France
Agence bancaire LILLE CORMONTAIGNE;5 Place Cormontaigne, 59000 Lille;59000;50,62570119999999;3,0399;Crédit Agricole - Nord De France
Agence bancaire LILLE NATIONALE;71-73 Rue Nationale, 59000 Lille;59000;50,6355369;3,0595175;Crédit Agricole - Nord De France
Agence bancaire LILLE REPUBLIQUE BEAUX-ARTS;2 Rue Léon Gambetta, 59800 Lille;59800;50,6315338;3,0595138;Crédit Agricole - Nord De France
Agence bancaire LILLE SAINT MAURICE PELLEVOISIN;168 Rue du Faubourg de Roubaix, 59800 Lille;59800;50,6421289;3,0870079;Crédit Agricole - Nord De France
Agence bancaire LILLE TREILLE;18 Place Louise de Bettignies, 59800 Lille;59800;50,640766;3,0649841;Crédit Agricole - Nord De France
Agence bancaire LILLE VICTOR HUGO;12 Boulevard Victor Hugo, 59000 Lille;59000;50,624285;3,0670564;Crédit Agricole - Nord De France
Agence Immobilière Secteur Public Local Square Habitat;10 avenue Foch, 59020 LILLE;59020;50,63577037796865;3,057564890138349;Crédit Agricole - Nord De France
Agence Immobilière Square habitat Immobilier Patrimoine Square Habitat;2 place mendes france, 59000 Lille;59000;50,6370931;3,0607699;Crédit Agricole - Nord De France
Agence Immobilière Square habitat Lille Faidherbe Square Habitat;39-41 rue Faidherbe, 59000 Lille;59000;50,637009;3,0672696;Crédit Agricole - Nord De France
Agence Immobilière Square habitat Lille Fives Square Habitat;1 rue de lannoy, 59000 Lille;59000;50,6332959;3,0904368;Crédit Agricole - Nord De France
Agence Immobilière Square habitat Lille Nationale Square Habitat;123 rue nationale, 59000 Lille;59000;50,633805;3,0563192;Crédit Agricole - Nord De France
Agence Immobilière Square habitat Lille Pro Square Habitat;123 rue nationale, 59000 Lille;59000;50,633925;3,056031;Crédit Agricole - Nord De France
Agence bancaire LILLERS;9, Rue du Commerce BP 95, 62190 LILLERS;62190;;;Crédit Agricole - Nord De France
Agence bancaire LINSELLES;21, Rue du Maréchal Foch, 59126 LINSELLES;59126;;;Crédit Agricole - Nord De France
Relais CA Le carrousel - Locon;5 Rue du 11 Novembre, 62400 Locon;62400;50,5706725;2,6660495;Crédit Agricole - Nord De France
Agence bancaire LOMME;371, Avenue de Dunkerque, 59160 LOMME;59160;50,64148;3,017711;Crédit Agricole - Nord De France
Agence bancaire LOMME BOURG;761, Avenue de Dunkerque, 59160 LOMME;59160;50,645664;2,987716;Crédit Agricole - Nord De France
Agence Immobilière Square habitat Lomme Square Habitat;303 avenue de dunkerque, 59160 Lomme;59160;50,6393636;3,0197935;Crédit Agricole - Nord De France
Agence bancaire LOON PLAGE;25, Rue Georges Pompidou, 59279 LOON PLAGE;59279;;;Crédit Agricole - Nord De France
Agence bancaire LOOS;22, Rue du Maréchal Foch, 59120 LOOS;59120;;;Crédit Agricole - Nord De France
Agence bancaire LOOS EN GOHELLE;Place de la République, 62750 LOOS EN GOHELLE;62750;;;Crédit Agricole - Nord De France
Agence bancaire Centre d'affaires Agri de Lumbres;25 Place Jean Jaurès, 62380 Lumbres;62380;50,7057721;2,1232377;Crédit Agricole - Nord De France
Agence bancaire LUMBRES;25 Place Jean Jaurès, 62380 Lumbres;62380;50,7057721;2,1232377;Crédit Agricole - Nord De France
Agence Immobilière Square habitat Lys-lez-Lannoy Square Habitat;37 rue jules guesde, 59390 Lys-lez-Lannoy;59390;50,6705708;3,2071794;Crédit Agricole - Nord De France
Relais CA café de la mairie - Malincourt;3 Place de la Victoire, 59127 Malincourt;59127;50,0473213;3,3250176;Crédit Agricole - Nord De France
Agence bancaire MALO LES BAINS;15 Place Turenne, 59240 MALO LES BAINS;59240;;;Crédit Agricole - Nord De France
Agence bancaire MARCHIENNES;16, Place du Général De Gaulle, 59870 MARCHIENNES;59870;;;Crédit Agricole - Nord De France
Agence bancaire MARCK EN CALAISIS;49 Avenue de Verdun, 62730 Marck;62730;;;Crédit Agricole - Nord De France
Agence bancaire MARCOING;15, Rue de la République, 59159 MARCOING;59159;;;Crédit Agricole - Nord De France
Agence bancaire MARCQ CLEMENCEAU;22, Boulevard Clemenceau, 59700 MARCQ EN BAROEUL;59700;50,665167;3,078019;Crédit Agricole - Nord De France
Agence bancaire MARCQ EN BAROEUL;1, Avenue Foch, 59700 MARCQ EN BAROEUL;59700;50,666443;3,103013;Crédit Agricole - Nord De France
Relais CA Fougnies Myriam - Maresches;Rue du Contour de Trieux, 59990 Maresches;59990;50,2945404;3,5756891;Crédit Agricole - Nord De France
Agence Immobilière Square habitat Marquette lez Lille Square Habitat;9 place du général de gaulle, 59520 Marquette lez Lille;59520;50,6761927;3,0643388;Crédit Agricole - Nord De France
Relais CA A LA BONNE FRANCKETTE - Marquillies;97 Rue Léon Bocquet, 59274 Marquillies;59274;50,5580872;2,869857;Crédit Agricole - Nord De France
Agence bancaire MARQUION;65 ROUTE NATIONALE, 62860 MARQUION;62860;;;Crédit Agricole - Nord De France
Agence bancaire MARQUISE;12, Rue Pasteur BP 1, 62250 MARQUISE;62250;;;Crédit Agricole - Nord De France
Agence bancaire Centre d'affaires Pro de Maubeuge;40 Avenue de France, 59600 Maubeuge;59600;50,27451569999999;3,972322;Crédit Agricole - Nord De France
Agence bancaire MAUBEUGE;40 Avenue de France, 59600 Maubeuge;59600;50,27451569999999;3,972322;Crédit Agricole - Nord De France
Agence Immobilière Square habitat Maubeuge Square Habitat;57 avenue de france, 59600 Maubeuge;59600;50,2745511;3,9728994;Crédit Agricole - Nord De France
Agence bancaire MAZINGARBE;9, Rue Décatoire BP 5, 62670 MAZINGARBE;62670;;;Crédit Agricole - Nord De France
Relais CA Le Celtic - MERLIMONT;268 AV AUGUSTE BIBLOCQ, 62155 MERLIMONT;62155;50,453433;1,613853;Crédit Agricole - Nord De France
Agence Immobilière Square habitat Merlimont Square Habitat;55 avenue de la plage, 62155 Merlimont;62155;50,4624487;1,5760167;Crédit Agricole - Nord De France
Agence bancaire MERVILLE;9 PLACE DE LA LIBERATION, 59660 MERVILLE;59660;;;Crédit Agricole - Nord De France
Relais CA L'estaminet des monts - METEREN;52 Bis Route nationale, 59270 METEREN;59270;49,2133017;5,9223488;Crédit Agricole - Nord De France
Relais CA Devendeville Philippe - Mérignies;10 Rue de la Mairie, 59710 Mérignies;59710;50,506248;3,1098626;Crédit Agricole - Nord De France
Agence Immobilière Square habitat Mérignies Square Habitat;1451 route nationale, 59710 Mérignies;59710;50,502446;3,126176;Crédit Agricole - Nord De France
Relais CA Sterckeman Bruno - Millam;14 Rue de l'Église, 59143 Millam;59143;50,854755;2,2494999;Crédit Agricole - Nord De France
Relais CA Les gourmandises sucrées de Val - MONCHECOURT;107 BIS RUE VOLTAIRE, 59234 MONCHECOURT;59234;50,29955474616122;3,204760828657423;Crédit Agricole - Nord De France
Relais CA PISCICULTURE DE MONCHEL - MONCHEL SUR CANCHE;52 RUE DE SAINT POL, 62270 MONCHEL SUR CANCHE;62270;50,302547;2,205382;Crédit Agricole - Nord De France
Agence bancaire MONS EN BAROEUL;157, Rue du Général De Gaulle, 59370 MONS EN BAROEUL;59370;;;Crédit Agricole - Nord De France
Relais CA L'interlude - MONTIGNY EN OSTREVENT;290 RUE DE LA GARE, 59182 MONTIGNY EN OSTREVENT;59182;50,361507;3,187861;Crédit Agricole - Nord De France
Agence bancaire Centre d'affaires Agri de Montreuil sur Mer;32 Place du Général de Gaulle, 62170 Montreuil-sur-Mer;62170;50,4610171;1,7603434;Crédit Agricole - Nord De France
Agence bancaire MONTREUIL SUR MER;32 Place du Général de Gaulle, 62170 Montreuil-sur-Mer;62170;50,4610171;1,7603434;Crédit Agricole - Nord De France
Relais CA Cave à vin Delaby - MOUCHIN;95 ROUTE DE SAINT AMAND, 59310 MOUCHIN;59310;50,51806;3,293337;Crédit Agricole - Nord De France
Agence bancaire MOULLE;43, Route Nationale  BP7, 62910 MOULLE;62910;;;Crédit Agricole - Nord De France
Agence bancaire MOUVAUX;64, Rue Franklin Roosevelt, 59421 MOUVAUX;59421;;;Crédit Agricole - Nord De France
Agence bancaire NEUFCHATEL;34, Rue des Allées, 62152 NEUFCHATEL;62152;;;Crédit Agricole - Nord De France
Agence bancaire NEUVILLE EN FERRAIN;1, Place Salengro, 59960 NEUVILLE EN FERRAIN;59960;;;Crédit Agricole - Nord De France
Agence bancaire NEUVILLE SAINT REMY;48 RUE DE LILLE, 59554 NEUVILLE ST REMY;59554;;;Crédit Agricole - Nord De France
Relais CA Le Code Bar - NIELLES LES BLEQUIN;6 RUE DE BLEQUIN, 62380 NIELLES LES BLEQUIN;62380;50,674148;2,030583;Crédit Agricole - Nord De France
Agence bancaire NIEPPE;5, place du général de gaulle, 59850 NIEPPE;59850;;;Crédit Agricole - Nord De France
Agence bancaire NOEUX LES MINES;117, Route Nationale, 62290 NOEUX LES MINES;62290;;;Crédit Agricole - Nord De France
Agence bancaire NORRENT FONTES;37, route Nationale, 62120 NORRENT FONTES;62120;;;Crédit Agricole - Nord De France
Relais CA LA CIVETTE - NOYELLES SOUS LENS;15 RUE VICTOR HUGO, 62221 NOYELLES SOUS LENS;62221;50,428736;2,87371;Crédit Agricole - Nord De France
Agence bancaire OIGNIES;2, Rue Henriette Crombez BP 1, 62590 OIGNIES;62590;;;Crédit Agricole - Nord De France
Agence bancaire ONNAING;242 rue Jean Jaurès, 59264 ONNAING;59264;;;Crédit Agricole - Nord De France
Agence bancaire ORCHIES;1 Place Gambetta, 59310 ORCHIES;59310;;;Crédit Agricole - Nord De France
Agence bancaire OUTREAU;23, Boulevard de la Liberté, 62230 OUTREAU;62230;;;Crédit Agricole - Nord De France
Agence bancaire OYE PLAGE;112 Avenue Paul Machy, 62215 Oye-Plage;62215;;;Crédit Agricole - Nord De France
Relais CA Café des sports - Paillencourt;9 Rue Gilbert Betrancourt, 59295 Paillencourt;59295;50,2450674;3,276177;Crédit Agricole - Nord De France
Agence bancaire PAS EN ARTOIS;18, Grand Place BP1, 62760 PAS EN ARTOIS;62760;;;Crédit Agricole - Nord De France
Agence bancaire PECQUENCOURT;8 Place du General de Gaulle, 59146 PECQUENCOURT;59146;;;Crédit Agricole - Nord De France
Agence bancaire PERENCHIES;6 Rue de la Prévoté, 59840 PERENCHIES;59840;;;Crédit Agricole - Nord De France
Agence bancaire PERNES EN ARTOIS;29, Grand Place, 62550 PERNES;62550;;;Crédit Agricole - Nord De France
Relais CA LE SPLENDID - PETITE FORET;4 RUE HYACYNTHE MARS, 59494 PETITE FORET;59494;50,370663;3,474378;Crédit Agricole - Nord De France
Agence bancaire PHALEMPIN;4, rue Jean Baptiste LEBAS, 59133 PHALEMPIN;59133;;;Crédit Agricole - Nord De France
Agence bancaire PONT A MARCQ;102, Route Nationale, 59710 PONT A MARCQ;59710;;;Crédit Agricole - Nord De France
Relais CA LE MARIGNY - PONT A VENDIN;2 RUE LELEU, 62880 PONT A VENDIN;62880;50,470529;2,875134;Crédit Agricole - Nord De France
Agence bancaire PROVILLE;5 Rue Jean Jaurès, 59267 Proville;59267;;;Crédit Agricole - Nord De France
Relais CA Café de l'avenir - QUEANT;9 BIS RUE DE L'EGLISE, 62860 QUEANT;62860;50,15086;3,456022;Crédit Agricole - Nord De France
Relais CA CHez Brigitte - Quelmes;127 Rue de l'Église, 62500 Quelmes;62500;50,7332543;2,1380032;Crédit Agricole - Nord De France
Agence bancaire QUESNOY SUR DEULE;3 Rue du Général Leclerc, 59890 QUESNOY SUR DEULE;59890;;;Crédit Agricole - Nord De France
Relais CA L'Imprévu - RANG DU FLIERS;44 ROUTE DE BERCK, 62180 RANG DU FLIERS;62180;50,417636;1,647168;Crédit Agricole - Nord De France
Relais CA Boucherie VINCENT - ROBECQ;4 RUE FLANDRE DUNKERQUE, 62350 ROBECQ;62350;50,595542;2,56347;Crédit Agricole - Nord De France
Agence bancaire RONCHIN;706, Avenue Jean Jaurès, 59790 RONCHIN;59790;;;Crédit Agricole - Nord De France
Agence bancaire RONCQ;346, Rue de Lille, 59223 RONCQ;59223;;;Crédit Agricole - Nord De France
Agence bancaire ROUBAIX 2;65-67 , Boulevard de Fourmies, 59100 ROUBAIX;59100;50,6759806;3,1808169;Crédit Agricole - Nord De France
Agence bancaire ROUBAIX BARBIEUX;52, Avenue Jean Jaurès, 59100 ROUBAIX;59100;50,6769173;3,1608052;Crédit Agricole - Nord De France
Agence Immobilière Square habitat Roubaix Mairie Square Habitat;2 avenue jean baptiste lebas, 59100 Roubaix;59100;50,6917071;3,1732421;Crédit Agricole - Nord De France
Relais CA Martine - Rumegies;165 Rue de l'Église, 59226 Rumegies;59226;50,4886464;3,3496089;Crédit Agricole - Nord De France
Relais CA Café des Sports - RUMILLY EN CAMBRESIS;21 PLACE DU 19 MARS 1962, 59281 RUMILLY EN CAMBRESIS;59281;50,124471;3,219602;Crédit Agricole - Nord De France
Relais CA AU PAIN D'EPI - Ruyaulcourt;6 Rue de la Place, 62124 Ruyaulcourt;62124;50,0836317;3,0137817;Crédit Agricole - Nord De France
Relais CA L'ESCALE DU BAC - Sailly-sur-la-Lys;2954 Rue de la Lys, 62840 Sailly-sur-la-Lys;62840;50,66108149999999;2,7935636;Crédit Agricole - Nord De France
Agence bancaire SAINGHIN EN WEPPES;35 Bis, Rue du Capitaine Lheureux, 59184 SAINGHIN EN WEPPES;59184;;;Crédit Agricole - Nord De France
Agence bancaire SAINT POL SUR MER;Rue de la République, 59430 SAINT POL SUR MER;59430;;;Crédit Agricole - Nord De France
Agence bancaire SAINT-SAULVE;3, rue montesquieu Résidence Madame de Sévigné, 59580 SAINT SAULVE;59580;;;Crédit Agricole - Nord De France
Agence bancaire SAINT-AMAND;34 Rue d Orchies, 59230 SAINT-AMAND-LES-EAUX;59230;;;Crédit Agricole - Nord De France
Agence bancaire SAINT-ANDRE;117, Rue du Général Leclerc, 59350 SAINT-ANDRE-LEZ-LILLE;59350;;;Crédit Agricole - Nord De France
Relais CA Marché du Terroir - Saint-Inglevert;1 Rue des Châtaigniers, 62250 Saint-Inglevert;62250;50,8763791;1,7450977;Crédit Agricole - Nord De France
Agence bancaire SAINT-LAURENT-BLANGY;5 - 7 rue de Versailles, 62223 SAINT-LAURENT-BLANGY;62223;;;Crédit Agricole - Nord De France
Agence bancaire Banque Privée Terre et Opale;26 Place du Maréchal Foch, 62500 Saint-Omer;62500;50,7498938;2,2505223;Crédit Agricole - Nord De France
Agence bancaire Centre d'affaires Pro de St Omer;26 Place du Maréchal Foch, 62500 Saint-Omer;62500;50,7499029;2,2505056;Crédit Agricole - Nord De France
Agence bancaire SAINT-OMER FOCH;26 Place du Maréchal Foch, 62500 Saint-Omer;62500;50,7499029;2,2505056;Crédit Agricole - Nord De France
Agence Immobilière Square habitat Saint-Omer Square Habitat;79 rue d'arras, 62503 Saint-Omer;62503;50,6622788;3,0503293;Crédit Agricole - Nord De France
Agence Immobilière Square habitat Saint-Pol Square Habitat;12 rue des carmes, 62130 Saint-Pol;62130;50,3819742;2,3361969;Crédit Agricole - Nord De France
Agence bancaire Centre d'affaires Agri de Saint Pol sur Ternoise;4 Place de Verdun, 62130 Saint-Pol-sur-Ternoise;62130;50,3798763;2,3387006;Crédit Agricole - Nord De France
Agence bancaire SAINT POL VERDUN;4 Place de Verdun, 62130 Saint-Pol-sur-Ternoise;62130;50,3798763;2,3387006;Crédit Agricole - Nord De France
Agence bancaire SAINT-VENANT;30, Rue de Paris BP 13, 62350 SAINT-VENANT;62350;;;Crédit Agricole - Nord De France
Agence bancaire SAINTE-CATHERINE;10 place de la République, 62223 SAINTE-CATHERINE;62223;;;Crédit Agricole - Nord De France
Agence bancaire SAMER;63 Place du Maréchal Foch, 62830 Samer;62830;;;Crédit Agricole - Nord De France
Relais CA BAR TABAC DUHAUTOY - SANGHEN;813 RUE DE L EGLISE, 62850 SANGHEN;62850;50,783445;1,913944;Crédit Agricole - Nord De France
Relais CA Le Saint Laurent - SARS POTERIES;LE SAINT LAURENT, 59216 SARS POTERIES;59216;50,170006;4,026176;Crédit Agricole - Nord De France
Agence bancaire Centre d'affaires Agri de Valenciennes-Douai;2 Rue de l'Epau, 59230 Sars-et-Rosières;59230;;;Crédit Agricole - Nord De France
Relais CA Café de la Place - SARTON;8 RUE D ALBERT, 62760 SARTON;62760;50,122104;2,431816;Crédit Agricole - Nord De France
Agence bancaire Centre d'affaires Pro de Seclin;31 Place du Général de Gaulle, 59113 Seclin;59113;50,5511621;3,0314549;Crédit Agricole - Nord De France
Agence bancaire SECLIN;31 Place du Général de Gaulle, 59113 Seclin;59113;50,5511621;3,0314549;Crédit Agricole - Nord De France
Agence Immobilière Square habitat Seclin Square Habitat;2 rue de roger bouvry, 59113 Seclin;59113;50,5500328;3,0295789;Crédit Agricole - Nord De France
Agence bancaire SIN LE NOBLE;59, Place Jean Jaurès, 59450 SIN LE NOBLE;59450;;;Crédit Agricole - Nord De France
Agence bancaire SOLESMES;53 rue de la République, 59730 SOLESMES;59730;;;Crédit Agricole - Nord De France
Relais CA COCCIMARKET - SOLRE LE CHATEAU;6 RUE DE BEAUMONT, 59740 SOLRE LE CHATEAU;59740;50,17478;4,09211;Crédit Agricole - Nord De France
Agence bancaire SOMAIN;41 RUE PASTEUR, 59490 SOMAIN;59490;;;Crédit Agricole - Nord De France
Agence bancaire SOUCHEZ;2, Rue Pasteur BP 12, 62153 SOUCHEZ;62153;;;Crédit Agricole - Nord De France
Agence bancaire STEENVOORDE;33 PLACE NORBERT SEGARD, 59114 STEENVOORDE;59114;;;Crédit Agricole - Nord De France
Agence bancaire STEENWERCK;10, Rue du Cygne, 59181 STEENWERCK;59181;;;Crédit Agricole - Nord De France
Agence bancaire TEMPLEUVE;8, Rue Demesmay, 59242 TEMPLEUVE;59242;;;Crédit Agricole - Nord De France
Agence bancaire TETEGHEM;11, Rue de la Mairie, 59229 TETEGHEM;59229;;;Crédit Agricole - Nord De France
Agence bancaire THEROUANNE;23 Grand Rue, 62129 THEROUANNE;62129;;;Crédit Agricole - Nord De France
Agence bancaire THIANT;8, Rue Salengro, 59224 THIANT;59224;;;Crédit Agricole - Nord De France
Agence bancaire THUMERIES;2, Rue Roger Salengro, 59239 THUMERIES;59239;;;Crédit Agricole - Nord De France
Relais CA LE DECLI'K - Tilloy-lès-Mofflaines;48 Avenue Charles de Gaulle, 62217 Tilloy-lès-Mofflaines;62217;50,2759809;2,8180769;Crédit Agricole - Nord De France
Relais CA Chez Legris - Tincques;22 Route nationale, 62127 Tincques;62127;50,35458680000001;2,4872671;Crédit Agricole - Nord De France
Agence bancaire Centre d'affaires Pro de Tourcoing;20 Place de la République, 59200 Tourcoing;59200;50,7213566;3,1594667;Crédit Agricole - Nord De France
Agence Immobilière Square habitat Tourcoing Roosevelt Square Habitat;51 rue franklin roosevelt, 59200 Tourcoing;59200;50,7271562;3,1669651;Crédit Agricole - Nord De France
Agence bancaire TOURCOING;20 Place de la République, 59200 Tourcoing;59200;50,7213566;3,1594667;Crédit Agricole - Nord De France
Agence Immobilière Square habitat Tourcoing Roussel Square Habitat;34 place charles et albert roussel, 59200 Tourcoing Roussel;59200;50,7219158;3,1572686;Crédit Agricole - Nord De France
Relais CA Café de la mairie - Tournehem-sur-la-Hem;23 D218, 62890 Tournehem-sur-la-Hem;62890;50,8084419;2,0544852;Crédit Agricole - Nord De France
Agence bancaire TRELON;7, Rue Victor Hugo, 59132 TRELON;59132;;;Crédit Agricole - Nord De France
Agence bancaire Banque privée Valenciennes Douai;15 Avenue d'Amsterdam, 59300 Valenciennes;59300;50,35843;3,5264656;Crédit Agricole - Nord De France
Agence bancaire CAF PME Hainaut;17 Avenue d'Amsterdam, 59300 Valenciennes;59300;50,35840779999999;3,5266428;Crédit Agricole - Nord De France
Agence bancaire Centre d'affaires Pro de Valenciennes;15 Avenue d'Amsterdam, 59300 Valenciennes;59300;50,35843;3,5264656;Crédit Agricole - Nord De France
Agence Immobilière Square habitat Valenciennes Centre Square Habitat;36 rue de la vieille poissonnerie, 59300 Valenciennes;59300;50,3575293;3,5217328;Crédit Agricole - Nord De France
Agence bancaire VALENCIENNES CARDON;1, Place Cardon, 59300 VALENCIENNES;59300;50,354189;3,53007;Crédit Agricole - Nord De France
Agence bancaire VALENCIENNES CENTRE;15 Avenue d'Amsterdam, 59300 Valenciennes;59300;50,35843;3,5264656;Crédit Agricole - Nord De France
Relais CA Boucherie Charcuterie SARL Bernard MESUREUR - VALHUON;2 PLACE DE LA MAIRIE, 62550 VALHUON;62550;50,435385;2,375869;Crédit Agricole - Nord De France
Relais CA Au Réconfort - VAUDRINGHEM;11 RUE DE L EGLISE, 62380 VAUDRINGHEM;62380;50,661997;2,029942;Crédit Agricole - Nord De France
Relais CA WHITE FOX - Vaulx-Vraucourt;2 Rue de Bapaume, 62159 Vaulx-Vraucourt;62159;50,1482009;2,9092971;Crédit Agricole - Nord De France
Agence bancaire VIEUX BERQUIN;24, Rue d Estaires BP 7, 59232 VIEUX BERQUIN;59232;;;Crédit Agricole - Nord De France
Agence bancaire VILLENEUVE D'ASCQ FLERS;192, Rue Jules Guesde, 59650 VILLENEUVE D'ASCQ;59650;50,638743;3,127261;Crédit Agricole - Nord De France
Agence bancaire VILLENEUVE D'ASCQ HOTEL DE VILLE;22 place Salvador Allende, 59650 VILLENEUVE D'ASCQ;59650;50,618583;3,132657;Crédit Agricole - Nord De France
Agence Immobilière Square habitat Villeneuve d'Ascq Le Sart Square Habitat;173 rue jean jaurès, 59491 Villeneuve d'Ascq Le Sart;59491;50,6665284;3,141292;Crédit Agricole - Nord De France
Agence bancaire Centre d'affaires Pro de Villeneuve d'Ascq;30 Boulevard G.de Montalembert, 59493 Villeneuve-d'Ascq;59493;50,6239837;3,1608653;Crédit Agricole - Nord De France
Agence bancaire VILLENEUVE D'ASCQ MONTALEMBERT;30 Boulevard G.de Montalembert, 59493 Villeneuve-d'Ascq;59493;50,6239837;3,1608653;Crédit Agricole - Nord De France
Relais CA Café des Sports Aux 7 puits - VILLERS AU TERTRE;1 RUE DE MONCHECOURT, 59234 VILLERS AU TERTRE;59234;50,301927;3,18234;Crédit Agricole - Nord De France
Relais CA LE CENTRAL - VILLERS OUTREAUX;1 PLACE DU GENERAL DE GAULLE, 59142 VILLERS OUTREAUX;59142;50,032061;3,298796;Crédit Agricole - Nord De France
Agence bancaire VIMY;3, Rue Victor Hugo BP 13, 62580 VIMY;62580;;;Crédit Agricole - Nord De France
Agence bancaire VITRY EN ARTOIS;Rue de l'Église, 62490 Vitry-en-Artois;62490;;;Crédit Agricole - Nord De France
Agence bancaire WALINCOURT;8 bis rue Faidherbe, 59127 WALINCOURT;59127;;;Crédit Agricole - Nord De France
Relais CA Le coeur joyeux - Wallon-Cappel;27 Rue du Coevoet, 59190 Wallon-Cappel;59190;50,7269217;2,4738951;Crédit Agricole - Nord De France
Agence bancaire WAMBRECHIES;7, Grand Place, 59118 WAMBRECHIES;59118;;;Crédit Agricole - Nord De France
Agence bancaire CAF PME Métropole Nord;2 Allée de la Marque, Bâtiment B, 4ème étage, 59290 Wasquehal;59290;50,681689;3,1159116;Crédit Agricole - Nord De France
Agence bancaire WASQUEHAL;1 - 5 rue Jean Macé, 59290 WASQUEHAL;59290;50,6697132;3,1307775;Crédit Agricole - Nord De France
Agence bancaire WATTIGNIES;87 rue du Général de Gaulle, 59139 WATTIGNIES;59139;;;Crédit Agricole - Nord De France
Agence bancaire WATTRELOS;40 RUE CARNOT, 59150 WATTRELOS;59150;;;Crédit Agricole - Nord De France
Agence bancaire WAVRIN;118 RUE ACHILLE PINTEAUX, 59136 Wavrin;59136;;;Crédit Agricole - Nord De France
Agence bancaire WAZIERS;900, Place Bordeu, 59119 WAZIERS;59119;;;Crédit Agricole - Nord De France
Relais CA Café de la Place - WIERRE AU BOIS;ROUTE DE DESVRES, 62830 WIERRE AU BOIS;62830;50,642777;1,762001;Crédit Agricole - Nord De France
Agence bancaire WIMEREUX;65, Rue Carnot BP 45, 62930 WIMEREUX;62930;;;Crédit Agricole - Nord De France
Agence bancaire WINGLES;54, Rue Jules Guesde  BP 30, 62410 WINGLES;62410;;;Crédit Agricole - Nord De France
Agence bancaire WIZERNES;1, Rue Léon Blum, 62570 WIZERNES;62570;;;Crédit Agricole - Nord De France
Agence bancaire WORMHOUT;42, Place De Gaulle, 59470 WORMHOUT;59470;;;Crédit Agricole - Nord De France
Relais CA COCCIMARKET - ZEGERSCAPPEL;5 RUE D YPRES, 59470 ZEGERSCAPPEL;59470;50,888267;2,387018;Crédit Agricole - Nord De France
Relais CA le cheval noir - Zouafques;2 Rue du Cheval Noir, 62890 Zouafques;62890;50,8248141;2,0536073;Crédit Agricole - Nord De France
Relais CA La cabane aux délices - Zuydcoote;3 Place de la Gare, 59123 Zuydcoote;59123;51,06469209999999;2,4901867;Crédit Agricole - Nord De France
