nom;adresse;code_postal;latitude;longitude;region_source
Agence bancaire ALLOS;Rue Principale, 04260 ALLOS;04260;;;Crédit Agricole - Provence Cote D Azur
Agence bancaire ANNOT;Hôtel Grac - Place du Germe, 04240 ANNOT;04240;;;Crédit Agricole - Provence Cote D Azur
Agence bancaire ANTIBES - La Fontonne;689 Route de Nice, 06600 ANTIBES;06600;43,6061829;7,1237153;Crédit Agricole - Provence Cote D Azur
Agence bancaire ANTIBES - Rochat;24 Avenue Philippe Rochat, 06600 ANTIBES;06600;43,5855671;7,1149445;Crédit Agricole - Provence Cote D Azur
Agence bancaire ANTIBES - Soleau;2, Avenue Robert Soleau, 06600 ANTIBES;06600;43,580788;7,1208555;Crédit Agricole - Provence Cote D Azur
Agence bancaire C.A. ANTIBES PRO;2 Avenue Robert Soleau, 06600 ANTIBES;06600;43,5809625;7,12098519999995;Crédit Agricole - Provence Cote D Azur
Agence bancaire AUPS;Avenue Clémenceau, 83630 AUPS;83630;;;Crédit Agricole - Provence Cote D Azur
Agence bancaire AURON;Place Centrale, 06660 AURON;06660;;;Crédit Agricole - Provence Cote D Azur
Agence bancaire BANDOL;Résidence du Port - 6, Avenue du 11 Novembre, 83150 BANDOL;83150;;;Crédit Agricole - Provence Cote D Azur
Agence bancaire BANON;Centre Commercial, 04150 BANON;04150;;;Crédit Agricole - Provence Cote D Azur
Agence bancaire BARCELONNETTE;Avenue de la Libération, 04400 BARCELONNETTE;04400;;;Crédit Agricole - Provence Cote D Azur
Agence bancaire BARGEMON;Avenue Pasteur, 83830 BARGEMON;83830;;;Crédit Agricole - Provence Cote D Azur
Agence bancaire BARJOLS;Boulevard Grisolle, 83670 BARJOLS;83670;;;Crédit Agricole - Provence Cote D Azur
Agence bancaire BEAULIEU SUR MER;29, Boulevard Marinoni, 06310 BEAULIEU SUR MER;06310;;;Crédit Agricole - Provence Cote D Azur
Agence bancaire BEAUSOLEIL;Rue du Marché, 06240 BEAUSOLEIL;06240;;;Crédit Agricole - Provence Cote D Azur
Agence bancaire BIOT;1 Calade Saint Roch, 06410 BIOT;06410;;;Crédit Agricole - Provence Cote D Azur
Agence bancaire BORMES LES MIMOSAS;42 Place du Pin, 83230 BORMES LES MIMOSAS;83230;;;Crédit Agricole - Provence Cote D Azur
Agence bancaire BREIL SUR ROYA;Place Biancheri, 06540 BREIL SUR ROYA;06540;;;Crédit Agricole - Provence Cote D Azur
Agence bancaire BRIGNOLES;Immeuble Foch, 13 - 15, Boulevard Saint Louis, 83170 BRIGNOLES;83170;43,4073755;6,0642888;Crédit Agricole - Provence Cote D Azur
Agence bancaire BRIGNOLES - Centre d'Affaires Entreprises;16 rue Lice de Signon, 83170 BRIGNOLES;83170;43,407867;6,062738;Crédit Agricole - Provence Cote D Azur
Agence bancaire BRIGNOLES - Saint Jean;ZAC Saint Jean, 83170 BRIGNOLES;83170;43,40742189646789;6,048093802960293;Crédit Agricole - Provence Cote D Azur
Agence bancaire C.A. BRIGNOLES PRO;16 Rue Lice de Signon, 83170 BRIGNOLES;83170;43,4080006;6,0630408;Crédit Agricole - Provence Cote D Azur
Agence bancaire CAGNES - Le Beal;1, Avenue Cyrille Besset, 06800 CAGNES SUR MER;06800;43,6650436;7,1542434;Crédit Agricole - Provence Cote D Azur
Agence bancaire CAGNES - Pénétrante;52-54 Avenue des Alpes, 06800 CAGNES SUR MER;06800;43,66016006;7,13695097;Crédit Agricole - Provence Cote D Azur
Agence bancaire CAGNES - Renoir;12 Avenue Auguste Renoir, 06800 CAGNES SUR MER;06800;43,6632197;7,14990945;Crédit Agricole - Provence Cote D Azur
Agence bancaire CAGNES - Val Fleuri;50 Avenue du Val Fleuri, 06800 CAGNES SUR MER;06800;43,66515732;7,17077446;Crédit Agricole - Provence Cote D Azur
Agence bancaire CROS DE CAGNES;6 Place Léon Béranger, 06800 CAGNES SUR MER;06800;43,6579395;7,165355;Crédit Agricole - Provence Cote D Azur
Agence bancaire CANNES - Hôtel de Ville;15 Rue Félix Faure, 06400 CANNES;06400;43,551572;7,0126173;Crédit Agricole - Provence Cote D Azur
Agence bancaire CANNES - La Bocca;59 Avenue Francis Tonner, 06150 CANNES;06150;43,5494855;6,978769;Crédit Agricole - Provence Cote D Azur
Agence bancaire CANNES - Maréchal Juin;76 Avenue Maréchal Juin, 06400 CANNES;06400;43,54840088;7,039579868;Crédit Agricole - Provence Cote D Azur
Agence bancaire CANNES - Rue d Antibes;83 Rue d Antibes, 06400 CANNES;06400;43,5525391;7,0237398;Crédit Agricole - Provence Cote D Azur
Agence bancaire CANNES - République;62 Boulevard de la République, 06400 CANNES;06400;43,557521;7,02238;Crédit Agricole - Provence Cote D Azur
Agence bancaire CANNES - Vauban;8, Boulevard Carnot, 06400 CANNES;06400;43,554948;7,017114;Crédit Agricole - Provence Cote D Azur
Agence bancaire CANNES VAUBAN - Banque Privée;8, Boulevard CARNOT, 06400 CANNES;06400;43,554948;7,017114;Crédit Agricole - Provence Cote D Azur
Agence Immobilière Habitat Conseil Centre PCA Square Habitat;38, Bd Carnot, 06400 CANNES;06400;43,559323;7,017022;Crédit Agricole - Provence Cote D Azur
Agence bancaire CAP D AIL;114, Avenue du 3 septembre, 06320 CAP D AIL;06320;;;Crédit Agricole - Provence Cote D Azur
Agence bancaire CARCES;Rue Maréchal Foch, 83570 CARCES;83570;;;Crédit Agricole - Provence Cote D Azur
Agence bancaire CARQUEIRANNE;Immeuble les Arcades Fleuries - Place de la Libération, 83320 CARQUEIRANNE;83320;;;Crédit Agricole - Provence Cote D Azur
Agence bancaire CARROS;Résidence des Remparts, 3 Avenue des Cigales, 06510 CARROS;06510;;;Crédit Agricole - Provence Cote D Azur
Agence bancaire CASTELLANE;Place Marcel Sauvaire, 04120 CASTELLANE;04120;;;Crédit Agricole - Provence Cote D Azur
Agence bancaire CAVALAIRE SUR MER;Immeuble Beausoleil, Avenue des Alliés, 83240 CAVALAIRE SUR MER;83240;;;Crédit Agricole - Provence Cote D Azur
Agence bancaire CERESTE;Cours Aristide Briand, 04280 CERESTE;04280;;;Crédit Agricole - Provence Cote D Azur
Agence bancaire CHATEAU ARNOUX;Centre Commercial Saint Jean, 04160 CHATEAU ARNOUX;04160;;;Crédit Agricole - Provence Cote D Azur
Agence bancaire CHATEAUNEUF DE GRASSE;Parking des Pins, 06740 CHATEAUNEUF DE GRASSE;06740;;;Crédit Agricole - Provence Cote D Azur
Agence bancaire COGOLIN;ESPACE MARCEAU 59, Rue MARCEAU, 83310 COGOLIN;83310;;;Crédit Agricole - Provence Cote D Azur
Agence bancaire CONTES;11 Place Jean Allardi, 06390 CONTES;06390;;;Crédit Agricole - Provence Cote D Azur
Agence bancaire COTIGNAC;Cours Gambetta, 83570 COTIGNAC;83570;;;Crédit Agricole - Provence Cote D Azur
Agence bancaire CUERS;Place Pasteur, et Place de la Convention, 83390 CUERS;83390;;;Crédit Agricole - Provence Cote D Azur
Agence bancaire DIGNE - Saint Christophe;Centre d'Affaires la Croix du Sud, 04000 DIGNE-LES-BAINS;04000;44,07558487117304;6,188648052287604;Crédit Agricole - Provence Cote D Azur
Agence bancaire DIGNE - Thiers;7, Boulevard Thiers, 04000 DIGNE-LES-BAINS;04000;44,0908111;6,2323686;Crédit Agricole - Provence Cote D Azur
Agence en ligne E-agence;Avenue Paul Arène, 83300 Draguignan;83300;43,5319383;6,4773885;Crédit Agricole - Provence Cote D Azur
Agence bancaire Agence EER PRO EKO;Avenue Paul Arène, 83300 Draguignan;83300;43,5319383;6,4773885;Crédit Agricole - Provence Cote D Azur
Agence bancaire DRAGUIGNAN - Hermès;Agence Hermès, Rue de la République, 83300 DRAGUIGNAN;83300;43,5368863;6,4636203;Crédit Agricole - Provence Cote D Azur
Agence bancaire DRAGUIGNAN - Les Négadis;Avenue Léon Blum, Les Négadis, 83300 DRAGUIGNAN;83300;43,5294038;6,4777021;Crédit Agricole - Provence Cote D Azur
Agence bancaire FLAYOSC;32, Avenue Jean Moulin, 83780 FLAYOSC;83780;;;Crédit Agricole - Provence Cote D Azur
Agence bancaire FORCALQUIER;Boulevard des Martyrs de la Résistance, 04300 FORCALQUIER;04300;;;Crédit Agricole - Provence Cote D Azur
Agence bancaire FREJUS - Cais;Cais Centre, 2040 rue des anciens combattants d Afrique du nord, 83600 FREJUS;83600;43,4541225;6,7269572;Crédit Agricole - Provence Cote D Azur
Agence bancaire FREJUS - Espace Romain;60 Boulevard de la Mer, 83600 FREJUS;83600;43,42724396;6,7368977;Crédit Agricole - Provence Cote D Azur
Agence bancaire FREJUS - XVème CORPS;752, Avenue du XVème Corps, 83600 FREJUS;83600;43,4398126;6,7439164;Crédit Agricole - Provence Cote D Azur
Agence bancaire GAREOULT;Place Jean Moulin, 83136 GAREOULT;83136;;;Crédit Agricole - Provence Cote D Azur
Agence bancaire GASSIN LA FOUX;Centre Commercial Géant Casino, 121, Rond Point de La Foux, 83580 GASSIN;83580;;;Crédit Agricole - Provence Cote D Azur
Agence bancaire GOLFE-JUAN;65 Avenue de la Liberté, 06220 GOLFE-JUAN;06220;;;Crédit Agricole - Provence Cote D Azur
Agence bancaire GRASSE - Jeu de Ballon;8 Boulevard du Jeu de Ballon, 06130 Grasse;06130;43,658809;6,9223548;Crédit Agricole - Provence Cote D Azur
Agence bancaire GRASSE - Le Plan;10 Avenue Jean Maubert Le Plan de Grasse, 06130 GRASSE;06130;43,653225;6,944774;Crédit Agricole - Provence Cote D Azur
Agence bancaire GRASSE - Saint Jacques;La Halte Saint Jacques, Avenue Félix Raybaud, 06130 GRASSE;06130;43,6410368;6,9116327;Crédit Agricole - Provence Cote D Azur
Agence bancaire GREOUX LES BAINS;Avenue des Marronniers, 04800 GREOUX LES BAINS;04800;;;Crédit Agricole - Provence Cote D Azur
Agence bancaire GUILLAUMES;Place de Provence, 06470 GUILLAUMES;06470;;;Crédit Agricole - Provence Cote D Azur
Agence bancaire HYERES - Clotis;7, Avenue du Général De Gaulle et 9 Avenue Clotis, 83400 HYERES;83400;43,1199617;6,1293252;Crédit Agricole - Provence Cote D Azur
Agence bancaire HYERES - Gare;Avenue Edith Cavell, 83400 HYERES;83400;43,1103712;6,1258021;Crédit Agricole - Provence Cote D Azur
Agence bancaire HYERES - Pyanet;Les Grès Roses, Batiment 2, Quartier Le Pyanet, 83400 HYERES;83400;43,12431976012747;6,150233108033558;Crédit Agricole - Provence Cote D Azur
Agence bancaire ISOLA;Quartier Saint-Pierre, 06420 ISOLA;06420;;;Crédit Agricole - Provence Cote D Azur
Agence bancaire JUAN LES PINS;114 Boulevard Raymond Poincaré, 06160 JUAN LES PINS;06160;;;Crédit Agricole - Provence Cote D Azur
Agence bancaire L ESCARENE;4, rue du Chateau, 06440 L ESCARENE;06440;;;Crédit Agricole - Provence Cote D Azur
Agence bancaire LA CADIERE D AZUR;Place de La Miséricorde, 83740 LA CADIERE D AZUR;83740;;;Crédit Agricole - Provence Cote D Azur
Agence bancaire LA COLLE SUR LOUP;83 Boulevard Honoré Teisseire, 06480 LA COLLE SUR LOUP;06480;;;Crédit Agricole - Provence Cote D Azur
Agence bancaire LA CRAU;Immeuble Le Vegas, Rue Renaude, 83260 LA CRAU;83260;;;Crédit Agricole - Provence Cote D Azur
Agence bancaire LA FARLEDE;30 Avenue de la République, 83210 LA FARLEDE;83210;;;Crédit Agricole - Provence Cote D Azur
Agence bancaire LA GARDE CENTRE;33, Place de la République, 83130 LA GARDE;83130;;;Crédit Agricole - Provence Cote D Azur
Agence bancaire LA LONDE;Avenue Clémenceau, 83250 LA LONDE;83250;;;Crédit Agricole - Provence Cote D Azur
Agence bancaire LA SEYNE LES SABLETTES;2301, Corniche Georges Pompidou, Le San Remo, 83500 LA SEYNE SUR MER;83500;43,0804024;5,8940279;Crédit Agricole - Provence Cote D Azur
Agence bancaire LA SEYNE SUR MER;47 Quai Gabriel Péri, 83500 LA SEYNE SUR MER;83500;43,1011732;5,8833826;Crédit Agricole - Provence Cote D Azur
Agence bancaire LA TRINITE;Immeuble le Rond Point, 06340 LA TRINITE;06340;;;Crédit Agricole - Provence Cote D Azur
Agence bancaire C.A. TOULON VALGORA PRO;PARC TERTIAIRE VALGORA, 83160 LA VALETTE DU VAR;83160;43,14031989338265;6,007713626859754;Crédit Agricole - Provence Cote D Azur
Agence bancaire LA VALETTE DU VAR;9 avenue A. France, 83160 LA VALETTE DU VAR;83160;43,13740158;5,981239796;Crédit Agricole - Provence Cote D Azur
Agence bancaire VALGORA - Centre d'Affaires Entreprises;Parc Tertiaire de Valgora - Bat J, 83160 LA VALETTE DU VAR;83160;43,14031989338265;6,007713626859754;Crédit Agricole - Provence Cote D Azur
Agence bancaire LE BEAUSSET;4, Place Général De Gaulle, 83330 LE BEAUSSET;83330;;;Crédit Agricole - Provence Cote D Azur
Agence bancaire LE CANNET - CENTRE;Les Loggias, 4 Boulevard Carnot, 06110 LE CANNET;06110;43,57580185;7,021339893;Crédit Agricole - Provence Cote D Azur
Agence bancaire LE CANNET - Carnot;106 Boulevard Carnot, 06110 LE CANNET;06110;43,566612;7,016565;Crédit Agricole - Provence Cote D Azur
Agence bancaire LE CANNET - Rocheville;1 Rue Jules Ferry, Rocheville, 06110 LE CANNET;06110;43,5731;7,00022;Crédit Agricole - Provence Cote D Azur
Agence bancaire LE CANNET - Rocheville Mimosas;53 Boulevard de la République, Rocheville, 06110 LE CANNET;06110;43,568586;6,995018;Crédit Agricole - Provence Cote D Azur
Agence bancaire LE CANNET DES MAURES;Quartier Taurelle, DN7, 83340 LE CANNET DES MAURES;83340;;;Crédit Agricole - Provence Cote D Azur
Agence bancaire LE LAVANDOU;Immeuble Santa Cruz, Batiment A, Avenue des llaires, 83980 LE LAVANDOU;83980;;;Crédit Agricole - Provence Cote D Azur
Agence bancaire LE LUC;Avenue Pierre Gaudin, 83340 LE LUC;83340;;;Crédit Agricole - Provence Cote D Azur
Agence bancaire LE MUY;6, Place Amédée Bouis, 83490 LE MUY;83490;;;Crédit Agricole - Provence Cote D Azur
Agence bancaire LE PRADET;174 Avenue de la Première Dfl, 83220 LE PRADET;83220;;;Crédit Agricole - Provence Cote D Azur
Agence bancaire Les Arcs - Centre Commercial;Centre Commercial Sud Dracénie, 83460 LES ARCS SUR ARGENS;83460;;;Crédit Agricole - Provence Cote D Azur
Agence bancaire LEVENS;12, Avenue du Docteur Faraut, 06670 LEVENS;06670;;;Crédit Agricole - Provence Cote D Azur
Agence bancaire LORGUES;76 Avenue Allongue, 83510 LORGUES;83510;;;Crédit Agricole - Provence Cote D Azur
Agence bancaire MANDELIEU;269 Avenue de Cannes, 06210 MANDELIEU LA NAPOULE;06210;43,54249954;6,936830044;Crédit Agricole - Provence Cote D Azur
Agence bancaire MANDELIEU - Capitou;797 Avenue Janvier Passero, 06210 MANDELIEU LA NAPOULE;06210;43,5531333;6,9378603;Crédit Agricole - Provence Cote D Azur
Agence bancaire MANDELIEU - La Napoule;Avenue du 23 Août, Mandelieu la Napoule, 06210 MANDELIEU LA NAPOULE;06210;43,5245018;6,9405098;Crédit Agricole - Provence Cote D Azur
Agence bancaire C.A. MANOSQUE PRO;Technoparc Les Grandes Terres 216 Rue de l'Origan, 04100 Manosque;04100;43,8003414;5,810728399999999;Crédit Agricole - Provence Cote D Azur
Agence bancaire MANOSQUE - Banque Privée;Technoparc Les Grandes Terres  216 Rue de l'Origan, 04100 Manosque;04100;43,8003414;5,810728399999999;Crédit Agricole - Provence Cote D Azur
Agence bancaire MANOSQUE - Centre d'Affaires Entreprises;Technoparc Les Grandes Terres 216 Rue de l'Origan, BP 123, 04100 Manosque;04100;43,8003414;5,810728399999999;Crédit Agricole - Provence Cote D Azur
Agence bancaire MANOSQUE - Drouille;Parc de Drouille, Allée Alphonse Daudet, 04100 MANOSQUE;04100;43,8274285;5,7816944;Crédit Agricole - Provence Cote D Azur
Agence bancaire MANOSQUE - Saunerie;1 ter, Promenade Aubert Millot, 04100 MANOSQUE;04100;43,83200073;5,784309864;Crédit Agricole - Provence Cote D Azur
Agence bancaire MENTON - George V;20, Avenue CARNOT, 06500 MENTON;06500;43,77180099;7,496890068;Crédit Agricole - Provence Cote D Azur
Agence bancaire MENTON - Saint Michel;2, Rue Trenca, 06500 MENTON;06500;43,775025;7,50503;Crédit Agricole - Provence Cote D Azur
Agence bancaire MONTAUROUX;RD 562 LE PLAN ORIENTAL, 83440 MONTAUROUX;83440;;;Crédit Agricole - Provence Cote D Azur
Agence bancaire MOUANS SARTOUX;1 Place Jean Jaurès, 06370 MOUANS SARTOUX;06370;;;Crédit Agricole - Provence Cote D Azur
Agence bancaire C.A. CANNES MOUGINS PRO;1056 Chemin des Campelières, 06250 MOUGINS;06250;43,5770094806158;7,004487156008281;Crédit Agricole - Provence Cote D Azur
Agence bancaire CANNES-MOUGINS - Centre d'Affaires Entreprises;Espace Azur 1056 Chemin des Campelières, 06250 MOUGINS;06250;43,58248;7,008947;Crédit Agricole - Provence Cote D Azur
Agence bancaire MOUGINS;Avenue de Tournamy, 06250 MOUGINS;06250;43,5975;6,986462;Crédit Agricole - Provence Cote D Azur
Agence bancaire MOUSTIERS SAINTE MARIE;Avenue de Lerins, 04360 MOUSTIERS SAINTE MARIE;04360;;;Crédit Agricole - Provence Cote D Azur
Agence bancaire NANS LES PINS;Place Victor Dedieu, 83860 NANS LES PINS;83860;;;Crédit Agricole - Provence Cote D Azur
Agence Immobilière Habitat Conseil Nice Centre Square Habitat;4, Avenue des Phocéens, 06300 NICE;06300;43,6985771;7,2748769;Crédit Agricole - Provence Cote D Azur
Agence bancaire NICE - Arson;2, Rue Arson, 06300 NICE;06300;43,69860077;7,286340237;Crédit Agricole - Provence Cote D Azur
Agence bancaire NICE - Banque Privée;2, Rue GUBERNATIS, 06000 NICE;06000;43,698673;7,274104;Crédit Agricole - Provence Cote D Azur
Agence bancaire NICE - Borriglione;65, Avenue Borriglione, 06100 NICE;06100;43,71661801;7,261342737;Crédit Agricole - Provence Cote D Azur
Agence bancaire NICE - Californie;113, Avenue de la Californie, 06000 NICE;06000;43,68696976;7,237627029;Crédit Agricole - Provence Cote D Azur
Agence bancaire NICE - Caucade;161, Boulevard Napoléon III, 06200 NICE;06200;43,67758942;7,219028473;Crédit Agricole - Provence Cote D Azur
Agence bancaire NICE - Cessole;88, Avenue Cyrille Besset, 06100 NICE;06100;43,71910095;7,252570152;Crédit Agricole - Provence Cote D Azur
Agence bancaire NICE - Cimiez;47, Boulevard de Cimiez, 06000 NICE;06000;43,71630715;7,272053292;Crédit Agricole - Provence Cote D Azur
Agence bancaire NICE - Ferber;Le Riviéra Plage, 272, Avenue de la Californie, 06200 NICE;06200;43,67757034;7,228536606;Crédit Agricole - Provence Cote D Azur
Agence bancaire NICE - Félix Faure;8 Avenue Félix Faure, 06000 NICE;06000;43,69859519;7,274316145;Crédit Agricole - Provence Cote D Azur
Agence bancaire NICE - Gambetta;1 Rue Dante, 06000 NICE;06000;43,69599915;7,256030083;Crédit Agricole - Provence Cote D Azur
Agence bancaire NICE - Garnier;49, Boulevard Joseph Garnier, 06100 NICE;06100;43,70999908;7,25578022;Crédit Agricole - Provence Cote D Azur
Agence bancaire NICE - Gorbella;49, Avenue du Ray, 06100 NICE;06100;43,7256012;7,25567007;Crédit Agricole - Provence Cote D Azur
Agence bancaire NICE - Grimaldi;4, Place Grimaldi, 06000 NICE;06000;43,69764754;7,265707626;Crédit Agricole - Provence Cote D Azur
Agence bancaire NICE - Habitat Conseil;272 ter, Avenue de la Californie, 06200 NICE;06200;43,677787;7,228681;Crédit Agricole - Provence Cote D Azur
Agence bancaire NICE - Libération;Place du Général de Gaulle, 06100 NICE;06100;43,71009827;7,26196003;Crédit Agricole - Provence Cote D Azur
Agence bancaire NICE - Lépante;23, Rue Lépante, 06000 NICE;06000;43,70530266;7,26921698;Crédit Agricole - Provence Cote D Azur
Agence bancaire NICE - Magnan;28, Boulevard de la Madeleine, 06300 NICE;06300;43,69499346;7,24351249;Crédit Agricole - Provence Cote D Azur
Agence Immobilière NICE - Promotion Immobilère Square Habitat;1, Rue du Lycée, 06000 NICE;06000;43,6985771;7,2748769;Crédit Agricole - Provence Cote D Azur
Agence bancaire NICE - République;27 Avenue de la République, 06300 NICE;06300;43,70349884;7,281640053;Crédit Agricole - Provence Cote D Azur
Agence bancaire NICE - Saint Isidore;Hibiscus Park - 29, Avenue Vérola, 06200 NICE;06200;43,71054203;7,1926783;Crédit Agricole - Provence Cote D Azur
Agence bancaire NICE - Saint Roch;47, Boulevard Virgil Barel, 06300 NICE;06300;43,7140007;7,29281998;Crédit Agricole - Provence Cote D Azur
Agence bancaire NICE - Saleya;2 Rue Saint-François de Paule, 06300 NICE;06300;43,69573544;7,272962377;Crédit Agricole - Provence Cote D Azur
Agence bancaire Nice - ECO VALLEE;36 Avenue Pierre de Coubertin, 06200 Nice;06200;43,707742;7,195653;Crédit Agricole - Provence Cote D Azur
Agence bancaire OLLIOULES;Place Paul Lemoyne, 83190 OLLIOULES;83190;;;Crédit Agricole - Provence Cote D Azur
Agence bancaire ORAISON;Allée Arthur Gouin, 04700 ORAISON;04700;;;Crédit Agricole - Provence Cote D Azur
Agence bancaire PEGOMAS;La Gravière 145 Avenue de Grasse, 06580 PEGOMAS;06580;;;Crédit Agricole - Provence Cote D Azur
Agence bancaire PEYMEINADE;Le Michel Ange, Avenue de Boutiny, 06530 PEYMEINADE;06530;;;Crédit Agricole - Provence Cote D Azur
Agence bancaire PEYRUIS;Avenue de la Libération, 04310 PEYRUIS;04310;;;Crédit Agricole - Provence Cote D Azur
Agence bancaire PIERREFEU DU VAR;Boulevard Henri Guérin, 83390 PIERREFEU DU VAR;83390;;;Crédit Agricole - Provence Cote D Azur
Agence bancaire PIERREVERT;Quartier des Ferrages, 04860 PIERREVERT;04860;;;Crédit Agricole - Provence Cote D Azur
Agence bancaire PIGNANS;LE CARRY D97, 83790 PIGNANS;83790;;;Crédit Agricole - Provence Cote D Azur
Agence bancaire POURRIERES;Grand, Rue, 83910 POURRIERES;83910;;;Crédit Agricole - Provence Cote D Azur
Agence bancaire PUGET - THENIERS;Place Adolphe Conil, 06260 PUGET - THENIERS;06260;;;Crédit Agricole - Provence Cote D Azur
Agence bancaire C.A. PUGET PRO;106 Boulevard Jean Moulin, 83480 PUGET SUR ARGENS;83480;43,454104;6,690515;Crédit Agricole - Provence Cote D Azur
Agence bancaire FREJUS - Banque Privée;Centre d'Affaires PARAGON BAT A 106, Boulevard Jean MOULIN, 83480 PUGET SUR ARGENS;83480;43,454104;6,690515;Crédit Agricole - Provence Cote D Azur
Agence bancaire PUGET - Centre d'Affaires Entreprises;Centre d'Affaires PARAGON BAT A 106, Boulevard Jean MOULIN, 83480 PUGET SUR ARGENS;83480;43,454104;6,690515;Crédit Agricole - Provence Cote D Azur
Agence bancaire PUGET SUR ARGENS;CENTRE D AFFAIRES PARAGON BAT A 106 BOULEVARD JEAN MOULIN, 83480 PUGET SUR ARGENS;83480;43,454104;6,690515;Crédit Agricole - Provence Cote D Azur
Agence bancaire PUGET VILLE;435, Rue de la Libération, 83390 PUGET VILLE;83390;;;Crédit Agricole - Provence Cote D Azur
Agence bancaire RIANS;Chemin Départemental N 3, Quartier l Umede, 83560 RIANS;83560;;;Crédit Agricole - Provence Cote D Azur
Agence bancaire RIEZ;17-19 Allée Louis Gardiol, 04000 Riez;04000;;;Crédit Agricole - Provence Cote D Azur
Agence bancaire ROCBARON;Zone commerciale Fray-Redon, 89136 ROCBARON;89136;;;Crédit Agricole - Provence Cote D Azur
Agence bancaire ROQUEBILLIERE;Place Corniglion Molinier, 06450 ROQUEBILLIERE;06450;;;Crédit Agricole - Provence Cote D Azur
Agence bancaire ROQUEBRUNE CAP MARTIN;195, Avenue Aristide Briand, 06190 ROQUEBRUNE CAP MARTIN;06190;;;Crédit Agricole - Provence Cote D Azur
Agence bancaire C.A. ROQUEBRUNE ROND POINT DES 4 CHEMINS;111 Rue de la Magnanerie, 83520 Roquebrune-sur-Argens;83520;;;Crédit Agricole - Provence Cote D Azur
Agence bancaire ROQUEFORT LES PINS;Route Départementale 2085, 06330 ROQUEFORT LES PINS;06330;;;Crédit Agricole - Provence Cote D Azur
Agence bancaire SAINT ANDRE LES ALPES;Route de Nice, 04170 SAINT ANDRE LES ALPES;04170;;;Crédit Agricole - Provence Cote D Azur
Agence bancaire SAINT AYGULF;770, Avenue Louis Castillon, 83370 SAINT AYGULF;83370;;;Crédit Agricole - Provence Cote D Azur
Agence bancaire SAINT CEZAIRE SUR SIAGNE;Résidence le Village, Rue des Arnaud, 06530 SAINT CEZAIRE SUR SIAGNE;06530;;;Crédit Agricole - Provence Cote D Azur
Agence bancaire SAINT CYR;5, Avenue Aristide Briand, 83270 SAINT CYR;83270;;;Crédit Agricole - Provence Cote D Azur
Agence bancaire SAINT ETIENNE DE TINEE;Place de l Eglise, 06660 SAINT ETIENNE DE TINEE;06660;;;Crédit Agricole - Provence Cote D Azur
Agence bancaire SAINT JEANNET;Le Peyron, Quartier des Prés, 06640 SAINT JEANNET;06640;;;Crédit Agricole - Provence Cote D Azur
Agence bancaire SAINT LAURENT - Centre d'Affaires Entreprises;492, Avenue du général de Gaulle, 06700 SAINT LAURENT DU VAR;06700;43,66635965335223;7,193075475046385;Crédit Agricole - Provence Cote D Azur
Agence bancaire SAINT LAURENT DU VAR;265 Avenue du Général Leclerc, 06700 SAINT LAURENT DU VAR;06700;43,67409102;7,189464766;Crédit Agricole - Provence Cote D Azur
Agence bancaire SAINT LAURENT DU VAR - Le Marianne;380 Avenue du Général De Gaulle, 06700 SAINT LAURENT DU VAR;06700;43,66580416;7,193692764;Crédit Agricole - Provence Cote D Azur
Agence bancaire SAINT MARTIN DU VAR;Quartier de la Digue, Route Nationale 202, 06670 SAINT MARTIN DU VAR;06670;;;Crédit Agricole - Provence Cote D Azur
Agence bancaire SAINT MARTIN VESUBIE;Avenue de Caqueray, 06450 SAINT MARTIN VESUBIE;06450;;;Crédit Agricole - Provence Cote D Azur
Agence bancaire SAINT MAXIMIN;2, Rue Mirabeau, 83470 SAINT MAXIMIN LA SAINTE BAUME;83470;43,452685;5,859585;Crédit Agricole - Provence Cote D Azur
Agence bancaire SAINT MAXIMIN LA SAINTE BAUME;Route Nationale 7, 83470 SAINT MAXIMIN LA SAINTE BAUME;83470;43,45485900000001;5,852163000000019;Crédit Agricole - Provence Cote D Azur
Agence bancaire SAINT RAPHAEL;26 - 28, Avenue du Commandant Guilbaud, 83700 SAINT RAPHAEL;83700;43,42439942425239;6,765797204162318;Crédit Agricole - Provence Cote D Azur
Agence bancaire SAINT RAPHAEL - Boulouris;16, Place Saint-Jean, Quartier Boulouris, 83700 SAINT RAPHAEL;83700;43,4168347;6,8079962;Crédit Agricole - Provence Cote D Azur
Agence bancaire SAINT RAPHAEL - Valescure;482 Avenue de Valescure, 83700 SAINT RAPHAEL;83700;43,429408;6,772848;Crédit Agricole - Provence Cote D Azur
Agence bancaire SAINT TROPEZ;17, Place des Lices, 83990 SAINT TROPEZ;83990;;;Crédit Agricole - Provence Cote D Azur
Agence bancaire SAINT VALLIER DE THIEY;Route Départementale 6085, 06460 SAINT VALLIER DE THIEY;06460;;;Crédit Agricole - Provence Cote D Azur
Agence bancaire SAINT ZACHARIE;31 Rue Jean Jaurès, 83640 SAINT ZACHARIE;83640;;;Crédit Agricole - Provence Cote D Azur
Agence bancaire SAINTE MAXIME;Les Oliviades, Angle Avenue Jean Jaurès et rue de Verdun, 83120 SAINTE MAXIME;83120;;;Crédit Agricole - Provence Cote D Azur
Agence bancaire SALERNES;5, Rue Victor Hugo, 83690 SALERNES;83690;;;Crédit Agricole - Provence Cote D Azur
Agence bancaire SANARY SUR MER;37, Rue Jean Jaurès, 83110 SANARY SUR MER;83110;;;Crédit Agricole - Provence Cote D Azur
Agence bancaire SEYNE LES ALPES;60 Rue de Beauvillard, 04140 Seyne;04140;;;Crédit Agricole - Provence Cote D Azur
Agence bancaire SISTERON;3 Bis Avenue de la Libération, 04200 SISTERON;04200;;;Crédit Agricole - Provence Cote D Azur
Agence bancaire C.A. SIX FOURS PRO;92 Rue République, 83140 SIX-FOURS-LES-PLAGES;83140;43,093728;5,837822699999999;Crédit Agricole - Provence Cote D Azur
Agence bancaire SIX FOURS CENTRE;92, Avenue de la République, 83000 SIX-FOURS-LES-PLAGES;83000;43,0936154;5,8378545;Crédit Agricole - Provence Cote D Azur
Agence bancaire SIX FOURS Les Lones;164 Boulevard de Cabry Les Lones, 83140 SIX-FOURS-LES-PLAGES;83140;43,1140264;5,8116159;Crédit Agricole - Provence Cote D Azur
Agence bancaire SOLLIES PONT;Immeuble Le Moulin, 6 - 8, Rue de La République, 83210 SOLLIES- PONT;83210;;;Crédit Agricole - Provence Cote D Azur
Agence bancaire SOPHIA ANTIPOLIS;Centre de vie Green Side 13, 200 avenue Roumanille, 06410 SOPHIA ANTIPOLIS;06410;;;Crédit Agricole - Provence Cote D Azur
Agence bancaire SOSPEL;Rue Cabraïa, 06380 SOSPEL;06380;;;Crédit Agricole - Provence Cote D Azur
Agence bancaire TENDE;4, Avenue du 16 Septembre 1947, 06430 TENDE;06430;;;Crédit Agricole - Provence Cote D Azur
Agence bancaire TOULON - Banque Privée;19, Avenue COLBERT, 83000 TOULON;83000;43,125148;5,932668;Crédit Agricole - Provence Cote D Azur
Agence bancaire TOULON - Bon Rencontre;Résidence l Espérance A, 29, Rue Léon Jouhaux, Quartier Bon Rencontre, 83200 TOULON;83200;43,1282538;5,9057087;Crédit Agricole - Provence Cote D Azur
Agence bancaire TOULON - Claret;45, Rue Emile Vincent, 83000 TOULON;83000;43,1304359;5,9266378;Crédit Agricole - Provence Cote D Azur
Agence bancaire TOULON - Franklin Roosevelt;169, Avenue Franklin Roosevelt, 83000 TOULON;83000;43,12009811;5,939340115;Crédit Agricole - Provence Cote D Azur
Agence bancaire TOULON - La Loubière;355, Boulevard de la Démocratie, 83000 TOULON;83000;43,126881;5,941128;Crédit Agricole - Provence Cote D Azur
Agence bancaire TOULON - La Serinette;La Pinède, Avenue François Nardi, 83000 TOULON;83000;43,1160014;5,9602155;Crédit Agricole - Provence Cote D Azur
Agence bancaire TOULON - Le Mourillon;355, Boulevard Bazeilles, Le Panama - Le Mourillon, 83000 TOULON;83000;43,1120664;5,9363074;Crédit Agricole - Provence Cote D Azur
Agence bancaire TOULON - Les Routes;690 Chemin de Rigoumel, 83200 TOULON;83200;43,14709854;5,902369976;Crédit Agricole - Provence Cote D Azur
Agence bancaire TOULON - Opéra;27, Boulevard de Strasbourg, 83000 TOULON;83000;43,1247729;5,9332531;Crédit Agricole - Provence Cote D Azur
Agence bancaire TOULON - Pont du Las;11, Avenue du XVème Corps, Immeuble Le Bamby, 83200 TOULON;83200;43,12789917;5,917490005;Crédit Agricole - Provence Cote D Azur
Agence bancaire TOULON - Saint Jean du var;484, Av François CUZIN, 83000 TOULON;83000;43,12319946;5,947319984;Crédit Agricole - Provence Cote D Azur
Agence bancaire TOULON - Sainte Musse;Le Parc des Tilleuls, Boulevard des Armaris, 83100 TOULON;83100;43,1278101;5,9817393;Crédit Agricole - Provence Cote D Azur
Agence bancaire TOULON VAUBAN - Habitat Conseil;72, Avenue VAUBAN, 83000 TOULON;83000;43,1254921;5,9329375;Crédit Agricole - Provence Cote D Azur
Agence bancaire TOURRETTE LEVENS;26, Route d'Aspremont, 06690 TOURRETTE LEVENS;06690;;;Crédit Agricole - Provence Cote D Azur
Agence bancaire PAYS DE FAYENCE;Centre Commercial Les Mercuriales, 83440 TOURRETTES;83440;;;Crédit Agricole - Provence Cote D Azur
Agence bancaire TOURRETTES SUR LOUP;13 Route de Vence, 06140 TOURRETTES SUR LOUP;06140;;;Crédit Agricole - Provence Cote D Azur
Agence bancaire TOURVES;5, Rue Ambroise Croizat, 83170 TOURVES;83170;;;Crédit Agricole - Provence Cote D Azur
Agence bancaire C.A. DRAGUIGNAN PRO;400 Avenue Marguerite de Provence, 83720 TRANS-EN-PROVENCE;83720;43,5083103;6,482381900000064;Crédit Agricole - Provence Cote D Azur
Agence bancaire TRANS EN PROVENCE;400, Avenue Marguerite de Provence - D1555, Ensemble Le Damier, 83720 TRANS-EN-PROVENCE;83720;43,5080986;6,48218012;Crédit Agricole - Provence Cote D Azur
Agence bancaire VALBERG;Valberg Plaza, 06470 VALBERG;06470;;;Crédit Agricole - Provence Cote D Azur
Agence bancaire VALBONNE;11 Boulevard Carnot, 06560 VALBONNE;06560;;;Crédit Agricole - Provence Cote D Azur
Agence bancaire VALENSOLE;Avenue Segond, 04210 VALENSOLE;04210;;;Crédit Agricole - Provence Cote D Azur
Agence bancaire VALLAURIS;Espace Massier, 52, Avenue Georges Clemenceau, 06220 VALLAURIS;06220;;;Crédit Agricole - Provence Cote D Azur
Agence bancaire VENCE - Etoile;87 Avenue du Rhin et Danube, 06140 VENCE;06140;43,724093;7,106004;Crédit Agricole - Provence Cote D Azur
Agence bancaire VENCE - GRAND JARDIN;39 Avenue Marcelin Maurel, 06140 VENCE;06140;43,7224202;7,1125027;Crédit Agricole - Provence Cote D Azur
Agence bancaire VIDAUBAN;42, Avenue du Président Wilson, 83550 VIDAUBAN;83550;;;Crédit Agricole - Provence Cote D Azur
Agence bancaire VILLEFRANCHE SUR MER;2, Boulevard de la Corne d Or, 06230 VILLEFRANCHE SUR MER;06230;;;Crédit Agricole - Provence Cote D Azur
Agence bancaire VILLENEUVE LOUBET;3 Place Carnot, 06270 VILLENEUVE LOUBET;06270;;;Crédit Agricole - Provence Cote D Azur
Agence bancaire VINON SUR VERDON;38, Esplanade Le Cours, 83560 VINON SUR VERDON;83560;;;Crédit Agricole - Provence Cote D Azur
Agence bancaire VOLX;2 bis Place des Félibres, 04130 VOLX;04130;;;Crédit Agricole - Provence Cote D Azur
