nom;adresse;code_postal;latitude;longitude;region_source
Agence bancaire AHUY;4 RUE PRE POTET, 21121 AHUY;21121;;;Crédit Agricole - Champagne Bourgogne
Agence bancaire AIGNAY LE DUC;2 RUE D'ARCHERON, 21510 AIGNAY LE DUC;21510;;;Crédit Agricole - Champagne Bourgogne
Agence bancaire AILLANT SUR THOLON;17 GRANDE RUE SAINT-ANTOINE, 89110 AILLANT SUR THOLON;89110;;;Crédit Agricole - Champagne Bourgogne
Agence bancaire AIX EN OTHE;22 RUE PIERRE BROSSOLETTE, 10160 AIX EN OTHE;10160;;;Crédit Agricole - Champagne Bourgogne
Agence bancaire ANCY LE FRANC;8 GRANDE RUE, 89160 ANCY LE FRANC;89160;;;Crédit Agricole - Champagne Bourgogne
Agence bancaire ANDELOT;PLACE CANTAREL, 52700 ANDELOT;52700;;;Crédit Agricole - Champagne Bourgogne
Agence bancaire ARCIS SUR AUBE;2 RUE DE TROYES, 10700 ARCIS SUR AUBE;10700;;;Crédit Agricole - Champagne Bourgogne
Agence bancaire ARNAY LE DUC;1 PLACE DU CRAQUELIN, 21230 ARNAY LE DUC;21230;;;Crédit Agricole - Champagne Bourgogne
Agence en ligne CENTRE DE RELATION CLIENT;20 RUE DAVOUT, 21110 DIJON;21110;47,32434623922244;5,052573598016313;Crédit Agricole - Champagne Bourgogne
Agence bancaire AUXERRE LEPÈRE;23 RUE DE LA DRAPERIE, 89000 AUXERRE;89000;47,7957686;3,5690814;Crédit Agricole - Champagne Bourgogne
Agence bancaire AUXERRE PONT;102 Rue du Pont, 89000 Auxerre;89000;47,79458909465107;3,577059968306449;Crédit Agricole - Champagne Bourgogne
Agence bancaire AUXERRE TEMPLE;82 RUE DU TEMPLE, 89000 AUXERRE;89000;47,79277;3,56775;Crédit Agricole - Champagne Bourgogne
Agence bancaire CENTRE D'AFFAIRES ENTREPRISES - AUXERRE;80 BIS RUE DU TEMPLE, 89000 AUXERRE;89000;47,792754;3,567862;Crédit Agricole - Champagne Bourgogne
Agence bancaire AUXONNE;48 Rue Antoine Masson, 21130 AUXONNE;21130;;;Crédit Agricole - Champagne Bourgogne
Agence bancaire AVALLON;6 RUE DE LYON, 89200 AVALLON;89200;;;Crédit Agricole - Champagne Bourgogne
Agence bancaire BAR SUR AUBE;36 RUE THIERS, 10200 BAR SUR AUBE;10200;;;Crédit Agricole - Champagne Bourgogne
Agence bancaire BAR SUR SEINE;FAUBOURG DE CHAMPAGNE, 10110 BAR SUR SEINE;10110;;;Crédit Agricole - Champagne Bourgogne
Agence bancaire BEAUNE CENTRE;41 RUE D'ALSACE, 21200 BEAUNE;21200;47,021743;4,840662;Crédit Agricole - Champagne Bourgogne
Agence bancaire BEAUNE SAINT NICOLAS;Adresse temporaire - 41 Rue d'Alsace, 21200 BEAUNE;21200;47,021775878;4,840699726;Crédit Agricole - Champagne Bourgogne
Agence bancaire CENTRE D'AFFAIRES ENTREPRISES VITI - BEAUNE;130 ROUTE DE DIJON, 21200 BEAUNE;21200;47,033294;4,844444800000019;Crédit Agricole - Champagne Bourgogne
Agence bancaire SAINT DIZIER BETTANCOURT;ROUTE DE BAR LE DUC, 52100 BETTANCOURT LA FERREE;52100;;;Crédit Agricole - Champagne Bourgogne
Relais CA D'AVAU TABAC PRESSE - Blaisy-Bas;32 Rue d'Avau, 21540 Blaisy-Bas;21540;47,3721269;4,7394579;Crédit Agricole - Champagne Bourgogne
Agence bancaire BOUILLY;3 bis Rue du Bois, 10320 Bouilly;10320;;;Crédit Agricole - Champagne Bourgogne
Agence bancaire BOURMONT;74 FAUBOURG DE FRANCE, 52150 BOURMONT;52150;;;Crédit Agricole - Champagne Bourgogne
Agence bancaire BREVIANDES;78 Avenue Maréchal Leclerc, 10450 BREVIANDES;10450;;;Crédit Agricole - Champagne Bourgogne
Agence bancaire BRIENNE LE CHÂTEAU;21 BOULEVARD NAPOLEON, 10500 BRIENNE LE CHATEAU;10500;;;Crédit Agricole - Champagne Bourgogne
Agence bancaire BRIENON SUR ARMANÇON;PLACE EMILE BLONDEAU, 89210 BRIENON SUR ARMANCON;89210;;;Crédit Agricole - Champagne Bourgogne
Agence bancaire CERISIERS;41 RUE DU GENERAL DE GAULLE, 89320 CERISIERS;89320;;;Crédit Agricole - Champagne Bourgogne
Agence bancaire CHABLIS;4 PLACE DU GENERAL DE GAULLE, 89800 CHABLIS;89800;;;Crédit Agricole - Champagne Bourgogne
Agence bancaire CHALINDREY;27 RUE DE LA REPUBLIQUE, 52600 CHALINDREY;52600;;;Crédit Agricole - Champagne Bourgogne
Agence bancaire CHAOURCE;1 RUE DES ROISES, 10210 CHAOURCE;10210;;;Crédit Agricole - Champagne Bourgogne
Agence bancaire CHARNY;3 Place Victor Hugo, 89120 Charny-Orée-de-Puisaye;89120;;;Crédit Agricole - Champagne Bourgogne
Agence bancaire CHATEAUVILLAIN;2 RUE PENTHIEVRE, 52120 CHATEAUVILLAIN;52120;;;Crédit Agricole - Champagne Bourgogne
Agence bancaire CHATILLON SUR SEINE;1 RUE DU DOCTEUR ROBERT, 21400 CHATILLON SUR SEINE;21400;;;Crédit Agricole - Champagne Bourgogne
Agence bancaire CHAUMONT GARE;4 PLACE EMILE GOGUENHEIM, 52000 CHAUMONT;52000;;;Crédit Agricole - Champagne Bourgogne
Agence bancaire CHENÔVE;123 AVENUE ROLAND CARRAZ, 21300 CHENOVE;21300;;;Crédit Agricole - Champagne Bourgogne
Agence bancaire CHEVIGNY SAINT SAUVEUR;22 PLACE DE LA LIBERTE, 21800 CHEVIGNY SAINT SAUVEUR;21800;;;Crédit Agricole - Champagne Bourgogne
Agence bancaire COURSON LES CARRIÈRES;13 Place du Château, 89560 COURSON-LES-CARRIÈRES;89560;;;Crédit Agricole - Champagne Bourgogne
Relais CA NOUGATINE - DIENVILLE;4 AVENUE PAUL GIRARD, 10500 DIENVILLE;10500;48,34884170800576;4,532588782335971;Crédit Agricole - Champagne Bourgogne
Agence bancaire DIJON CENTRE D'AFFAIRES ENTREPRISES;20 RUE DAVOUT, 21000 DIJON;21000;47,3241804;5,052568999999949;Crédit Agricole - Champagne Bourgogne
Agence bancaire DIJON DARCY;11-13 PLACE DARCY, 21000 DIJON;21000;47,32322;5,03392;Crédit Agricole - Champagne Bourgogne
Agence bancaire DIJON DAVOUT;18 bis RUE DAVOUT, 21000 Dijon;21000;47,32405491742414;5,052574720420628;Crédit Agricole - Champagne Bourgogne
Agence bancaire DIJON DRAPEAU;72 Avenue du Drapeau, 21000 DIJON;21000;47,3398162;5,0450553;Crédit Agricole - Champagne Bourgogne
Agence bancaire DIJON EIFFEL;108 AVENUE EIFFEL, 21000 DIJON;21000;47,3136486;5,0154489;Crédit Agricole - Champagne Bourgogne
Agence bancaire DIJON JEAN JAURES;120 AVENUE JEAN JAURES, 21000 DIJON;21000;47,3048272;5,0227927;Crédit Agricole - Champagne Bourgogne
Agence bancaire DIJON NOTRE DAME;2 Rue Musette, 21000 Dijon;21000;47,3228382;5,040854599999999;Crédit Agricole - Champagne Bourgogne
Agence bancaire DIJON PLACE GRANVILLE;1-3 PLACE GRANVILLE, 21000 DIJON;21000;47,34981;5,05239;Crédit Agricole - Champagne Bourgogne
Agence bancaire DIJON POINCARE;33 AVENUE RAYMOND POINCARE, 21000 DIJON;21000;47,32893;5,06499;Crédit Agricole - Champagne Bourgogne
Agence bancaire DIJON SALENGRO;3 BOULEVARD MANSART, 21000 DIJON;21000;47,30808;5,05699;Crédit Agricole - Champagne Bourgogne
Agence bancaire DIJON VICTOR HUGO;96 BIS AVENUE VICTOR HUGO, 21000 DIJON;21000;47,33141;5,0212;Crédit Agricole - Champagne Bourgogne
Agence bancaire DIJON WILSON;23 RUE d'AUXONNE, 21000 DIJON;21000;47,3155203;5,0457833;Crédit Agricole - Champagne Bourgogne
Agence bancaire ERVY LE CHÂTEL;16 BOULEVARD DES GRANDS FOSSES, 10130 ERVY LE CHATEL;10130;;;Crédit Agricole - Champagne Bourgogne
Agence bancaire ESSOYES;4 PLACE DE LA MAIRIE, 10360 ESSOYES;10360;;;Crédit Agricole - Champagne Bourgogne
Agence bancaire ESTISSAC;24 RUE DE LA REPUBLIQUE, 10190 ESTISSAC;10190;;;Crédit Agricole - Champagne Bourgogne
Agence bancaire FAYL BILLOT;Place de la Mairie, 52500 Fayl-Billot;52500;;;Crédit Agricole - Champagne Bourgogne
Agence bancaire FONTAINE LES DIJON;C.CIAL SAINT MARTIN, 21120 FONTAINE LES DIJON;21120;;;Crédit Agricole - Champagne Bourgogne
Agence bancaire FRONCLES;69 RUE DU GENERAL LECLERC, 52320 FRONCLES;52320;;;Crédit Agricole - Champagne Bourgogne
Agence bancaire GENLIS;3 Cours Martyrs de la Résistance, 21110 Genlis;21110;;;Crédit Agricole - Champagne Bourgogne
Agence bancaire IS-SUR-TILLE;Adresse temporaire - Rue du chemin noir, 21120 IS SUR TILLE;21120;;;Crédit Agricole - Champagne Bourgogne
Agence bancaire JOIGNY;50 Avenue Gambetta, 89300 JOIGNY;89300;;;Crédit Agricole - Champagne Bourgogne
Agence bancaire JOINVILLE;35 RUE ARISTIDE BRIAND, 52300 JOINVILLE;52300;;;Crédit Agricole - Champagne Bourgogne
Agence bancaire LA CHAPELLE SAINT LUC - ESCAPADE;C.CIAL CARREFOUR L'ESCAPADE 4 BOULEVARD DE L'OUEST, 10600 LA CHAPELLE-SAINT-LUC;10600;48,306189;4,024356;Crédit Agricole - Champagne Bourgogne
Agence bancaire LA CHAPELLE SAINT LUC - SARRAIL;14 AVENUE ROGER SALENGRO, 10600 LA CHAPELLE-SAINT-LUC;10600;48,3120534;4,0503366;Crédit Agricole - Champagne Bourgogne
Agence bancaire MONTIER EN DER;10 Place Notre Dame, 52220 La Porte du Der;52220;;;Crédit Agricole - Champagne Bourgogne
Agence bancaire LAIGNES;RUE PORTE DE LA CROIX, 21330 LAIGNES;21330;;;Crédit Agricole - Champagne Bourgogne
Agence bancaire LANGRES;10 Rue du grand Bie, 52200 LANGRES;52200;;;Crédit Agricole - Champagne Bourgogne
Agence bancaire LES RICEYS;29 RUE DU GENERAL DE GAULLE, 10340 LES RICEYS;10340;;;Crédit Agricole - Champagne Bourgogne
Agence bancaire LONGEAU;39 RUE DE CHAMPAGNE, 52250 LONGEAU;52250;;;Crédit Agricole - Champagne Bourgogne
Agence bancaire LONGVIC;RUE DES PREVÔTS, 21600 LONGVIC;21600;;;Crédit Agricole - Champagne Bourgogne
Agence bancaire LUSIGNY SUR BARSE;30 RUE GEORGES CLEMENCEAU, 10270 LUSIGNY SUR BARSE;10270;;;Crédit Agricole - Champagne Bourgogne
Agence bancaire MARIGNY LE CHATEL;1 RUE GEORGES CLEMENCEAU, 10350 MARIGNY LE CHATEL;10350;;;Crédit Agricole - Champagne Bourgogne
Agence bancaire MERY SUR SEINE;7 PLACE CROALA, 10170 MERY SUR SEINE;10170;;;Crédit Agricole - Champagne Bourgogne
Agence bancaire MEURSAULT;6 RUE DE LATTRE DE TASSIGNY, 21190 MEURSAULT;21190;;;Crédit Agricole - Champagne Bourgogne
Agence bancaire MIGENNES;4-6 RUE ROGER SALENGRO, 89400 MIGENNES;89400;;;Crédit Agricole - Champagne Bourgogne
Agence bancaire MIREBEAU sur BEZE;1 rue Paul Auban, 21310 MIREBEAU SUR BEZE;21310;;;Crédit Agricole - Champagne Bourgogne
Agence bancaire MONETEAU;2 ROUTE DE SEIGNELAY, 89470 MONETEAU;89470;;;Crédit Agricole - Champagne Bourgogne
Agence bancaire MONTBARD;12 RUE CARNOT, 21500 MONTBARD;21500;;;Crédit Agricole - Champagne Bourgogne
Agence bancaire BOURBONNE LES BAINS;Adresse temporaire jusqu'au 16.09 - 15 PLACE CHARLES CORNEVIN, 52140 MONTIGNY LE ROI;52140;48,00022421167292;5,494842530456926;Crédit Agricole - Champagne Bourgogne
Agence bancaire MONTIGNY LE ROI;15 PLACE CHARLES CORNEVIN, 52140 MONTIGNY LE ROI;52140;47,99928;5,49495;Crédit Agricole - Champagne Bourgogne
Agence bancaire NOGENT EN BASSIGNY;1 PLACE CHARLES DE GAULLE, 52800 NOGENT EN BASSIGNY;52800;;;Crédit Agricole - Champagne Bourgogne
Agence bancaire NOGENT SUR SEINE;6 RUE DES FOSSES, 10400 NOGENT SUR SEINE;10400;;;Crédit Agricole - Champagne Bourgogne
Agence bancaire NOLAY;52 RUE DE LA REPUBLIQUE, 21340 NOLAY;21340;;;Crédit Agricole - Champagne Bourgogne
Agence bancaire NUITS SAINT GEORGES;2 RUE THUROT, 21700 NUITS SAINT GEORGES;21700;;;Crédit Agricole - Champagne Bourgogne
Agence bancaire PINEY;22 RUE DES FRERES HUBERT, 10220 PINEY;10220;;;Crédit Agricole - Champagne Bourgogne
Agence bancaire PONT SAINTE MARIE;2 AVENUE JEAN JAURES, 10150 PONT SAINTE MARIE;10150;;;Crédit Agricole - Champagne Bourgogne
Agence bancaire PONT SUR YONNE;23 PLACE EUGENE PETIT, 89140 PONT SUR YONNE;89140;;;Crédit Agricole - Champagne Bourgogne
Agence bancaire PONTAILLER SUR SAONE;4 PLACE DE L'EGLISE, 21270 PONTAILLER SUR SAONE;21270;;;Crédit Agricole - Champagne Bourgogne
Agence bancaire POUILLY EN AUXOIS;Place de la Libération, 21320 Pouilly-en-Auxois;21320;;;Crédit Agricole - Champagne Bourgogne
Agence bancaire PRAUTHOY;43 GRAND' RUE, 52190 PRAUTHOY;52190;;;Crédit Agricole - Champagne Bourgogne
Agence bancaire PRECY SOUS THIL;12 RUE DE L'HÔTEL DE VILLE, 21390 PRECY SOUS THIL;21390;;;Crédit Agricole - Champagne Bourgogne
Agence bancaire QUÉTIGNY;PLACE CENTRALE, 21800 QUETIGNY;21800;;;Crédit Agricole - Champagne Bourgogne
Agence bancaire ROMILLY SUR SEINE;64-66 RUE GORNET BOIVIN, 10100 ROMILLY SUR SEINE;10100;;;Crédit Agricole - Champagne Bourgogne
Agence bancaire SAINT ANDRÉ PÉGUY;8 COUR CHARLES PEGUY, 10120 SAINT ANDRE LES VERGERS;10120;;;Crédit Agricole - Champagne Bourgogne
Agence bancaire SAINT APOLLINAIRE;1160 COURS DE GRAY, C.CIAL INTERMARCHE, 21850 SAINT APOLLINAIRE;21850;;;Crédit Agricole - Champagne Bourgogne
Agence bancaire SAINT DIZIER GIGNY;30 PLACE DU GENERAL DE GAULLE, 52100 SAINT DIZIER;52100;48,63611;4,956050366163254;Crédit Agricole - Champagne Bourgogne
Agence bancaire SAINT DIZIER REPUBLIQUE;17 AVENUE DE LA REPUBLIQUE, 52100 SAINT DIZIER;52100;48,63728;4,94529;Crédit Agricole - Champagne Bourgogne
Agence bancaire SAINT FARGEAU;1 PLACE DE LA REPUBLIQUE, 89170 SAINT FARGEAU;89170;;;Crédit Agricole - Champagne Bourgogne
Agence bancaire SAINT FLORENTIN;PLACE EDMOND VEROLLOT, 89600 SAINT FLORENTIN;89600;;;Crédit Agricole - Champagne Bourgogne
Agence bancaire SAINT GEORGES;C.CIAL LA GUILLAUMEE, 89000 SAINT GEORGES SUR BAULCHE;89000;;;Crédit Agricole - Champagne Bourgogne
Agence bancaire SAINT JULIEN DU SAULT;RUE DE L'HÔTEL DIEU, 89330 SAINT JULIEN DU SAULT;89330;;;Crédit Agricole - Champagne Bourgogne
Agence bancaire SAINT PARRES LES VAUDES;12 BIS BOULEVARD FRANCOIS MOTHRE, 10260 SAINT PARRES LES VAUDES;10260;;;Crédit Agricole - Champagne Bourgogne
Agence bancaire SAINT SAUVEUR EN PUISAYE;PLACE DU MARCHE, 89520 SAINT SAUVEUR EN PUISAYE;89520;;;Crédit Agricole - Champagne Bourgogne
Agence bancaire SAINT SEINE l'ABBAYE;RUE SAUNOIS, 21440 SAINT SEINE L'ABBAYE;21440;;;Crédit Agricole - Champagne Bourgogne
Agence bancaire SAINT USAGE;1 RUE DES METIERS, 21170 SAINT USAGE;21170;;;Crédit Agricole - Champagne Bourgogne
Agence bancaire SAINT VALÉRIEN;69 RUE DE LA REPUBLIQUE, 89150 SAINT VALERIEN;89150;;;Crédit Agricole - Champagne Bourgogne
Agence bancaire SAINTE SAVINE GALLIENI;57 AVENUE GALLIENI, 10300 SAINTE SAVINE;10300;;;Crédit Agricole - Champagne Bourgogne
Agence bancaire SAULIEU;5 Place des Terreaux, 21210 Saulieu;21210;;;Crédit Agricole - Champagne Bourgogne
Agence bancaire SELONGEY;8 RUE DE LA PATENEE, 21260 SELONGEY;21260;;;Crédit Agricole - Champagne Bourgogne
Agence bancaire SEMUR EN AUXOIS;34 BIS RUE DE LA LIBERTE, 21140 SEMUR EN AUXOIS;21140;;;Crédit Agricole - Champagne Bourgogne
Agence bancaire SENS MAUPÉOU;1 BOULEVARD MAUPÉOU, 89100 SENS;89100;48,19892;3,27731;Crédit Agricole - Champagne Bourgogne
Agence bancaire SENS REPUBLIQUE;91 RUE DE LA REPUBLIQUE, 89100 SENS;89100;48,19843129153278;3,282490000480611;Crédit Agricole - Champagne Bourgogne
Agence bancaire SEURRE;39 BIS RUE DE LA REPUBLIQUE, 21250 SEURRE;21250;;;Crédit Agricole - Champagne Bourgogne
Agence bancaire SOMBERNON;PLACE BENIGNE FOURNIER, 21540 SOMBERNON;21540;;;Crédit Agricole - Champagne Bourgogne
Agence bancaire TALANT;C.CIAL DU BELVEDERE, 21240 TALANT;21240;;;Crédit Agricole - Champagne Bourgogne
Agence bancaire TONNERRE;5 RUE DU PONT, 89700 TONNERRE;89700;;;Crédit Agricole - Champagne Bourgogne
Agence bancaire TOUCY;6 PLACE DES FRERES GENET, 89130 TOUCY;89130;;;Crédit Agricole - Champagne Bourgogne
Agence bancaire CENTRE D'AFFAIRES ENTREPRISES - TROYES CHAUMONT;269 FAUBOURG CRONCELS, 10000 TROYES;10000;48,280432;4,080559;Crédit Agricole - Champagne Bourgogne
Agence bancaire TROYES AUDIFFRED;Place Audiffred, 10000 Troyes;10000;48,2957113;4,0718583;Crédit Agricole - Champagne Bourgogne
Agence bancaire TROYES CHARTREUX;99 AVENUE EDOUARD HERRIOT, 10000 TROYES;10000;48,2725142;4,0826181;Crédit Agricole - Champagne Bourgogne
Agence bancaire TROYES EUROPE;13 ROND-POINT DE L'EUROPE, 10000 TROYES;10000;48,305997;4,092203;Crédit Agricole - Champagne Bourgogne
Agence bancaire TROYES MISSION;93-95 AVENUE PIERRE BROSSOLETTE, 10000 TROYES;10000;48,28905;4,0767648;Crédit Agricole - Champagne Bourgogne
Agence bancaire TROYES PONT VERT;124 BIS RUE DE PREIZE, 10000 TROYES;10000;48,3079421;4,0685373;Crédit Agricole - Champagne Bourgogne
Agence bancaire LES LAUMES;4 AVENUE DE DIJON, 21150 VENAREY LES LAUMES;21150;;;Crédit Agricole - Champagne Bourgogne
Agence bancaire VENDEUVRE SUR BARSE;4 AVENUE DE L'ARMEE LECLERC, 10140 VENDEUVRE SUR BARSE;10140;;;Crédit Agricole - Champagne Bourgogne
Agence bancaire VERMENTON;19 RUE DU GENERAL DE GAULLE, 89270 VERMENTON;89270;;;Crédit Agricole - Champagne Bourgogne
Agence bancaire VILLENAUXE LA GRANDE;5 RUE DE LA GARE, 10370 VILLENAUXE LA GRANDE;10370;;;Crédit Agricole - Champagne Bourgogne
Agence bancaire VILLENEUVE L'ARCHEVÊQUE;20 RUE DE LA REPUBLIQUE, 89190 VILLENEUVE L'ARCHEVEQUE;89190;;;Crédit Agricole - Champagne Bourgogne
Agence bancaire VILLENEUVE LA GUYARD;7 AVENUE DE LA GARE, 89340 VILLENEUVE LA GUYARD;89340;;;Crédit Agricole - Champagne Bourgogne
Agence bancaire VILLENEUVE SUR YONNE;PLACE BRIARD, 89500 VILLENEUVE SUR YONNE;89500;;;Crédit Agricole - Champagne Bourgogne
Agence bancaire VITTEAUX;PLACE ARISTIDE BRIAND, 21350 VITTEAUX;21350;;;Crédit Agricole - Champagne Bourgogne
Agence bancaire WASSY;8 RUE PAUL CLAUDEL, 52130 WASSY;52130;;;Crédit Agricole - Champagne Bourgogne
