nom;adresse;code_postal;latitude;longitude;region_source
Agence bancaire AMBERIEU EN BUGEY;Centre Commercial du BUGEY 25 Rue Alexandre BERARD, 01500 AMBERIEU EN BUGEY;01500;;;Crédit Agricole - Centre Est
Relais CA Relais CA LA ROSERAIE - AMBERIEUX EN DOMBES;33 RUE DE LA RUELLE, 01330 AMBERIEUX EN DOMBES;01330;45,99814411846894;4,903313854192305;Crédit Agricole - Centre Est
Agence bancaire AMPLEPUIS;25 bis rue du 8 Mai 1945, 69550 AMPLEPUIS;69550;;;Crédit Agricole - Centre Est
Agence bancaire AMPUIS;18 boulevard des Allees RN86, 69420 AMPUIS;69420;;;Crédit Agricole - Centre Est
Agence bancaire ANNEYRON (CA Centre-est);38 Place Rambaud, 26140 ANNEYRON;26140;;;Crédit Agricole - Centre Est
Agence bancaire ANNONAY;11 Place des Cordeliers, 07100 ANNONAY;07100;;;Crédit Agricole - Centre Est
Relais CA Relais CA PROXIMARCHE - Anost;4 Rue Andre Basdevant, 71550 Anost;71550;47,077261;4,09948;Crédit Agricole - Centre Est
Agence bancaire ANSE;724 route de LYON, 69480 ANSE;69480;;;Crédit Agricole - Centre Est
Relais CA Relais CA STATION SERVICE LES 3D - Aoste;3390 Route de Belley, 38490 Aoste;38490;45,618496;5,6108549;Crédit Agricole - Centre Est
Agence bancaire APPRIEU;225 Route de Lyon, 38140 APPRIEU;38140;;;Crédit Agricole - Centre Est
Relais CA Relais CA LA MAISON DU TABAC - Arnas;2014 Route de Longsard, 69400 Arnas;69400;46,02494739999999;4,7058884;Crédit Agricole - Centre Est
Agence bancaire ARTEMARE;25, Rue neuve, 01510 ARTEMARE;01510;;;Crédit Agricole - Centre Est
Relais CA Relais CA ONDET CHRISTIAN - ATTIGNAT;503 GRANDE RUE, 01340 ATTIGNAT;01340;46,28786097950477;5,15938493886484;Crédit Agricole - Centre Est
Agence bancaire AUTUN;8, rue Delattre De Tassigny   BP 94, 71400 AUTUN;71400;;;Crédit Agricole - Centre Est
Relais CA Relais CA LE PAMPY - AZE;Lieu dit Le Bourg, 71260 AZE;71260;46,43208361647033;4,76102139654496;Crédit Agricole - Centre Est
Agence bancaire BAGE LE CHATEL;49, place Pluthod, 01380 BAGE LE CHATEL;01380;;;Crédit Agricole - Centre Est
Relais CA Relais CA VEROT ALAIN - BAUDRIERES;Le Bourg, 71370 BAUDRIERES;71370;46,70459093419718;5,051226255513871;Crédit Agricole - Centre Est
Agence bancaire BEAUJEU;151 Rue de la Republique, 69430 Beaujeu;69430;;;Crédit Agricole - Centre Est
Relais CA Relais CA LES TROIS BOUCHONS - Beaupont;27 place publique, 01270 Beaupont;01270;46,4103947;5,2659274;Crédit Agricole - Centre Est
Agence bancaire BEAUREPAIRE (CA Centre-est);33 rue de la Republique, 38270 BEAUREPAIRE;38270;;;Crédit Agricole - Centre Est
Agence bancaire BELLEVILLE EN BEAUJOLAIS;8 et 10 rue de la Poste, 69220 BELLEVILLE EN BEAUJOLAIS;69220;;;Crédit Agricole - Centre Est
Agence bancaire BELLEY;2, rue Saint Martin, 01300 BELLEY;01300;;;Crédit Agricole - Centre Est
Agence bancaire BEYNOST;Centre commercial Beynost 2 Zac des Baterses, 01700 BEYNOST;01700;;;Crédit Agricole - Centre Est
Relais CA Relais CA BLACE TABAC - Blace;90c Rue Adolphe Valette, 69460 Blace;69460;46,0317839;4,6442906;Crédit Agricole - Centre Est
Agence bancaire BLANZY;11 rue Jean Monnet, 71450 BLANZY;71450;;;Crédit Agricole - Centre Est
Relais CA Relais CA SNC OLIGAL - BOUGE CHAMBALUD;PLACE DE LA MAIRIE, 38150 BOUGE CHAMBALUD;38150;45,3308606463613;4,901609829399224;Crédit Agricole - Centre Est
Agence bancaire BOURBON LANCY;34 avenue General De Gaulle    BP 10, 71140 BOURBON LANCY;71140;;;Crédit Agricole - Centre Est
Agence bancaire BOURG CAP EMERAUDE;Pole Commercial Cap Emeraude 1380 Boulevard des Cretes de Revermond, 01000 BOURG EN BRESSE;01000;46,2048263;5,2255015;Crédit Agricole - Centre Est
Agence bancaire BOURG ST DENIS;27 Avenue du Mail  Quartier Peloux Mail, 01000 BOURG EN BRESSE;01000;46,201885;5,210123;Crédit Agricole - Centre Est
Agence bancaire BOURG VERDUN;32, cours de Verdun        Quartier Bourg centre, 01000 BOURG EN BRESSE;01000;46,206392;5,226789;Crédit Agricole - Centre Est
Agence bancaire BOURGOIN CHATEAU (CA Centre-est);place du Chateau, 38300 BOURGOIN JALLIEU;38300;45,585246;5,27663;Crédit Agricole - Centre Est
Agence bancaire BOURGOIN ST MICHEL (CA Centre-est);2 boulevard St Michel, 38300 BOURGOIN JALLIEU;38300;45,5856143;5,2741903;Crédit Agricole - Centre Est
Relais CA Relais CA GRILLOT PATRICK - Branges;1130 Route du Bourg, 71500 Branges;71500;46,6432355;5,180721699999999;Crédit Agricole - Centre Est
Relais CA Relais CA GUDIN MIREILLE - BRENOD;30 RUE PRINCIPALE, 01110 BRENOD;01110;46,06191193918511;5,606911688586962;Crédit Agricole - Centre Est
Relais CA Relais CA BERNARDIN DAVID - BRESSOLLES;125 GRANDE RUE, 01360 BRESSOLLES;01360;45,86559045835973;5,094690881169079;Crédit Agricole - Centre Est
Relais CA Relais CA MADEL61 - Brezins;48 Route de la Cote Saint-Andre, 38590 Brezins;38590;45,3505032;5,3067943;Crédit Agricole - Centre Est
Agence bancaire BRIGNAIS;163 rue General De Gaulle, 69530 BRIGNAIS;69530;;;Crédit Agricole - Centre Est
Agence bancaire BRINDAS;62 rue du Vieux Bourg, 69126 BRINDAS;69126;;;Crédit Agricole - Centre Est
Agence bancaire BRON CENTRE;141 avenue Franklin Roosevelt, 69500 BRON;69500;;;Crédit Agricole - Centre Est
Relais CA Relais CA EPICERIE PRESSE BAR TABAC - BROYE;Le Bourg, 71190 BROYE;71190;46,87241899578427;4,291607726683772;Crédit Agricole - Centre Est
Relais CA Relais CA L EPICERIE DU COIN - BRULLIOLES;PLACE DE L EGLISE, 69690 BRULLIOLES;69690;45,76252840317507;4,499457503690586;Crédit Agricole - Centre Est
Relais CA Relais CA BIENVENUE - Brussieu;4 Route nationale, 69690 Brussieu;69690;45,75202164771908;4,547146823225622;Crédit Agricole - Centre Est
Agence bancaire BUXY;1 Place du Lavoir, 71390 Buxy;71390;;;Crédit Agricole - Centre Est
Agence bancaire CALUIRE CENTRE COMMERCIAL;10 chemin Petit, 69300 CALUIRE ET CUIRE;69300;45,80446;4,857524;Crédit Agricole - Centre Est
Agence bancaire CALUIRE JEAN MOULIN;86 rue Jean Moulin, 69300 CALUIRE ET CUIRE;69300;45,7999489;4,8478607;Crédit Agricole - Centre Est
Relais CA Relais CA LE CERTINOIS - Certines;419 Route de la Mairie, 01240 Certines;01240;46,13285800000001;5,264406;Crédit Agricole - Centre Est
Relais CA Relais CA BOUCHERIE-CHARCUTERIE FARGUE - Ceyzeriat;12 Rue Jerome Lalande, 01250 Ceyzeriat;01250;46,1787368;5,323958500000001;Crédit Agricole - Centre Est
Relais CA Relais CA LA PANOUILLE - Ceyzeriat;3 Place Emile Bouvard, 01250 Ceyzeriat;01250;46,1797224;5,3241233;Crédit Agricole - Centre Est
Agence bancaire CHAGNY;3, rue du Bourg          BP 59, 71150 CHAGNY;71150;;;Crédit Agricole - Centre Est
Agence bancaire CHALAMONT;Grande Rue, 01320 CHALAMONT;01320;;;Crédit Agricole - Centre Est
Agence bancaire CENTRE D'AFFAIRES - CHALON;4 rue des Chargeurs, 71100 CHALON SUR SAONE;71100;46,7842205;4,8544859;Crédit Agricole - Centre Est
Agence bancaire CHALON AVENUE DE PARIS;157 avenue de Paris, 71100 CHALON SUR SAONE;71100;46,7990705;4,8470355;Crédit Agricole - Centre Est
Agence bancaire CHALON BEAUNE;19 Place de Beaune, 71100 CHALON SUR SAONE;71100;46,7843663;4,8548417;Crédit Agricole - Centre Est
Agence bancaire CHAMPAGNE AU MONT D OR;49 avenue Lanessan, 69410 CHAMPAGNE AU MONT D OR;69410;;;Crédit Agricole - Centre Est
Relais CA Relais CA CHARVET CHRISTOPHE - CHAMPAGNE EN VALROMEY;Le Bourg, 01260 CHAMPAGNE EN VALROMEY;01260;45,9054412096079;5,684211629427027;Crédit Agricole - Centre Est
Agence bancaire CHAPONNAY;Les Residences du Parc BAT.B place Charles De Gaulle, 69970 CHAPONNAY;69970;;;Crédit Agricole - Centre Est
Agence bancaire CHAPONOST;18 Place Marechal Foch, 69630 Chaponost;69630;;;Crédit Agricole - Centre Est
Agence bancaire CHARBONNIERES LES BAINS;16 avenue General De Gaulle, 69260 CHARBONNIERES LES BAINS;69260;;;Crédit Agricole - Centre Est
Relais CA Relais CA COMPTOIR DE CHARENTAY - Charentay;4 Route de Belleville, 69220 Charentay;69220;46,0886568;4,6795114;Crédit Agricole - Centre Est
Agence bancaire CHARNAY LES MACON;43 Grande rue de la Coupee, 71850 CHARNAY LES MACON;71850;;;Crédit Agricole - Centre Est
Agence bancaire CHAROLLES;3, place du Temeraire, 71120 CHAROLLES;71120;;;Crédit Agricole - Centre Est
Agence bancaire CHASSELAY;28 Le Promenoir, 69380 CHASSELAY;69380;;;Crédit Agricole - Centre Est
Agence bancaire CHASSIEU;29 rue de la Republique, 69680 CHASSIEU;69680;;;Crédit Agricole - Centre Est
Agence bancaire CHATEAUNEUF DE GALAURE (CA Centre-est);30 rue Geoffroy De Moirans, 26330 CHATEAUNEUF DE GALAURE;26330;;;Crédit Agricole - Centre Est
Agence bancaire CHATENOY LE ROYAL;avenue General De Gaulle, 71880 CHATENOY LE ROYAL;71880;;;Crédit Agricole - Centre Est
Agence bancaire CHATILLON SUR CHALARONNE;avenue Clement Desormes      BP 44, 01400 CHATILLON SUR CHALARONNE;01400;;;Crédit Agricole - Centre Est
Relais CA Relais CA MA PRESSE-MON TABAC - CHATONNAY;14 RUE DES TISSERANDS, 38440 CHATONNAY;38440;45,48665891444452;5,208942265804025;Crédit Agricole - Centre Est
Relais CA Relais CA VIVAL-VILETTE - CHATTE;229 GRANDE RUE, 38160 CHATTE;38160;45,14318425833884;5,283952229011874;Crédit Agricole - Centre Est
Agence bancaire CHAUFFAILLES;4 rue Gambetta          BP 29, 71170 CHAUFFAILLES;71170;;;Crédit Agricole - Centre Est
Agence bancaire CHAZAY D AZERGUES;Place de l'Eglise, 69380 CHAZAY D AZERGUES;69380;;;Crédit Agricole - Centre Est
Relais CA Relais CA LA MORVANDELLE - CHISSEY EN MORVAN;Le Bourg, 71540 CHISSEY EN MORVAN;71540;47,11906509189922;4,224616627271947;Crédit Agricole - Centre Est
Relais CA AU PANIER GOURMAND - CLESSE;PL DE L'EGLISE, 71260 CLESSE;71260;46,43124157558898;4,810219892928319;Crédit Agricole - Centre Est
Relais CA Relais CA AU PANIER GOURMAND - CLESSE;PL DE L'EGLISE, 71260 CLESSE;71260;46,43124157558898;4,810219892928319;Crédit Agricole - Centre Est
Agence bancaire CLUNY;1 petite rue Lamartine      BP 22, 71250 CLUNY;71250;;;Crédit Agricole - Centre Est
Relais CA Relais CA COMPTOIR DE COGNY - Cogny;10 Route des Pierres Dorees, 69640 Cogny;69640;45,9874055;4,6251088;Crédit Agricole - Centre Est
Relais CA Relais CA L'EPICERIE... - Cogny;10 Route des Pierres Dorees, 69640 Cogny;69640;45,9874055;4,6251088;Crédit Agricole - Centre Est
Agence bancaire COLIGNY;25 Rue du Commerce, 01270 Coligny;01270;;;Crédit Agricole - Centre Est
Agence bancaire COLLONGES;Grande Rue, 01550 COLLONGES;01550;;;Crédit Agricole - Centre Est
Relais CA Relais CA CAILLAT JULIEN - CONDEISSIAT;Le village, 01400 CONDEISSIAT;01400;46,17950549268449;5,576437736828155;Crédit Agricole - Centre Est
Agence bancaire CONDRIEU;32b Rue nationale batiment B1 Clos des poetes, 69420 CONDRIEU;69420;;;Crédit Agricole - Centre Est
Relais CA Relais CA LA TABLEE - Confrançon;437 Route du Logis Neuf, 01310 Confrançon;01310;46,25611259999999;5,0556516;Crédit Agricole - Centre Est
Agence bancaire CORBAS (CA Centre-est);62 rue Centrale, 69960 CORBAS;69960;;;Crédit Agricole - Centre Est
Relais CA Relais CA MADTECK - Corbelin;85 Place du Campanil, 38630 Corbelin;38630;45,6078162;5,5452881;Crédit Agricole - Centre Est
Relais CA Relais CA THEVENET JEROME - Corbelin;Avenue de la Soie, 38630 Corbelin;38630;45,6088688;5,5406014;Crédit Agricole - Centre Est
Relais CA Relais CA LA CROISEE DES PAINS - CORMORANCHE SUR SAONE;7 Rue du Jet d'Eau, 01290 CORMORANCHE SUR SAONE;01290;46,24121472006258;4,831258565846503;Crédit Agricole - Centre Est
Agence bancaire COUCHES;2 Rue Saint-Georges, 71490 Couches;71490;;;Crédit Agricole - Centre Est
Relais CA Relais CA BON - Courmangoux;171 Rue du 16 Avril 1944, 01370 Courmangoux;01370;46,3381598;5,3714412;Crédit Agricole - Centre Est
Agence bancaire COURS;55 Rue Henri Touzet, 69470 Cours;69470;;;Crédit Agricole - Centre Est
Agence bancaire CRAPONNE;85 avenue Edouard Millaud, 69290 CRAPONNE;69290;;;Crédit Agricole - Centre Est
Agence bancaire CRECHES SUR SAONE;place du Monument, 71680 CRECHES SUR SAONE;71680;;;Crédit Agricole - Centre Est
Agence bancaire CREMIEU (CA Centre-est);3 rue de la Porcherie, 38460 CREMIEU;38460;;;Crédit Agricole - Centre Est
Relais CA Relais CA HOTEL DES VOYAGEURS - CRONAT;LE BOURG, 71140 CRONAT;71140;46,72161123826798;3,684173240173595;Crédit Agricole - Centre Est
Agence bancaire CUISEAUX;23, rue Edouard Vuillard, 71480 CUISEAUX;71480;;;Crédit Agricole - Centre Est
Agence bancaire CUISERY;1 rue Neuve, 71290 CUISERY;71290;;;Crédit Agricole - Centre Est
Agence bancaire CULOZ;route de Belley, 01350 CULOZ;01350;;;Crédit Agricole - Centre Est
Relais CA Relais CA DEDIEU SYLVIE - Damerey;23 Route de Dole, 71620 Damerey;71620;46,8338267;4,9905347;Crédit Agricole - Centre Est
Agence bancaire DARDILLY PORTE DE LYON;Centre Commercial Porte de Lyon, 69570 DARDILLY;69570;;;Crédit Agricole - Centre Est
Relais CA Relais CA GRILLOT FLORENCE - Davaye;En Varanjoux, 71960 Davaye;71960;46,30333303330559;4,742651455501897;Crédit Agricole - Centre Est
Agence bancaire DAVEZIEUX;residence des Peupliers, 07430 DAVEZIEUX;07430;;;Crédit Agricole - Centre Est
Agence bancaire DECINES CHARPIEU;131 Avenue Jean Jaures, 69152 Decines-Charpieu;69152;;;Crédit Agricole - Centre Est
Relais CA Relais CA BOULANGERIE PATISSERIE - DENNEVY;1 Route de Saint Leger, 71510 DENNEVY;71510;46,86574785679928;4,648486825405723;Crédit Agricole - Centre Est
Relais CA Relais CA AUBERGE DU RAZAY - Deux-Grosnes;le razay, 69860 Deux-Grosnes;69860;46,2432476;46,24271883401032;Crédit Agricole - Centre Est
Agence bancaire DIGOIN;7 rue Bartoli, 71160 DIGOIN;71160;;;Crédit Agricole - Centre Est
Agence bancaire CENTRE DE PATRIMOINE - DIVONNE LES BAINS;87 grande rue Divonne les Bains, 01220 DIVONNE LES BAINS;01220;46,3557835;6,1399625;Crédit Agricole - Centre Est
Agence bancaire DIVONNE LES BAINS;57 Grande Rue           BP 1, 01220 DIVONNE LES BAINS;01220;46,3556645;6,1390144;Crédit Agricole - Centre Est
Relais CA Relais CA M.BANG SARL - Dommartin;1739 Route des Bois, 69380 Dommartin;69380;45,83610950000001;4,7144081;Crédit Agricole - Centre Est
Relais CA Relais CA VALETTE DIDIER - DOMMARTIN;Le Bourg, 01380 DOMMARTIN;01380;46,33814592831283;4,990988262166572;Crédit Agricole - Centre Est
Relais CA Relais CA GARAGE PIRAT - DOMMARTIN LES CUISEAUX;Le Bourg, 71480 DOMMARTIN LES CUISEAUX;71480;46,49976041802257;5,300855227236495;Crédit Agricole - Centre Est
Relais CA Relais CA AUCAIGNE GAGNIEUX - DOMPIERRE LES ORMES;187 GRANDE RUE, 71520 DOMPIERRE LES ORMES;71520;46,36151366411146;4,480730310033107;Crédit Agricole - Centre Est
Relais CA Relais CA CHEZ NATH' - DOMPIERRE SUR VEYLE;13 PL DE LA MAIRIE, 01240 DOMPIERRE SUR VEYLE;01240;46,07175032185039;5,20588338303243;Crédit Agricole - Centre Est
Relais CA Relais CA LE RENDEZ VOUS DES SAVEURS - DUERNE;33 ROUTE DE BORDEAUX, LE BOURG, 69850 DUERNE;69850;45,68453524334002;4,526835611846551;Crédit Agricole - Centre Est
Relais CA Relais CA DESCHARNE JEAN PHILIPPE - Dyo;Le Bourg, 71800 Dyo;71800;46,35987735198913;4,27553944200915;Crédit Agricole - Centre Est
Relais CA Relais CA DOFRET - Echallon;50 Place Charles Bletel, 01130 Echallon;01130;46,209519;5,740244;Crédit Agricole - Centre Est
Agence bancaire ECULLY CENTRE;22 avenue Veyssiere, 69130 ECULLY;69130;45,774535;4,778966;Crédit Agricole - Centre Est
Agence bancaire ECULLY GRAND OUEST;Ecully Grand Ouest        25 Centre Commercial, 69130 ECULLY;69130;45,7879164;4,7750486;Crédit Agricole - Centre Est
Agence bancaire EPINAC;2 Rue Roger Salengro, 71360 Epinac;71360;;;Crédit Agricole - Centre Est
Relais CA Relais CA LE VERSEAU - EPINOUZE;LE VILLAGE, 79 RUE DE LA MAIRIE, 26210 EPINOUZE;26210;45,30945743195156;4,930412511825576;Crédit Agricole - Centre Est
Agence bancaire ETANG SUR ARROUX;2 rue de la Republique, 71190 ETANG SUR ARROUX;71190;;;Crédit Agricole - Centre Est
Relais CA Relais CA PAULET STEVE - EYZIN PINET;Le village, 38780 EYZIN PINET;38780;45,47370081074391;4,998980065803288;Crédit Agricole - Centre Est
Relais CA Relais CA EIRL RODOLPHE DUCLOS - Fareins;259 Route de Flecheres, 01480 Fareins;01480;46,01967370000001;4,760945599999999;Crédit Agricole - Centre Est
Relais CA Relais CA COMPTOIR DE FAVERGE DE LA TOUR - Faverges-de-la-Tour;14 Place des Ecoliers, 38110 Faverges-de-la-Tour;38110;45,5908114;5,525386999999999;Crédit Agricole - Centre Est
Agence bancaire FEILLENS;655 Grande Rue, 01570 Feillens;01570;;;Crédit Agricole - Centre Est
Relais CA Relais CA ROUX - FELINES;34 PL DU 19 MARS 1962, 07340 FELINES;07340;45,31717872525103;4,728463951161979;Crédit Agricole - Centre Est
Agence bancaire FERNEY VOLTAIRE;11-13 avenue Voltaire, 01210 FERNEY VOLTAIRE;01210;;;Crédit Agricole - Centre Est
Agence bancaire FEYZIN;36 route de Lyon, 69320 FEYZIN;69320;;;Crédit Agricole - Centre Est
Agence bancaire FLEURIE;9 Place de l'Eglise, 69820 Fleurie;69820;;;Crédit Agricole - Centre Est
Relais CA Relais CA PATE A CHOUX - FLEURVILLE;RUE RABELAIS, 71260 FLEURVILLE;71260;46,44992625185326;4,885255296545969;Crédit Agricole - Centre Est
Relais CA Relais CA SAVEURS MACONNAISES - FLEURVILLE;RUE RABELAIS, 71260 FLEURVILLE;71260;46,4500458798941;4,885374524824724;Crédit Agricole - Centre Est
Relais CA Relais CA HUSSON XAVIER - FONTAINES;7 RUE DES MARECHAUX, 71150 FONTAINES;71150;46,85054257100556;4,770024013188682;Crédit Agricole - Centre Est
Agence bancaire FONTAINES SUR SAONE;23 avenue Simon Rousseau, 69270 FONTAINES SUR SAONE;69270;;;Crédit Agricole - Centre Est
Agence bancaire FRANCHEVILLE;72 avenue du Chater, 69340 FRANCHEVILLE;69340;;;Crédit Agricole - Centre Est
Relais CA Relais CA VINCENT JOSIANE - FRANGY EN BRESSE;Le Bourg, 71330 FRANGY EN BRESSE;71330;46,73206164252255;5,332119267726136;Crédit Agricole - Centre Est
Relais CA Relais CA L'EPICERIE FRONTENALIENNE - FRONTENAUD;30 PL DE LA MAIRIE, 71580 FRONTENAUD;71580;46,55246676799669;5,29334612723947;Crédit Agricole - Centre Est
Agence bancaire GENAS;17 rue de la Republique, 69740 GENAS;69740;;;Crédit Agricole - Centre Est
Agence bancaire GENAY;17, rue des Ecoles, 69730 GENAY;69730;;;Crédit Agricole - Centre Est
Agence bancaire GENELARD;10 rue Nationale, 71420 GENELARD;71420;;;Crédit Agricole - Centre Est
Relais CA Relais CA CHEZ SANDRINE - GENOUILLEUX;LE VILLAGE, 01090 GENOUILLEUX;01090;46,1184820093041;4,78555559652717;Crédit Agricole - Centre Est
Relais CA Relais CA HABARY FRANCK - GENOUILLY;Grande Rue, 71460 GENOUILLY;71460;46,65108934479987;4,574454203953855;Crédit Agricole - Centre Est
Relais CA Relais CA TABAC GUTIERREZ - Gergy;2 Place Mugnier, 71590 Gergy;71590;46,8761685;4,9470816;Crédit Agricole - Centre Est
Relais CA Relais CA AGENT RENAULT - GERMAGNY;Le Bourg, 71460 GERMAGNY;71460;46,67074651827006;4,602077473542839;Crédit Agricole - Centre Est
Agence bancaire GEX;35, rue Alexandre Reverchon, 01170 GEX;01170;;;Crédit Agricole - Centre Est
Agence bancaire GIVORS 2 VALLEES;Centre Commercial du Gier, 69700 GIVORS;69700;45,5829245;4,756631;Crédit Agricole - Centre Est
Agence bancaire GIVORS CENTRE;4 Place Henri Barbusse, 69700 Givors;69700;45,5817641;4,7739337;Crédit Agricole - Centre Est
Agence bancaire GIVRY;8 Place de la Poste, 71640 Givry;71640;;;Crédit Agricole - Centre Est
Relais CA Relais CATESTARD GAEL - GORREVOD;LES QUATRE VENTS, 23 ROUTE DE BAGE, 01190 GORREVOD;01190;46,41917329716126;4,955219611870882;Crédit Agricole - Centre Est
Relais CA Relais CA GIG EPI - Grezieu-le-Marche;33 Route de Pomeys, 69610 Grezieu-le-Marche;69610;45,6562224;4,4208609;Crédit Agricole - Centre Est
Agence bancaire GRIGNY;Centre Commercial du Jayon, 69520 GRIGNY;69520;;;Crédit Agricole - Centre Est
Agence bancaire GUEUGNON;39 bis rue de la LIBERTE, 71130 GUEUGNON;71130;;;Crédit Agricole - Centre Est
Agence bancaire HEYRIEUX (CA Centre-est);3 avenue de la Republique, 38540 HEYRIEUX;38540;;;Crédit Agricole - Centre Est
Relais CA Relais CA BOUCHERIE DU VAL D'AMBY - Hières-sur-Amby;Montée de la Cure, 38118 Hières-sur-Amby;38118;45,7972485;5,2940501;Crédit Agricole - Centre Est
Relais CA Relais CA LE CAPRICORNE - HURIGNY;60 RUE DU BOURG, 71870 HURIGNY;71870;46,34749703757885;4,796951081196353;Crédit Agricole - Centre Est
Relais CA Relais CA la taverne - Ige;282 Rue de l'Eglise, 71960 Ige;71960;46,39781259999999;4,7425938;Crédit Agricole - Centre Est
Relais CA Relais CA ALIMENTATION GENERALE GUENOT - IGORNAY;8 A HUIT, 71540 IGORNAY;71540;47,04577218142413;4,377793615627283;Crédit Agricole - Centre Est
Relais CA Relais CA EPICERIE DARMET - IGUERANDE;42 GRANDE RUE, 71340 IGUERANDE;71340;46,20625262234236;4,078392267696184;Crédit Agricole - Centre Est
Relais CA Relais CA DIENNET - INJOUX GENISSIAT;9 RUE DE LA PAIX, 01200 INJOUX GENISSIAT;01200;46,05150671415621;5,803067884329617;Crédit Agricole - Centre Est
Agence bancaire IRIGNY;12 avenue Debezange, 69540 IRIGNY;69540;;;Crédit Agricole - Centre Est
Agence bancaire ISSY L EVEQUE;12 place du Champ de Foire, 71760 ISSY L EVEQUE;71760;;;Crédit Agricole - Centre Est
Agence bancaire ISSY L EVEQUE;12 place du Champ de Foire, 71760 ISSY L EVEQUE;71760;45,3332048;4,9469881;Crédit Agricole - Centre Est
Agence bancaire JASSANS RIOTTIER;Centre Commercial Le Marmont   BP 26, 01480 JASSANS RIOTTIER;01480;;;Crédit Agricole - Centre Est
Relais CA Relais CA COMPTOIRS SAONE BEAUJOLAIS - JONAGE;2 Allee des Bouleaux, 69330 JONAGE;69330;45,79948289352237;5,047985475482566;Crédit Agricole - Centre Est
Relais CA Relais CA JCF-PROXI - JONCY;GRANDE RUE LE GUIDE, 71460 JONCY;71460;46,61517497182396;4,556184611899216;Crédit Agricole - Centre Est
Relais CA Relais CA TABAC PRESSE LOTO - JUJURIEUX;3 PLACE DE L HOTEL DE VILLE, 01640 JUJURIEUX;01640;46,03880173358044;5,409792781178838;Crédit Agricole - Centre Est
Relais CA Relais CA BAR MULTISERVICE CHEZ CELINE - JULLIE;Le Bourg, 69840 JULLIE;69840;46,61221537357552;5,191203867757388;Crédit Agricole - Centre Est
Agence bancaire L ARBRESLE;3 place de la Republique, 69210 L ARBRESLE;69210;;;Crédit Agricole - Centre Est
Agence bancaire L ISLE D ABEAU (CA Centre-est);Centre Commercial Regional, 38080 L ISLE D'ABEAU;38080;;;Crédit Agricole - Centre Est
Agence bancaire LA CHAPELLE DE GUINCHAY;39 route du Vieux Moulin, 71570 LA CHAPELLE DE GUINCHAY;71570;;;Crédit Agricole - Centre Est
Relais CA Relais CA LE PTIT CHAPELLAT - LA CHAPELLE NAUDE;158 ROUTE DU BOURG, 71500 LA CHAPELLE NAUDE;71500;46,66949650172359;5,269945681214673;Crédit Agricole - Centre Est
Relais CA Relais CA MLE LOZANO CHRISTINE - LA CHAPELLE SOUS DUN;le bourg, 71800 LA CHAPELLE SOUS DUN;71800;46,25826740355012;4,295540940159802;Crédit Agricole - Centre Est
Agence bancaire LA CLAYETTE;59 et 61 rue Centrale      BP 16, 71800 LA CLAYETTE;71800;;;Crédit Agricole - Centre Est
Agence bancaire LA COTE ST ANDRE (CA Centre-est);83 rue de la Republique, 38260 LA COTE ST ANDRE;38260;;;Crédit Agricole - Centre Est
Relais CA Relais CA LA ROCHE FLEURIE - LA ROCHE VINEUSE;ROUTE NATIONALE 79, 71960 LA ROCHE VINEUSE;71960;46,3456702071626;4,720408840162413;Crédit Agricole - Centre Est
Agence bancaire LA TOUR DE SALVAGNY;5 rue de Paris, 69890 LA TOUR DE SALVAGNY;69890;;;Crédit Agricole - Centre Est
Agence bancaire LA TOUR DU PIN;place du 8 Mai 1945, 38110 LA TOUR DU PIN;38110;;;Crédit Agricole - Centre Est
Agence bancaire LA VERPILLIERE (CA Centre-est);206 avenue Lesdiguieres, 38290 LA VERPILLIERE;38290;;;Crédit Agricole - Centre Est
Relais CA Relais CA MALAVAEL - LA VINEUSE SUR FREGANDE;Le Bourg, 71250 LA VINEUSE SUR FREGANDE;71250;46,45532359002298;4,565002910268201;Crédit Agricole - Centre Est
Agence bancaire LAGNIEU;7 route du Port          BP 15, 01151 LAGNIEU;01151;;;Crédit Agricole - Centre Est
Agence bancaire LAMURE SUR AZERGUES;place de la Mairie, 69870 LAMURE SUR AZERGUES;69870;;;Crédit Agricole - Centre Est
Agence bancaire LE BOIS D OINGT;105 place de la Liberation, 69620 LE BOIS D OINGT;69620;;;Crédit Agricole - Centre Est
Agence bancaire LE CREUSOT FOCH;212 bis, rue Marechal Foch, 71200 LE CREUSOT;71200;46,8041533;4,4543406;Crédit Agricole - Centre Est
Agence bancaire LE CREUSOT SCHNEIDER;8, bd H.P. Schneider, 71200 LE CREUSOT;71200;46,806501;4,428124;Crédit Agricole - Centre Est
Relais CA Relais CA PETITJEAN LUDOVIC - Le Creusot;105 Rue Edith Cavell, 71200 Le Creusot;71200;46,7957486;4,4248191;Crédit Agricole - Centre Est
Relais CA Relais CA BOULANGERIE PATISSERIE C DERIONS - LE GRAND SERRE;GRANDE RUE LE BOURG, 26530 LE GRAND SERRE;26530;45,26992314286598;5,104206226636265;Crédit Agricole - Centre Est
Agence bancaire LE PONT DE BEAUVOISIN (CA Centre-est);place Flandrin, 38480 LE PONT DE BEAUVOISIN;38480;;;Crédit Agricole - Centre Est
Relais CA Relais CA POUILLARD LAURENT - LE ROUSSET MARIZY;Le Bourg, 71220 LE ROUSSET MARIZY;71220;46,56836533251222;4,407071592687737;Crédit Agricole - Centre Est
Agence bancaire LENTILLY;10 place de l'Eglise, 69210 LENTILLY;69210;;;Crédit Agricole - Centre Est
Agence bancaire LES ABRETS (CA Centre-est);121 Rue de la Republique, 38490 Les Abrets en Dauphine;38490;;;Crédit Agricole - Centre Est
Agence bancaire LES AVENIERES (CA Centre-est);2 avenue Perriolat, 38630 LES AVENIERES;38630;;;Crédit Agricole - Centre Est
Relais CA Relais CA LE PETIT CAMPAGNARD - Les Bizots;256 Rue du Lac, 71710 Les Bizots;71710;46,75128344959553;4,39016912539914;Crédit Agricole - Centre Est
Relais CA Relais CA BOUILLIER FRANCK - LESSARD EN BRESSE;Le Bourg, 71440 LESSARD EN BRESSE;71440;46,74097427766889;5,09253019656258;Crédit Agricole - Centre Est
Relais CA Relais CA WALM - Leyment;97 Rue de la Gare, 01150 Leyment;01150;45,9242412;5,293515999999999;Crédit Agricole - Centre Est
Agence bancaire CENTRE D'AFFAIRES - NORD RHONE ENTREPRISES;53 Rue de l'Etang, 69760 Limonest;69760;45,8071992;4,7784005;Crédit Agricole - Centre Est
Agence bancaire INTERNATIONALE ET PATRIMONIALE;53 Rue de l'Etang, 69760 Limonest;69760;45,8073068;4,778347999999999;Crédit Agricole - Centre Est
Agence bancaire LIMONEST;351 avenue Charles de Gaulle, 69760 LIMONEST;69760;45,8357078;4,7719964;Crédit Agricole - Centre Est
Agence bancaire RELATION DIRECTE;., 69760 Limonest;69760;45,8071992;4,7784005;Crédit Agricole - Centre Est
Relais CA Relais CA BELLA CHA - Lissieu;84 Route nationale, 69380 Lissieu;69380;45,8645652;4,7424387;Crédit Agricole - Centre Est
Relais CA Relais CA SNC LE JOKER - Lissieu;108 Route nationale, 69380 Lissieu;69380;45,862106;4,7423845;Crédit Agricole - Centre Est
Agence bancaire LOUHANS;24, rue Lucien Guillemaut, 71500 LOUHANS;71500;;;Crédit Agricole - Centre Est
Agence bancaire LOZANNE;15 avenue de la Gare, 69380 LOZANNE;69380;;;Crédit Agricole - Centre Est
Agence bancaire LUGNY;4 place des Halles, 71260 LUGNY;71260;;;Crédit Agricole - Centre Est
Relais CA Relais CA TACANHO JOSE MANUEL - LUX;32 PAUL ELUARD, 71100 LUX;71100;46,75489603059071;4,847347238891492;Crédit Agricole - Centre Est
Agence bancaire BANQUE DU DIRIGEANT;16 Place Bellecour, 69002 Lyon;69002;45,7574782;4,8342933;Crédit Agricole - Centre Est
Agence bancaire CENTRE D'AFFAIRES D'ENTREPRISES -  LYON METROPOLE;70 Avenue Tony Garnier, 69007 Lyon;69007;45,724175;4,8259783;Crédit Agricole - Centre Est
Agence bancaire CENTRE D'AFFAIRES Grands Comptes;16 place Bellecour, 69000 LYON;69000;45,757526;4,834413;Crédit Agricole - Centre Est
Agence bancaire CENTRE DE PATRIMOINE - LYON BELLECOUR;16 place Bellecour, 69002 LYON;69002;45,757322;4,834047;Crédit Agricole - Centre Est
Agence bancaire LYON AINAY;41 Rue Victor Hugo, 69002 Lyon;69002;45,7533771;4,829623;Crédit Agricole - Centre Est
Agence bancaire LYON ARISTIDE BRIAND;1 place Aristide Briand, 69003 LYON;69003;45,75326;4,849142;Crédit Agricole - Centre Est
Agence bancaire LYON BACHUT;2 avenue PAUL SANTY, 69008 LYON;69008;45,736207;4,86951;Crédit Agricole - Centre Est
Agence bancaire LYON BROTTEAUX;38 boulevard des Brotteaux, 69006 LYON;69006;45,766821;4,856873;Crédit Agricole - Centre Est
Agence bancaire LYON CHARLEMAGNE;9 cours Charlemagne, 69002 LYON;69002;45,741865;4,82021;Crédit Agricole - Centre Est
Agence bancaire LYON CONFLUENCE;Centre commercial Confluence 112 rue Charlemagne, 69002 LYON;69002;45,740878;4,818955;Crédit Agricole - Centre Est
Agence bancaire LYON CROIX ROUSSE;27 place de la Croix Rousse, 69004 LYON;69004;45,774718;4,83251;Crédit Agricole - Centre Est
Agence bancaire LYON ETATS UNIS;80 Boulevard des Etats-Unis, 69008 LYON;69008;45,7318947;4,8651728;Crédit Agricole - Centre Est
Agence bancaire LYON GERLAND DEBOURG;60 avenue DEBOURG, 69007 LYON;69007;45,731385;4,830079;Crédit Agricole - Centre Est
Agence bancaire LYON GUILLOTIERE;55 avenue Jean Jaures, 69007 LYON;69007;45,749564;4,844451;Crédit Agricole - Centre Est
Agence bancaire LYON HENON;39 rue Henon, 69004 LYON;69004;45,779546;4,828315;Crédit Agricole - Centre Est
Agence bancaire LYON HOTEL DIEU;26 Quai Jules Courmont, 69002 LYON;69002;45,7598934;4,8374993;Crédit Agricole - Centre Est
Agence bancaire LYON MONPLAISIR;128 avenue des Freres Lumiere, 69008 LYON;69008;45,744737;4,87008;Crédit Agricole - Centre Est
Agence bancaire LYON MONTCHAT;62 cours du Docteur Long, 69003 LYON;69003;45,74972;4,885162;Crédit Agricole - Centre Est
Agence bancaire LYON PART DIEU (Centre Commercial);17 rue du Docteur Bouchut, 69003 LYON;69003;45,759338;4,854073;Crédit Agricole - Centre Est
Agence bancaire LYON PLACE RONDE;55 Cours Richard Vitton, 69003 LYON;69003;45,753403;4,8919871;Crédit Agricole - Centre Est
Agence bancaire LYON POINT DU JOUR;6 rue Joliot Curie, 69005 LYON;69005;45,754439;4,784813;Crédit Agricole - Centre Est
Agence bancaire LYON QUINET;26 avenue Marechal de Saxe, 69006 LYON;69006;45,766392;4,844352;Crédit Agricole - Centre Est
Agence bancaire LYON ROOSEVELT;26 cours Franklin Roosevelt, 69006 LYON;69006;45,768723;4,845926;Crédit Agricole - Centre Est
Agence bancaire LYON SAINTE ANNE;83 rue Etienne Richerand, 69003 LYON;69003;45,757192;4,865744;Crédit Agricole - Centre Est
Agence bancaire LYON ST JEAN;6 Avenue Adolphe Max, 69005 LYON;69005;45,7602064;4,8268685;Crédit Agricole - Centre Est
Agence bancaire LYON TERREAUX;14 place des Terreaux, 69001 LYON;69001;45,767726;4,83377;Crédit Agricole - Centre Est
Agence bancaire LYON VAISE SAONE;Immeuble Rive bleue, 68-70 rue de SAINT CYR, 69009 LYON;69009;45,7879978;4,8087689;Crédit Agricole - Centre Est
Agence bancaire LYON VAISE VALMY;6 rue Sergent Michel BERTHET, 69009 LYON;69009;45,770445;4,805519;Crédit Agricole - Centre Est
Agence bancaire CENTRE D'AFFAIRES - SAONE ET LOIRE ENTREPRISES;18 Rue de Flace, 71000 MACON;71000;46,3141747;4,8296507;Crédit Agricole - Centre Est
Agence bancaire CENTRE DE PATRIMOINE - MACON;18 rue de FLACE Ilot Bel Air Macon, 71000 MACON;71000;46,30939306664212;4,826376961631271;Crédit Agricole - Centre Est
Agence bancaire MACON CENTRE;21, place POISSONNIERE, 71000 MACON;71000;46,30439;4,834371;Crédit Agricole - Centre Est
Agence bancaire MACON DUNANT;5, rue de Paris, 71000 MACON;71000;46,3126354;4,8355379;Crédit Agricole - Centre Est
Agence bancaire MACON FLACE;63, rue de La Liberte, 71000 MACON;71000;46,3202013;4,8185202;Crédit Agricole - Centre Est
Relais CA Relais CA REBOUX MARIE - Manziat;1266 Grand'route, 01570 Manziat;01570;46,3591424;4,9072596;Crédit Agricole - Centre Est
Agence bancaire MARBOZ;111 rue Saint Martin, 01851 MARBOZ;01851;;;Crédit Agricole - Centre Est
Agence bancaire MARCIGNY;10 place du COURS, 71110 MARCIGNY;71110;;;Crédit Agricole - Centre Est
Relais CA Relais CA LA GRANGE A PAIN - Marcilloles;30 Avenue Hector Berlioz, 38260 Marcilloles;38260;45,3406592;5,1839487;Crédit Agricole - Centre Est
Relais CA Relais CA BOULANGERIE PATISSERIE MARZINIAK - MARMAGNE;Le Bourg, 71710 MARMAGNE;71710;46,83687063625767;4,358310224060288;Crédit Agricole - Centre Est
Relais CA Relais CA SAINT ANDRE DAVID - MARTIGNY LE COMTE;Le Bourg, 71220 MARTIGNY LE COMTE;71220;46,52878291649718;4,333294026673428;Crédit Agricole - Centre Est
Relais CA Relais CA COUDURIER - Massieux;Chemin du Pre Blanc, 01600 Massieux;01600;45,9091946;4,8174368;Crédit Agricole - Centre Est
Relais CA Relais CA Bar du coin - Massilly;10 Route de Cluny, 71250 Massilly;71250;46,4916472;4,673676599999999;Crédit Agricole - Centre Est
Agence bancaire MATOUR;Grande Rue, 71520 MATOUR;71520;;;Crédit Agricole - Centre Est
Relais CA Relais CA TABAC PRESSE DU MARCHE - MERVANS;2 Place du Marche Sainte-Catherine, 71310 MERVANS;71310;46,80014272675852;5,185576800534514;Crédit Agricole - Centre Est
Relais CA Relais CA CHOK'A CHOCOLATERIE - MESSIMY;5 PL DE L EGLISE, 69510 MESSIMY;69510;45,69783831471651;4,674182311847297;Crédit Agricole - Centre Est
Relais CA Relais CA LE DETOUR - Messimy-sur-Saône;243 Rue du Bourg, 01480 Messimy-sur-Saône;01480;46,0484726;4,7646061;Crédit Agricole - Centre Est
Relais CA Relais CA DUPONT VALERIE - MESVRES;5 RUE DES PONTS, 71190 MESVRES;71190;46,86132381597176;4,243044869013007;Crédit Agricole - Centre Est
Agence bancaire MEXIMIEUX;3 place Vaugelas, 01800 MEXIMIEUX;01800;;;Crédit Agricole - Centre Est
Agence bancaire MEYZIEU (CA Centre-est);69 rue de la Republique, 69330 MEYZIEU;69330;;;Crédit Agricole - Centre Est
Relais CA Relais CA MICHON CHRISTOPHE - MEZERIAT;186 GRANDE RUE, 01660 MEZERIAT;01660;46,23443321714479;5,047786353653518;Crédit Agricole - Centre Est
Agence bancaire MIONS;Le Clos des Echevins 16-18 rue de la LIBERTE, 69780 MIONS;69780;;;Crédit Agricole - Centre Est
Agence bancaire MIRIBEL;1 rue JOSEPH CARRE, 01700 MIRIBEL;01700;;;Crédit Agricole - Centre Est
Agence bancaire MONTALIEU;Grande Rue, 38390 MONTALIEU VERCIEU;38390;;;Crédit Agricole - Centre Est
Relais CA Relais CA O PUITS GOURMAND - Montcarra;75 Rue du Stade, 38890 Montcarra;38890;45,6129583;5,390886999999999;Crédit Agricole - Centre Est
Agence bancaire MONTCEAU BLANQUI;8, rue Blanqui         BP 7, 71300 MONTCEAU LES MINES;71300;;;Crédit Agricole - Centre Est
Relais CA Relais CA PIZZA ET COMPAGNIE - Montcenis;4 Rue d' Autun, 71710 Montcenis;71710;46,7906786;4,388741;Crédit Agricole - Centre Est
Agence bancaire MONTCHANIN;109, avenue de la Republique, 71210 MONTCHANIN;71210;;;Crédit Agricole - Centre Est
Agence bancaire MONTLUEL;125 cours Conde         BP 47, 01200 MONTLUEL;01200;;;Crédit Agricole - Centre Est
Relais CA HOTEL Relais CA RESTAURANT LE SAINT CYR - MONTMELARD;Le Bourg, 71520 MONTMELARD;71520;46,32972052137932;4,409965410031288;Crédit Agricole - Centre Est
Agence bancaire MONTMERLE SUR SAONE;rue du Port, 01090 MONTMERLE SUR SAONE;01090;;;Crédit Agricole - Centre Est
Relais CA Relais CA CLARON JEAN PIERRE - MONTPONT EN BRESSE;route du bourg, 71470 MONTPONT EN BRESSE;71470;46,55679026455924;5,16413639783904;Crédit Agricole - Centre Est
Agence bancaire MONTREAL LA CLUSE;68 rue du Jura, 01460 MONTREAL LA CLUSE;01460;;;Crédit Agricole - Centre Est
Agence bancaire MONTREVEL EN BRESSE;4, rue du Bourg, 01340 MONTREVEL EN BRESSE;01340;;;Crédit Agricole - Centre Est
Relais CA Relais CA NOTIN CAROLE - MONTROTTIER;Le Bourg, 69770 MONTROTTIER;69770;45,7932010391656;4,465920622785354;Crédit Agricole - Centre Est
Agence bancaire MORESTEL (CA Centre-est);15 place de l'Hotel de Ville, 38510 MORESTEL;38510;;;Crédit Agricole - Centre Est
Agence bancaire MORNANT;9 Place de la Liberte, 69440 Mornant;69440;;;Crédit Agricole - Centre Est
Relais CA Relais CA FMPC - NEUVILLE LES DAMES;185 GRANDE RUE, 01400 NEUVILLE LES DAMES;01400;46,1622732910543;5,003313011873502;Crédit Agricole - Centre Est
Agence bancaire NEUVILLE SUR SAONE;7 quai Pasteur, 69250 NEUVILLE SUR SAONE;69250;;;Crédit Agricole - Centre Est
Relais CA Relais CA MILLET LIONEL - Optevoz;9 Place Charles Rouvière, 38460 Optevoz;38460;45,7504243;5,329396099999999;Crédit Agricole - Centre Est
Agence bancaire OULLINS;119 Grande Rue, 69600 OULLINS;69600;;;Crédit Agricole - Centre Est
Relais CA Relais CA BOULANGERIE PATISSERIE DAVID - OUROUX SUR SAONE;2 Place de l'Eglise, 71370 OUROUX SUR SAONE;71370;46,72137929425973;4,9535711082019;Crédit Agricole - Centre Est
Relais CA Relais CA VITTEAU ALAIN - OUROUX SUR SAONE;21 PLACE DE L EGLISE, 71370 OUROUX SUR SAONE;71370;4,953387770855155;46,72196169223163;Crédit Agricole - Centre Est
Agence bancaire CENTRE D'AFFAIRES - OYONNAX;103 Rue Anatole France, 01100 Oyonnax;01100;46,2576903;5,6563611;Crédit Agricole - Centre Est
Agence bancaire OYONNAX ANATOLE FRANCE;103 rue Anatole France, 01100 OYONNAX;01100;46,2576407;5,6559789;Crédit Agricole - Centre Est
Relais CA Relais CA JUREDIEU DIDIER - PALINGES;PLACE DU MARCHE, 71430 PALINGES;71430;46,55329804342179;4,218614438879937;Crédit Agricole - Centre Est
Agence bancaire PARAY LE MONIAL (Europe);23 rue du 8 Mai 1945       BP 48, 71600 PARAY LE MONIAL;71600;;;Crédit Agricole - Centre Est
Agence bancaire PEAGE DE ROUSSILLON (CA Centre-est);Residence du Centre 1 place du General de Gaulle, 38550 PEAGE DE ROUSSILLON;38550;;;Crédit Agricole - Centre Est
Agence bancaire PERONNAS;Avenue de l'Europe, 01960 PERONNAS;01960;;;Crédit Agricole - Centre Est
Agence bancaire PIERRE BENITE;1 rue Voltaire, 69310 PIERRE BENITE;69310;;;Crédit Agricole - Centre Est
Agence bancaire PIERRE DE BRESSE;rue de Thiard, 71270 PIERRE DE BRESSE;71270;;;Crédit Agricole - Centre Est
Agence bancaire PLATEAU D'HAUTEVILLE;111 Rue Jean Miguet, 01110 Plateau d'Hauteville;01110;;;Crédit Agricole - Centre Est
Relais CA Relais CA BRUYAS CONVERT - Polliat;14 Route de Mâcon, 01310 Polliat;01310;46,2493857;5,1262976;Crédit Agricole - Centre Est
Relais CA Relais CA BAR RESTAURANT DE LA MAIRIE - POMEYS;Le Bourg, 69590 POMEYS;69590;45,65025596821599;5,300855227236495;Crédit Agricole - Centre Est
Agence bancaire PONCIN;2 Place Bichat, 01450 Poncin;01450;;;Crédit Agricole - Centre Est
Agence bancaire PONT D AIN;10 rue Antoine de St Exupery, 01160 PONT D AIN;01160;;;Crédit Agricole - Centre Est
Agence bancaire PONT DE VAUX;33 rue de Lattre De Tassigny, 01190 PONT DE VAUX;01190;;;Crédit Agricole - Centre Est
Agence bancaire PONT DE VEYLE;14, rue de la Poste, 01290 PONT DE VEYLE;01290;;;Crédit Agricole - Centre Est
Relais CA Relais CA EURL DENIS - Porte des Pierres Dorees;28 Rue du Chateau de l'Eclair, 69400 Porte des Pierres Dorees;69400;45,9698933;4,6642501;Crédit Agricole - Centre Est
Agence bancaire PREVESSIN MOENS;940 Rue de Chapeaurouge ZAC DE CHAPEAU ROUGE ALLEE DES CASCATELLES, 01280 PREVESSIN-MOENS;01280;;;Crédit Agricole - Centre Est
Relais CA Relais CA CAFE DE LA PLACE - PRISSE;12 PL DU BOURG, 71960 PRISSE;71960;46,32214273879928;4,74423429838342;Crédit Agricole - Centre Est
Relais CA Relais CA MAURIAUD DIS - PROPIERES;Le Bourg, 69790 PROPIERES;69790;46,1949846824365;4,438017052351768;Crédit Agricole - Centre Est
Relais CA Relais CA STARACE - Quincie-en-Beaujolais;94 Rue des Maisons Neuves, 69430 Quincie-en-Beaujolais;69430;46,1191115;4,6155514;Crédit Agricole - Centre Est
Relais CA Relais CA 3S FAMILY - REFFORT CUISIAT;5 PL DU CHAMP DE FOIRE FAREINS, 01370 REFFORT CUISIAT;01370;46,27004438323236;46,27004438323236;Crédit Agricole - Centre Est
Agence bancaire REPLONGES;15 rue de la Croix Colin, 01750 REPLONGES;01750;;;Crédit Agricole - Centre Est
Relais CA Relais CA LA PRESSE TALANCONNAISE - Reyrieux;4 Rue de la Place, 01600 Reyrieux;01600;45,9349576;4,8239097;Crédit Agricole - Centre Est
Relais CA Relais CA BONNOT GERARD EI - Rigny sur arroux;le bourg, 71160 Rigny sur arroux;71160;46,53196227747762;4,02700676465211;Crédit Agricole - Centre Est
Agence bancaire RILLIEUX VILLAGE;6 Rue du General Brosset, 69140 Rillieux-la-Pape;69140;;;Crédit Agricole - Centre Est
Agence bancaire RIVES;52 rue du 8 Mai 1945, 38140 RIVES SUR FURE;38140;;;Crédit Agricole - Centre Est
Relais CA Relais CA COMPTOIRS DE ROCHETOIRIN - ROCHETOIRIN;7 ROUTE DU VILLAGE, 38110 ROCHETOIRIN;38110;45,58240872644021;45,58240872644021;Crédit Agricole - Centre Est
Relais CA Relais CA CHEZ VAL ET NICO - Romaneche-Thorins;1087 La Maison Blanche, 71570 Romaneche-Thorins;71570;46,1807707;4,7490719;Crédit Agricole - Centre Est
Relais CA Relais CA COMME A LA MAISON - RONNO;Le Bourg, 69550 RONNO;69550;45,98513450415887;4,382945181175828;Crédit Agricole - Centre Est
Relais CA Relais CA VIVAL - Rontalon;PL DE L'EGLISE, 69510 Rontalon;69510;45,6609340364927;4,63268572533737;Crédit Agricole - Centre Est
Agence bancaire ROUSSILLON (CA Centre-est);23 avenue Jean Jaures, 38150 ROUSSILLON;38150;;;Crédit Agricole - Centre Est
Relais CA Relais CA TABAC PRESSE DES CHAMBARANDS - ROYBON;184 GRANDE RUE, 38940 ROYBON;38940;45,25801921442634;45,25801921442634;Crédit Agricole - Centre Est
Relais CA Relais CA MORARD ET ASSOCIES - Sablons;5 Rue Gustave Toursier, 38550 Sablons;38550;45,3187895;4,769358;Crédit Agricole - Centre Est
Relais CA Relais CA TABAC PRESSE EPICERIE - SAGY;le Bourg, 71580 SAGY;71580;46,60190011336915;5,309220454226568;Crédit Agricole - Centre Est
Relais CA Relais CA LA SAILLENARDAISE - SAILLENARD;LE DORE, 156 RUE DU BOURG, 71580 SAILLENARD;71580;46,69068865061757;5,369763283067576;Crédit Agricole - Centre Est
Agence bancaire SAIN BEL;6 place du 8 Mai 1945, 69210 SAIN BEL;69210;;;Crédit Agricole - Centre Est
Relais CA Relais CA AU PETIT PLAISIR - SAINT EMILAND;14 AV DU GENERAL DE GAULLE, 71490 SAINT EMILAND;71490;46,90432611383291;4,484249023556229;Crédit Agricole - Centre Est
Agence bancaire ST SYMPHORIEN D OZON (CA Centre-est);1 place jean Flacher, 69360 Saint Symphorien d'Ozon;69360;;;Crédit Agricole - Centre Est
Relais CA Relais CA LE SENS-FREIN - SAINT SYMPHORIEN DES BOIS;105 ROUTE DU SOLEIL, 71800 SAINT SYMPHORIEN DES BOIS;71800;46,3335522826246;4,282283011883228;Crédit Agricole - Centre Est
Relais CA Relais CA MR KOCKSCH PIERRE - Saint-Andre-sur-Vieux-Jonc;20 Place de la Forge, 01960 Saint-Andre-sur-Vieux-Jonc;01960;46,1570695;5,1455518;Crédit Agricole - Centre Est
Relais CA Relais CA MESONA BLANDINE - Saint-Barthelemy-de-Vals;20 Rue du Vercors, 26240 Saint-Barthelemy-de-Vals;26240;45,1700233;4,8741375;Crédit Agricole - Centre Est
Relais CA Relais CA PHILIBERT ELECTRICITE - Saint-Christophe-en-Brionnais;Grande Allee de Tenay, 71800 Saint-Christophe-en-Brionnais;71800;46,2885285;4,1778284;Crédit Agricole - Centre Est
Relais CA Relais CA MOUROUX MIKAEL - Saint-Cyr-sur-Menthon;144 Rue du Menthon, 01380 Saint-Cyr-sur-Menthon;01380;46,2751025;4,972471;Crédit Agricole - Centre Est
Agence bancaire ST DONAT  (CA Centre-est);242 Avenue General de Gaulle, 26260 Saint-Donat-sur-l'Herbasse;26260;;;Crédit Agricole - Centre Est
Agence bancaire ST ETIENNE DE ST GEOIRS (CA Centre-est);2 Route de Saint-Marcellin, 38590 Saint-Etienne-de-Saint-Geoirs;38590;;;Crédit Agricole - Centre Est
Agence bancaire ST ETIENNE LES OULLIERES;178 Rue du Beaujolais, 69460 SAINT-ETIENNE-DES-OULLIERES;69460;;;Crédit Agricole - Centre Est
Relais CA Relais CA MVA BOUCHERON - Saint-Etienne-le-Molard;14 route de la Batie d'Urfe, 42130 Saint-Etienne-le-Molard;42130;45,73077809999999;4,0893283;Crédit Agricole - Centre Est
Relais CA Relais CA GUENOT ALEXANDRE - Saint-Gengoux-de-Scisse;253 Rue Henri Boulay, 71260 Saint-Gengoux-de-Scisse;71260;46,4640979;4,7748611;Crédit Agricole - Centre Est
Agence bancaire ST GENIS POUILLY;61 place JEAN MONNET, 01630 SAINT-GENIS-POUILLY;01630;;;Crédit Agricole - Centre Est
Relais CA Relais CA BOULANGERIE PATISSERIE LAGRANGE - Saint-Germain-du-Plain;16 Route du Bourg, 71370 Saint-Germain-du-Plain;71370;46,7031814;4,9821037;Crédit Agricole - Centre Est
Relais CA Relais CA L3PB - Saint-Julien;2081 Route du Beaujolais, 69640 Saint-Julien;69640;46,02604110000001;4,652492;Crédit Agricole - Centre Est
Agence bancaire ST LAURENT DU PONT;Place Leon Gambetta, 38380 Saint-Laurent-du-Pont;38380;;;Crédit Agricole - Centre Est
Relais CA Relais CA DA SILVA ANNICK - Saint-Laurent-sur-Saône;46 Rue de la Levée, 01750 Saint-Laurent-sur-Saône;01750;46,3046347;4,840189;Crédit Agricole - Centre Est
Agence bancaire ST MARTIN EN HAUT;61 Grande Rue, 69850 Saint-Martin-en-Haut;69850;;;Crédit Agricole - Centre Est
Agence bancaire ST PRIEST;18 Rue du Docteur Gallavardin, 69800 Saint-Priest;69800;;;Crédit Agricole - Centre Est
Relais CA Relais CA LE DROP CAFE - Saint-Savin;150 Rue des Auberges, 38300 Saint-Savin;38300;45,6278567;5,3092907;Crédit Agricole - Centre Est
Relais CA Relais CA AMBIANCE FIGARO - Saint-Vincent-en-Bresse;La Croix Chevalier, 71440 Saint-Vincent-en-Bresse;71440;46,6661622;5,063057;Crédit Agricole - Centre Est
Relais CA Relais CA RELAIS DU FORMANS - Sainte-Euphemie;595 Route d'Ars, 01600 Sainte-Euphemie;01600;45,9714786;4,799118099999999;Crédit Agricole - Centre Est
Relais CA Relais CA LES DEUX L - SALAISE SUR SANNE;27 RUE AVIT NICOLAS, 38150 SALAISE SUR SANNE;38150;45,34693543593257;4,819489610869129;Crédit Agricole - Centre Est
Agence bancaire SANVIGNES LES MINES;8 rue Leon Blum, 71410 SANVIGNES LES MINES;71410;;;Crédit Agricole - Centre Est
Agence bancaire SATHONAY CAMP;24 boulevard Castellane, 69580 SATHONAY CAMP;69580;;;Crédit Agricole - Centre Est
Agence bancaire SATILLIEU;32 Rue Centrale, 07290 Satillieu;07290;;;Crédit Agricole - Centre Est
Relais CA Relais CA MADRU PASCAL - SAVIGNEUX;RUE DE L EGLISE, 01480 SAVIGNEUX;01480;46,00110049115213;4,85075186080384;Crédit Agricole - Centre Est
Agence bancaire SENNECEY LE GRAND;37 avenue du 4 Septembre, 71240 SENNECEY LE GRAND;71240;;;Crédit Agricole - Centre Est
Agence bancaire SERRIERES;31 rue Michel Gautier, 07340 SERRIERES;07340;;;Crédit Agricole - Centre Est
Agence bancaire SEYSSEL (CA Centre-est);Quai Serrulaz          BP 19, 01420 SEYSSEL;01420;;;Crédit Agricole - Centre Est
Relais CA Relais CA LE TABAC FLEURI - Simard;14 Route de Louhans, 71330 Simard;71330;46,7202581;5,1802173;Crédit Agricole - Centre Est
Relais CA Relais CA BAR DE LA PLACE - SONNAY;LE VILLAGE, 38150 SONNAY;38150;45,3550107746812;4,906239782462783;Crédit Agricole - Centre Est
Relais CA Relais CA LE TRAITEUR DE MONTRET - SORNAY;420 RUE DES ECOLES, 71500 SORNAY;71500;46,67911418889162;5,111485081215228;Crédit Agricole - Centre Est
Agence bancaire SOUCIEU EN JARREST;20 rue Charles de Gaulle, 69510 SOUCIEU EN JARREST;69510;;;Crédit Agricole - Centre Est
Relais CA Relais CA LA PETRIE - Sourcieux-les-Mines;210 Route du Bourg, 69210 Sourcieux-les-Mines;69210;45,80510169999999;4,6226821;Crédit Agricole - Centre Est
Agence bancaire ST ANDRE DE CORCY;Route Nationale, 01390 ST ANDRE DE CORCY;01390;;;Crédit Agricole - Centre Est
Agence bancaire ST BONNET DE JOUX;100 place du CHAMP de FOIRE, 71220 ST BONNET DE JOUX;71220;;;Crédit Agricole - Centre Est
Agence bancaire ST BONNET DE MURE (CA Centre-est);ZAC du Petit Bourg 52 Route Nationale 6, 69720 ST BONNET DE MURE;69720;;;Crédit Agricole - Centre Est
Relais CA Relais CA TABAC PRESSE CADEAUX - ST CLAIR DU RHONE;3 Route du Peage, 38370 ST CLAIR DU RHONE;38370;45,44021059895456;4,76978609834076;Crédit Agricole - Centre Est
Agence bancaire ST CYR AU MONT D OR;1 place de la Republique, 69450 ST CYR AU MONT D OR;69450;;;Crédit Agricole - Centre Est
Agence bancaire ST DIDIER AU MONT D OR;49 avenue de la Republique, 69370 ST DIDIER AU MONT D OR;69370;;;Crédit Agricole - Centre Est
Agence bancaire ST DIDIER SUR CHALARONNE;9 place de l'Eglise, 01140 ST DIDIER SUR CHALARONNE;01140;;;Crédit Agricole - Centre Est
Agence bancaire ST ETIENNE DU BOIS;Route Nationale 83, 01370 ST ETIENNE DU BOIS;01370;;;Crédit Agricole - Centre Est
Agence bancaire ST FONS;42 rue Charles Plasse, 69190 ST FONS;69190;;;Crédit Agricole - Centre Est
Agence bancaire ST GENGOUX LE NATIONAL;Route de Joncy          BP 1, 71460 ST GENGOUX LE NATIONAL;71460;;;Crédit Agricole - Centre Est
Agence bancaire ST GENIS LAVAL;13 place Marechal Joffre, 69230 ST GENIS LAVAL;69230;;;Crédit Agricole - Centre Est
Agence bancaire ST GEORGES DE RENEINS;130 place de l'eglise, 69830 ST GEORGES DE RENEINS;69830;;;Crédit Agricole - Centre Est
Agence bancaire ST GERMAIN DU BOIS;Place du Marche, 71330 ST GERMAIN DU BOIS;71330;;;Crédit Agricole - Centre Est
Agence bancaire ST GERMAIN DU PLAIN;Rue Centrale          BP 3, 71370 ST GERMAIN DU PLAIN;71370;;;Crédit Agricole - Centre Est
Relais CA Relais CA MAURIAUD DIS - ST IGNY DE VERS;PLACE DE LA MAIRIE, LE BOURG, 69790 ST IGNY DE VERS;69790;46,24041459805512;4,437101337010502;Crédit Agricole - Centre Est
Agence bancaire ST JEAN DE BOURNAY (CA Centre-est);1 place General De Gaulle, 38440 ST JEAN DE BOURNAY;38440;;;Crédit Agricole - Centre Est
Relais CA Relais CA ETABLISSEMENTS DERUDET - ST JEAN DE GONVILLE;RUE LA LOUVATIERE, 01630 ST JEAN DE GONVILLE;01630;46,21989698016934;5,939034370690269;Crédit Agricole - Centre Est
Agence bancaire ST JEAN EN ROYANS (CA Centre-est);Place de l'Eglise, 26190 ST JEAN EN ROYANS;26190;;;Crédit Agricole - Centre Est
Relais CA Relais CA MML - ST JEAN SUR REYSSOUZE;Le Bourg, 01560 ST JEAN SUR REYSSOUZE;01560;46,61405254933038;4,976358204098181;Crédit Agricole - Centre Est
Relais CA Relais CA ECRIN DE DOUCEUR - ST JEURE D AY;1 PLACE DES COMMERCES, 07290 ST JEURE D AY;07290;45,14635727662296;4,70632145599633;Crédit Agricole - Centre Est
Relais CA Relais CA BAR TABAC PRESSE CHEZ YVES - ST JOSEPH DE RIVIERE;Le Bourg, 38134 ST JOSEPH DE RIVIERE;38134;45,37576841106452;5,697476484309741;Crédit Agricole - Centre Est
Relais CA Relais CA VERNOZY CHANTAL - ST JUST D AVRAY;ROUTE DE LA VALLEE, 69870 ST JUST D AVRAY;69870;46,00284002103235;4,454045641998549;Crédit Agricole - Centre Est
Agence bancaire ST LAURENT DE CHAMOUSSET;Place du Platre, 69930 ST LAURENT DE CHAMOUSSET;69930;;;Crédit Agricole - Centre Est
Relais CA Relais CA PHARMACIE DES AROMES - ST LAURENT EN ROYANS;RTE DE SAINTE-EULALIE, 26190 ST LAURENT EN ROYANS;26190;45,02949213455365;5,327687869481944;Crédit Agricole - Centre Est
Relais CA Relais CA LAMALLE HUNDSINGER - ST LEGER SOUS BEUVRAY;le bourg, 71990 ST LEGER SOUS BEUVRAY;71990;46,8627526310608;4,177583769013059;Crédit Agricole - Centre Est
Agence bancaire ST MARCEL;84, Grande Rue          BP 16, 71380 ST MARCEL;71380;;;Crédit Agricole - Centre Est
Agence bancaire ST MARCELLIN (CA Centre-est);8 place d'Armes, 38160 ST MARCELLIN;38160;;;Crédit Agricole - Centre Est
Agence bancaire ST MARTIN BELLE ROCHE;Au Bourg, 71118 ST MARTIN BELLE ROCHE;71118;;;Crédit Agricole - Centre Est
Relais CA Relais CA LEGROS FRANCK - ST MARTIN EN BRESSE;35 Grande Rue, 71620 ST MARTIN EN BRESSE;71620;46,82080280646214;5,059856956300215;Crédit Agricole - Centre Est
Relais CA Relais CA PERRONCEL MURIELLE - ST MAURICE SUR DARGOIRE;PLACE DU GENERAL DE GAULLE, 69440 ST MAURICE SUR DARGOIRE;69440;45,58207713259219;4,63144255548054;Crédit Agricole - Centre Est
Relais CA Relais CA VELON JOEL - ST PAUL DE VARAX;PLACE DE L EGLISE, 01240 ST PAUL DE VARAX;01240;46,09990717759825;5,129224540155034;Crédit Agricole - Centre Est
Agence bancaire ST PIERRE DE CHANDIEU;1 place Charles De Gaulle, 69780 ST PIERRE DE CHANDIEU;69780;;;Crédit Agricole - Centre Est
Agence bancaire ST PRIEST PORTE DES ALPES;Centre commercial AUCHAN ZA du CHAMP du PONT, 69909 ST PRIEST;69909;45,722699;4,926233;Crédit Agricole - Centre Est
Agence bancaire ST PRIEST VILLAGE;10 Grande Rue, 69800 ST PRIEST;69800;45,701171;4,941965;Crédit Agricole - Centre Est
Agence bancaire CENTRE D'AFFAIRES - ISARDROME;2 et 3 rue de Madrid BP 7414, 38074 ST QUENTIN FALLAVIER;38074;45,658476;5,101896;Crédit Agricole - Centre Est
Agence bancaire CENTRE DE PATRIMOINE - SUD;ENTREE 3 PARC EVOLIC RHONE ALPES - 2 RUE DE MADRID, 38070 ST QUENTIN FALLAVIER;38070;45,7168704;4,9338584;Crédit Agricole - Centre Est
Agence bancaire ST RAMBERT D'ALBON (CA Centre-est);34 avenue Docteur Steinberg, 26140 ST RAMBERT D'ALBON;26140;;;Crédit Agricole - Centre Est
Agence bancaire ST RAMBERT EN BUGEY;149 rue Du Docteur Temporal, 01230 ST Rambert en BUGEY;01230;;;Crédit Agricole - Centre Est
Agence bancaire ST REMY;rue Auguste Martin, 71100 ST REMY;71100;;;Crédit Agricole - Centre Est
Relais CA Relais CA LA FEUILLE D'AY - ST ROMAIN D'AY;Lieu Dit PRAPERIER, 07290 ST ROMAIN D'AY;07290;45,1646477632881;4,661726198325423;Crédit Agricole - Centre Est
Relais CA Relais CA AUBERGE DE LA FORGE DE POPEY - ST ROMAIN DE POPEY;Le bourg, 69490 ST ROMAIN DE POPEY;69490;45,84668202937782;4,531203170829137;Crédit Agricole - Centre Est
Relais CA Relais CA L'EPICERIE - ST SERNIN DU BOIS;2003 ROUTE DE ST SERNIN, 71200 ST SERNIN DU BOIS;71200;46,84061190942911;4,432332396568318;Crédit Agricole - Centre Est
Agence bancaire ST SYMPHORIEN SUR COISE;54 place des Terreaux, 69590 ST SYMPHORIEN SUR COISE;69590;;;Crédit Agricole - Centre Est
Agence bancaire ST TRIVIER DE COURTES;48 Grande Rue, 01560 ST TRIVIER DE COURTES;01560;;;Crédit Agricole - Centre Est
Agence bancaire ST TRIVIER SUR MOIGNANS;2 rue de la republique, 01990 ST TRIVIER SUR MOIGNANS;01990;;;Crédit Agricole - Centre Est
Agence bancaire ST VALLIER;rue Gambetta, 71230 ST VALLIER;71230;;;Crédit Agricole - Centre Est
Agence bancaire ST VALLIER SUR RHONE (CA Centre-est);44 avenue Jean Jaures, 26240 ST VALLIER SUR RHONE;26240;;;Crédit Agricole - Centre Est
Relais CA Relais CA BONNEFOY HERVE - ST VICTOR;Le village, 07410 ST VICTOR;07410;45,09999959583009;4,840199725373701;Crédit Agricole - Centre Est
Relais CA Relais CA PROXI HUYGHE - ST VINCENT DE REINS;13 RUE CENTRALE, 69240 ST VINCENT DE REINS;69240;46,07674068556652;4,387589613447143;Crédit Agricole - Centre Est
Relais CA Relais CA ALVES MANUEL - ST YAN;Le Bourg, 71600 ST YAN;71600;46,39269386759599;4,0161541965427;Crédit Agricole - Centre Est
Relais CA Relais CA CHAROLLES BOURGOGNE - ST YAN;PLACE DE LA BASCULE, 71600 ST YAN;71600;46,40934751253249;4,036970810035799;Crédit Agricole - Centre Est
Relais CA Relais CA MR PIFFRE ERIC - ST YAN;5 Rue du Centre, 71600 ST YAN;71600;46,41116472850282;4,036552574493299;Crédit Agricole - Centre Est
Agence bancaire STE COLOMBE;24 Route Departementale 386, 69560 STE COLOMBE;69560;;;Crédit Agricole - Centre Est
Agence bancaire STE FOY L ARGENTIERE;16 Grande Rue, 69610 STE FOY L ARGENTIERE;69610;;;Crédit Agricole - Centre Est
Agence bancaire STE FOY LES LYON;23 bd Baron Du Marais, 69110 STE FOY LES LYON;69110;;;Crédit Agricole - Centre Est
Agence bancaire TAIN L HERMITAGE (CA Centre-est);104 avenue Jean Jaures, 26600 TAIN L HERMITAGE;26600;;;Crédit Agricole - Centre Est
Agence bancaire TARARE;7 place du Marche, 69170 TARARE;69170;;;Crédit Agricole - Centre Est
Agence bancaire TASSIN LA DEMI LUNE;80 avenue de la Republique, 69160 TASSIN LA DEMI LUNE;69160;;;Crédit Agricole - Centre Est
Relais CA Relais CA TABAC DE L'ALBARINE - TENAY;2 Place du PONT, 01230 TENAY;01230;45,93949871144506;5,506696089249742;Crédit Agricole - Centre Est
Agence bancaire THIZY;9 Place du Commerce, 69240 Thizy-les-Bourgs;69240;;;Crédit Agricole - Centre Est
Agence bancaire VAL THOIRY;Centre Commercial Val THOIRY  Migros Zone d'Activites le Pre Jacquet, 01710 THOIRY;01710;;;Crédit Agricole - Centre Est
Agence bancaire THURINS;rue du 8 Mai 1945, 69510 THURINS;69510;;;Crédit Agricole - Centre Est
Agence bancaire TIGNIEU (CA Centre-est);30 Route de Cremieu, 38230 Tignieu-Jameyzieu;38230;;;Crédit Agricole - Centre Est
Agence bancaire TOULON SUR ARROUX;1, rue Philibert Commercon    BP 8, 71320 TOULON SUR ARROUX;71320;;;Crédit Agricole - Centre Est
Agence bancaire TOURNUS;17 rue Jean Jaures, 71700 TOURNUS;71700;;;Crédit Agricole - Centre Est
Agence bancaire TRAMAYES;Grande Rue, 71520 TRAMAYES;71520;;;Crédit Agricole - Centre Est
Agence bancaire TREVOUX;9, 11 bd des Combattants     BP 110, 01601 TREVOUX;01601;;;Crédit Agricole - Centre Est
Agence bancaire TULLINS;49 rue du General de Gaulle, 38210 TULLINS;38210;;;Crédit Agricole - Centre Est
Relais CA Relais CA LE BAZAR DE LA FONTAINE - UCHIZY;PLACE DE LA FONTAINE, 71700 UCHIZY;71700;46,50619578570744;4,885123044309315;Crédit Agricole - Centre Est
Relais CA Relais CA LA BOUTIQUE A FROMAGES - VAL REVERMONT;21 PL DU CHAMP DE FOIRE, 01370 VAL REVERMONT;01370;46,27103679698461;5,367517411879631;Crédit Agricole - Centre Est
Agence bancaire VALSERHONE;29, rue de la Republique     BP 136, 01201 VALSERHONE;01201;;;Crédit Agricole - Centre Est
Relais CA Relais CA LE FOURNIL DE LOIC - VARENNES LE GRAND;19 RUE DU 8 MAI 1945, 71240 VARENNES LE GRAND;71240;46,71216036802085;4,875379311904776;Crédit Agricole - Centre Est
Agence bancaire VAUGNERAY;3 place de la Mairie, 69670 VAUGNERAY;69670;;;Crédit Agricole - Centre Est
Agence bancaire VAULX EN VELIN 7 CHEMINS;Galerie Marchande 232 Avenue Franklin Roosevelt, 69120 VAULX EN VELIN;69120;45,7563388;4,9357824;Crédit Agricole - Centre Est
Agence bancaire VAULX EN VELIN ZOLA;Ilot C 15, rue Emile Zola, 69120 VAULX EN VELIN;69120;45,777888;4,918052;Crédit Agricole - Centre Est
Agence bancaire VENISSIEUX;5 place Leon Sublet, 69200 VENISSIEUX;69200;45,7001071;4,8837371;Crédit Agricole - Centre Est
Agence bancaire VENISSIEUX JOLIOT CURIE;136 bd Joliot Curie, 69200 VENISSIEUX;69200;45,717553;4,87675;Crédit Agricole - Centre Est
Agence bancaire VERDUN CIEL;avenue V. Giscard D'Estaing, 71350 VERDUN-CIEL;71350;;;Crédit Agricole - Centre Est
Agence bancaire VERNAISON;Le clos de l'Ile       Grande Rue, 69390 VERNAISON;69390;;;Crédit Agricole - Centre Est
Relais CA Relais CA LA VIEILLE AUBERGE - Vieu-d'Izenave;20 Place du Balmay, 01430 Vieu-d'Izenave;01430;46,0944227;5,5443095;Crédit Agricole - Centre Est
Agence bancaire VILLARS LES DOMBES;rue du Commerce, 01330 VILLARS LES DOMBES;01330;;;Crédit Agricole - Centre Est
Agence bancaire POLE ENTREP ET PATRIM BEAUJOLAIS;32 place Carnot, 69400 VILLEFRANCHE SUR SAONE;69400;45,986227;4,717335;Crédit Agricole - Centre Est
Agence bancaire VILLEFRANCHE LIBERATION;24 Avenue de la Liberation, 69400 VILLEFRANCHE SUR SAONE;69400;45,9850382;4,717746;Crédit Agricole - Centre Est
Agence bancaire VILLEFRANCHE NORD;7 RUE NATIONALE, 69400 VILLEFRANCHE SUR SAONE;69400;45,995196;4,7191806;Crédit Agricole - Centre Est
Agence bancaire VILLEREVERSURE;1 route de Bourg, 01250 VILLEREVERSURE;01250;;;Crédit Agricole - Centre Est
Agence bancaire VILLETTE D ANTHON;avenue des Cedres, 38280 VILLETTE D ANTHON;38280;;;Crédit Agricole - Centre Est
Agence bancaire VILLEURBANNE CUSSET;345 cours Emile Zola, 69100 VILLEURBANNE;69100;45,7661297;4,8979536;Crédit Agricole - Centre Est
Agence bancaire VILLEURBANNE GRAND CLEMENT;59 place Grand Clement, 69100 VILLEURBANNE;69100;45,760566;4,890843;Crédit Agricole - Centre Est
Agence bancaire VILLEURBANNE GRATTE-CIEL;10 avenue Henri Barbusse, 69100 VILLEURBANNE;69100;45,7692949;4,8794064;Crédit Agricole - Centre Est
Agence bancaire VILLEURBANNE LA SOIE;43 Rue de la Soie, 69100 Villeurbanne;69100;45,7615411;4,9186262;Crédit Agricole - Centre Est
Agence bancaire VILLEURBANNE WILSON;2 place Wilson, 69100 VILLEURBANNE;69100;45,7735951;4,8672374;Crédit Agricole - Centre Est
Relais CA Relais CA LOUIZ AND CO - VILLEVOCANCE;RUE DE LA LIBERATION, 07690 VILLEVOCANCE;07690;45,22454455419131;4,588623709969161;Crédit Agricole - Centre Est
Agence bancaire VILLIE MORGON;93 place de la Pompe, 69910 VILLIE-MORGON;69910;;;Crédit Agricole - Centre Est
Relais CA Relais CA LE FOURNIL D'ALBAN ET JULIE - VILLIEU LOYES MOLLON;23 RUE DE L EGLISE, 01800 VILLIEU LOYES MOLLON;01800;45,92114613162781;5,223228596516046;Crédit Agricole - Centre Est
Agence bancaire VINAY;1 grande Rue, 38470 VINAY;38470;;;Crédit Agricole - Centre Est
Agence bancaire VIRIAT;avenue des Anciens Combattants Immeuble le Jugnon, 01440 VIRIAT;01440;;;Crédit Agricole - Centre Est
Agence bancaire VONNAS;53, rue Chaynes Aimable     BP 15, 01540 VONNAS;01540;;;Crédit Agricole - Centre Est
