nom;adresse;code_postal;latitude;longitude;region_source
Agence bancaire ACIGNE;16 Place de la Mairie, 35690 Acigné;35690;;;Crédit Agricole - Ille Et Vilaine
Agence en ligne Centre de relation clients Agri et Pros;Assistance Agriculteurs et Professionnels, 35136 Saint-Jacques-de-la-Lande;35136;48,0724634;-1,7210279;Crédit Agricole - Ille Et Vilaine
Agence en ligne Pôle hors département;4 Rue Louis Braille, 35136 Saint-Jacques-de-la-Lande;35136;48,092539;-1,7065154;Crédit Agricole - Ille Et Vilaine
Agence bancaire Agence Entreprises et Collectivités;2, rue Louis Braille Saint Jacques de la Lande, 35136 Agence Entreprises et Collectivités;35136;48,092244;-1,705901;Crédit Agricole - Ille Et Vilaine
Relais CA LA BREGNATE - AMANLIS;12 Rue du Bois Teilleul, 35150 AMANLIS;35150;48,0057839;-1,4772109;Crédit Agricole - Ille Et Vilaine
Agence bancaire ANTRAIN;3, avenue Kléber, 35560 ANTRAIN;35560;;;Crédit Agricole - Ille Et Vilaine
Agence bancaire ARGENTRE-DU-PLESSIS;Place du Général de Gaulle, 35370 ARGENTRE-DU-PLESSIS;35370;;;Crédit Agricole - Ille Et Vilaine
Relais CA LE POINT D'CHUTE - BAGUER-PICAN;9 Rue de Paris, 35120 BAGUER-PICAN;35120;48,552789;-1,701663;Crédit Agricole - Ille Et Vilaine
Agence bancaire BAIN-DE-BRETAGNE;8, rue du 3 Août 1944, 35470 BAIN-DE-BRETAGNE;35470;;;Crédit Agricole - Ille Et Vilaine
Relais CA SARL BUZIT - BAINS-SUR-OUST;4 Place Nominoë, 35600 BAINS-SUR-OUST;35600;47,7045073;-2,0713448;Crédit Agricole - Ille Et Vilaine
Relais CA BOULANGERIE CHARON - BALAZE;20 Rue Saint-Martin, 35500 BALAZE;35500;48,16782389999999;-1,1918469;Crédit Agricole - Ille Et Vilaine
Relais CA MAISON DE LA PRESSE - BAULON;1 Place de l'Église, 35580 BAULON;35580;47,9849182;-1,932344;Crédit Agricole - Ille Et Vilaine
Agence bancaire BAZOUGES-LA-PEROUSE;6, rue de la Poterie, 35560 BAZOUGES-LA-PEROUSE;35560;;;Crédit Agricole - Ille Et Vilaine
Relais CA LES ROUTIERS - BEAUCE;19 Rue de Paris, 35133 BEAUCE;35133;48,3381473;-1,1551361;Crédit Agricole - Ille Et Vilaine
Agence bancaire BEDEE;Place du Prieuré, 35137 BEDEE;35137;;;Crédit Agricole - Ille Et Vilaine
Agence bancaire BETTON;2 Avenue d Armorique, 35830 BETTON;35830;;;Crédit Agricole - Ille Et Vilaine
Relais CA REGINE COIFFURE - BOISGERVILLY;20 Rue de Brocéliande, 35360 BOISGERVILLY;35360;48,1658771;-2,0616921;Crédit Agricole - Ille Et Vilaine
Relais CA TABAC VAP PRESSE - BOURG DES COMPTES;11 Place de l'Église, 35890 BOURG DES COMPTES;35890;47,9283964;-1,7377155;Crédit Agricole - Ille Et Vilaine
Relais CA L'ARCOAT - BOURGBARRE;2 Place de l'Église, 35230 BOURGBARRE;35230;47,9949086;-1,615422;Crédit Agricole - Ille Et Vilaine
Agence bancaire BREAL SOUS MONTFORT;53, rue de Montfort, 35310 BREAL SOUS MONTFORT;35310;;;Crédit Agricole - Ille Et Vilaine
Relais CA LE RYO - BRECE;3 Place de l'Église, 35530 BRECE;35530;48,11066839999999;-1,4819051;Crédit Agricole - Ille Et Vilaine
Relais CA LE KEVESTEL - BRETEIL;2 Rue de Rennes, 35160 BRETEIL;35160;48,1453443;-1,8984882;Crédit Agricole - Ille Et Vilaine
Relais CA LE BAIONA - BRIE;14 Rue d'Anjou, 35150 BRIE;35150;47,9515269;-1,5367024;Crédit Agricole - Ille Et Vilaine
Relais CA HERVE PASCAL BOUCHERIE - BRUC-SUR-AFF;Le Bourg, 35550 BRUC-SUR-AFF;35550;47,814638;-2,0200552;Crédit Agricole - Ille Et Vilaine
Agence bancaire BRUZ;1, avenue Jules Tricault, 35170 BRUZ;35170;48,0251963;-1,7470824;Crédit Agricole - Ille Et Vilaine
Precondition Failed;;;48,028358;-1,760178;Crédit Agricole - Ille Et Vilaine
Agence bancaire CANCALE;2 bis, boulevard Thiers, 35260 CANCALE;35260;;;Crédit Agricole - Ille Et Vilaine
Agence bancaire CESSON VIA SILVA;19 Rue du Chêne Germain, 35510 CESSON-SEVIGNE;35510;48,128803;-1,622228;Crédit Agricole - Ille Et Vilaine
Agence bancaire CESSON-SEVIGNE;12, mail de Bourgchevreuil, 35510 CESSON-SEVIGNE;35510;48,1179638;-1,607717;Crédit Agricole - Ille Et Vilaine
Relais CA MON P TIT LOUP - CHANTELOUP;1 Rue de Bellevue, 35150 CHANTELOUP;35150;47,9651422;-1,6159155;Crédit Agricole - Ille Et Vilaine
Agence bancaire CHANTEPIE;61, avenue André Bonnin, 35135 CHANTEPIE;35135;;;Crédit Agricole - Ille Et Vilaine
Agence bancaire CHARTRES-DE-BRETAGNE;1 Avenue de la Marionnais, 35131 CHARTRES-DE-BRETAGNE;35131;;;Crédit Agricole - Ille Et Vilaine
Agence bancaire CHATEAUBOURG;57, rue de Paris, 35220 CHATEAUBOURG;35220;;;Crédit Agricole - Ille Et Vilaine
Agence bancaire CHATEAUGIRON;Centre commercial UNIVER - 81 rue des comptoirs, 35410 CHATEAUGIRON;35410;;;Crédit Agricole - Ille Et Vilaine
Relais CA LE CANCAVEN BAR TABAC PRESSE - CHATEAUNEUF-D'ILLE-ET-VILAINE;17 Rue du Pavé Saint-Charles, 35430 CHATEAUNEUF-D'ILLE-ET-VILAINE;35430;48,5613527;-1,9287882;Crédit Agricole - Ille Et Vilaine
Relais CA BOULANGERIE BESNIER - CHATILLON-EN-VENDELAIS;2 rue de Normandie, 35210 CHATILLON-EN-VENDELAIS;35210;48,224996;-1,180487;Crédit Agricole - Ille Et Vilaine
Relais CA CAMPING DU LAC - CHATILLON-EN-VENDELAIS;Rue des Rouxières, 35210 CHATILLON-EN-VENDELAIS;35210;48,22775600000001;-1,181129;Crédit Agricole - Ille Et Vilaine
Agence bancaire CHAVAGNE;29, avenue de la Mairie, 35310 CHAVAGNE;35310;;;Crédit Agricole - Ille Et Vilaine
Relais CA L'ARTISAN - Cherrueix;1 Rue de la Cale, 35120 Cherrueix;35120;48,6058074;-1,7105896;Crédit Agricole - Ille Et Vilaine
Relais CA COCCIMARKET - CHEVAIGNE;3 Rue les Temps Modernes, 35250 CHEVAIGNE;35250;48,2090518;-1,6297056;Crédit Agricole - Ille Et Vilaine
Relais CA PROXI - CINTRE;15 Place du Centre, 35310 CINTRE;35310;48,1060571;-1,8698595;Crédit Agricole - Ille Et Vilaine
Relais CA LE BISTRO LAB - COESMES;1 Rue des Ardoisières, 35134 COESMES;35134;47,8835785;-1,4408436;Crédit Agricole - Ille Et Vilaine
Relais CA REST' O BAR - COMBLESSAC;6 Place de la Mairie, 35330 COMBLESSAC;35330;47,87627519999999;-2,0838081;Crédit Agricole - Ille Et Vilaine
Agence bancaire COMBOURG;2, boulevard du Mail, 35270 COMBOURG;35270;;;Crédit Agricole - Ille Et Vilaine
Relais CA LE PIGEON BLANC - COMBOURTILLE;Le Bourg, 35210 COMBOURTILLE;35210;48,272635;-1,245251;Crédit Agricole - Ille Et Vilaine
Agence bancaire CORPS NUDS;1, parvis de l église, 35150 CORPS NUDS;35150;;;Crédit Agricole - Ille Et Vilaine
Agence bancaire CREVIN;Place Louis Pétri, 35320 CREVIN;35320;;;Crédit Agricole - Ille Et Vilaine
Agence bancaire DINARD;2, rue de Verdun, 35800 DINARD;35800;;;Crédit Agricole - Ille Et Vilaine
Relais CA L'EPICERIE DU VILLAGE - DINGE;2 Rue de l'Église, 35440 DINGE;35440;48,3574867;-1,7146004;Crédit Agricole - Ille Et Vilaine
Agence bancaire DOL-DE-BRETAGNE;16, boulevard Deminiac, 35120 DOL-DE-BRETAGNE;35120;;;Crédit Agricole - Ille Et Vilaine
Relais CA LE SAINT PIERRE - DOMAGNE;6 Allée Saint-Pierre, 35113 DOMAGNE;35113;48,0712395;-1,3943388;Crédit Agricole - Ille Et Vilaine
Relais CA LE CORNER'S CAFE - DOMALAIN;2 Rue du Docteur Ricoux, 35680 DOMALAIN;35680;47,9959062;-1,242448;Crédit Agricole - Ille Et Vilaine
Relais CA MON P'TIT BAR - DOMALAIN;2 Rue du Docteur Ricoux, 35680 DOMALAIN;35680;47,9959062;-1,242448;Crédit Agricole - Ille Et Vilaine
Relais CA JEREM' MIE - Dourdain;7 Place de l'Église, 35450 Dourdain;35450;48,1931532;-1,3690582;Crédit Agricole - Ille Et Vilaine
Relais CA LE TEMPS D'UN VERRE - Dourdain;16 Rue des Écoles, 35450 Dourdain;35450;48,193915;-1,3704476;Crédit Agricole - Ille Et Vilaine
Relais CA RESTAURANT DE L'ETANG - DROUGES;3 Place de la Mairie, 35130 DROUGES;35130;47,90048480000001;-1,2652611;Crédit Agricole - Ille Et Vilaine
Relais CA LA BIZOLAIS  L'ECOLE DES SAVEURS RESTAURANT - EANCE;1 Contour René Gisteau, 35640 EANCE;35640;47,8227295;-1,2443182;Crédit Agricole - Ille Et Vilaine
Relais CA TY GWEN - Erbrée;10 Place de l'Église, 35500 Erbrée;35500;48,0989477;-1,1241304;Crédit Agricole - Ille Et Vilaine
Relais CA BOUCHERIE MERCIER - ERCE EN LAMEE;7 Rue du Muguet, 35620 ERCE EN LAMEE;35620;47,8301794;-1,5596393;Crédit Agricole - Ille Et Vilaine
Relais CA LA TERRASSE - ERCE-PRES-LIFFRE;14 Place de l'Église, 35340 ERCE-PRES-LIFFRE;35340;48,2558144;-1,515715;Crédit Agricole - Ille Et Vilaine
Relais CA LA ROCHE CAFE - ESSE;21 Rue des Artisans, 35150 ESSE;35150;47,9572565;-1,424991;Crédit Agricole - Ille Et Vilaine
Relais CA BOULANGERIE NAULEAU - FEGREAC;12 Rue Grégoire Orain, 44460 FEGREAC;44460;47,5847048;-2,0448034;Crédit Agricole - Ille Et Vilaine
Agence bancaire FOUGERES;28, rue Jules Ferry, 35300 FOUGERES;35300;;;Crédit Agricole - Ille Et Vilaine
Relais CA LE POPPY'S - GAEL;9 Place du Monument, 35290 GAEL;35290;48,1321983;-2,2240418;Crédit Agricole - Ille Et Vilaine
Relais CA LE P'TY COMPTOIR - GAHARD;26 Rue Jean Morin, 35490 GAHARD;35490;48,2971801;-1,5191157;Crédit Agricole - Ille Et Vilaine
Relais CA LE BISTROT D'EUGENE - GENNES-SUR-SEICHE;9 Rue Jean de Gennes, 35370 GENNES-SUR-SEICHE;35370;47,9878644;-1,1238654;Crédit Agricole - Ille Et Vilaine
Agence bancaire GEVEZE;7, rue de Dinan, 35850 GEVEZE;35850;;;Crédit Agricole - Ille Et Vilaine
Relais CA L'EPICERIE DE CATHERINE - GOSNE;5 Place de l'Église, 35140 GOSNE;35140;48,24584470000001;-1,4631344;Crédit Agricole - Ille Et Vilaine
Agence bancaire GOVEN;13, place de l église, 35580 GOVEN;35580;;;Crédit Agricole - Ille Et Vilaine
Agence bancaire GUICHEN;3 bis, boulevard Victor Edet, 35580 GUICHEN;35580;;;Crédit Agricole - Ille Et Vilaine
Agence bancaire GUIGNEN;19, rue des Piliers, 35580 GUIGNEN;35580;;;Crédit Agricole - Ille Et Vilaine
Relais CA UN CAFE DES POSSIBLES - GUIPEL;9 Place Duine, 35440 GUIPEL;35440;48,2983906;-1,7212187;Crédit Agricole - Ille Et Vilaine
Agence bancaire GUIPRY - MESSAC;44, avenue du port, 35480 GUIPRY;35480;;;Crédit Agricole - Ille Et Vilaine
Relais CA LE CENTRAL - HEDE-BAZOUGES;13 Place de la Mairie, 35630 HEDE-BAZOUGES;35630;48,2956668;-1,8019588;Crédit Agricole - Ille Et Vilaine
Relais CA VOTRE MARCHE EPICERIE - HEDE-BAZOUGES;14 Rue Jean Boucher, 35630 HEDE-BAZOUGES;35630;48,2943384;-1,8029076;Crédit Agricole - Ille Et Vilaine
Relais CA LES P'TITES COURSES D'HIREL - Hirel;8 Rue des Tourailles, 35120 Hirel;35120;48,6042645;-1,8077496;Crédit Agricole - Ille Et Vilaine
Relais CA CHEZ CORINNE - IRODOUER;24 Rue de Rennes, 35850 IRODOUER;35850;48,2485084;-1,9500633;Crédit Agricole - Ille Et Vilaine
Agence bancaire JANZE;8, Place de la République, 35150 JANZE;35150;;;Crédit Agricole - Ille Et Vilaine
Relais CA LE FOURNIL DE JAVENE - JAVENE;3 Rue du Couesnon, 35133 JAVENE;35133;48,3193742;-1,2159589;Crédit Agricole - Ille Et Vilaine
Agence bancaire L HERMITAGE;1, rue de la Poste, 35590 L HERMITAGE;35590;;;Crédit Agricole - Ille Et Vilaine
Relais CA BOULANGERIE PATISSERIE  FILET DAMIEN - LA BAZOUGE DU DESERT;1 Rue du Chanoine Helesbeux, 35420 LA BAZOUGE DU DESERT;35420;48,4436183;-1,1055277;Crédit Agricole - Ille Et Vilaine
Agence bancaire LA BOUEXIERE;1, rue Théophile Remond, 35340 LA BOUEXIERE;35340;;;Crédit Agricole - Ille Et Vilaine
Relais CA BOULANGERIE TOSTIVIN - LA BOUSSAC;14 Rue de Fougères, 35120 LA BOUSSAC;35120;48,5123678;-1,6592195;Crédit Agricole - Ille Et Vilaine
Relais CA CHEZ LILI - LA CHAPELLE BOUEXIC;11 Rue de la Mairie, 35330 LA CHAPELLE BOUEXIC;35330;47,9291012;-1,9410901;Crédit Agricole - Ille Et Vilaine
Relais CA AUX SAVEURS DE SAISONS - LE BAR' CANE - LA CHAPELLE DU LOU DU LAC;6 Rue de la Barcane, 35360 LA CHAPELLE DU LOU DU LAC;35360;48,2119247;-1,9906898;Crédit Agricole - Ille Et Vilaine
Relais CA L'INATTENDU - LA CHAPELLE-CHAUSSEE;2 Rue de Montmuran, 35630 LA CHAPELLE-CHAUSSEE;35630;48,2710391;-1,8537737;Crédit Agricole - Ille Et Vilaine
Relais CA LE BISTROT - LA CHAPELLE-DE-BRAIN;27 Gr Grande Rue, 35660 LA CHAPELLE-DE-BRAIN;35660;47,6979123;-1,8950347;Crédit Agricole - Ille Et Vilaine
Agence bancaire LA CHAPELLE-DES-FOUGERETZ;4, place Eugène Choux, 35520 LA CHAPELLE-DES-FOUGERETZ;35520;;;Crédit Agricole - Ille Et Vilaine
Relais CA AU PANIER GARNI - LA CHAPELLE-JANSON;17 Rue du Relais, 35133 LA CHAPELLE-JANSON;35133;48,3475733;-1,0994175;Crédit Agricole - Ille Et Vilaine
Relais CA SUPERETTE LA CHAPELLE THOUARAULT - La Chapelle-Thouarault;5 Rue du Commerce, 35590 La Chapelle-Thouarault;35590;48,1239262;-1,8664711;Crédit Agricole - Ille Et Vilaine
Relais CA LE PILI PILI - LA DOMINELAIS;2 Rue de l'Europe, 35390 LA DOMINELAIS;35390;47,76297049999999;-1,6873084;Crédit Agricole - Ille Et Vilaine
Relais CA LA TAVERNE DES KORRIGANS - LA FONTENELLE;2 Rue de la Quintaine, 35560 LA FONTENELLE;35560;48,46756629999999;-1,5035677;Crédit Agricole - Ille Et Vilaine
Agence bancaire LA GUERCHE-DE-BRETAGNE;3, place du Champ de Foire, 35130 LA GUERCHE-DE-BRETAGNE;35130;;;Crédit Agricole - Ille Et Vilaine
Agence bancaire LA MEZIERE;ZA Beauséjour, 35520 LA MEZIERE;35520;;;Crédit Agricole - Ille Et Vilaine
Relais CA LE NAUTAL CAFE - LA NOE-BLANCHE;3 Rue Sainte-Anne, 35470 LA NOE-BLANCHE;35470;47,80359439999999;-1,7427202;Crédit Agricole - Ille Et Vilaine
Relais CA AUX DELICES DE LA PLACE - LA RICHARDAIS;6 Place de la République, 35780 LA RICHARDAIS;35780;48,6071347;-2,0351374;Crédit Agricole - Ille Et Vilaine
Agence bancaire LAILLE;4 C Rue de l Hotel de Ville, 35890 Laillé;35890;;;Crédit Agricole - Ille Et Vilaine
Relais CA AN ALLOZ - LALLEU;9 Rue de la Mairie, 35320 LALLEU;35320;47,8560484;-1,5111469;Crédit Agricole - Ille Et Vilaine
Relais CA BAR DES BRUYERES - LANDAVRAN;1 Rue des Bruyères, 35450 LANDAVRAN;35450;48,1579728;-1,2882927;Crédit Agricole - Ille Et Vilaine
Relais CA AU RALLYE DES DOUCEURS - LANGAN;13 Rue de Romillé, 35850 LANGAN;35850;48,24447860000001;-1,8548642;Crédit Agricole - Ille Et Vilaine
Relais CA L'EPICERIE DE LA RUE - Langan;12 Rue de Romillé, 35850 Langan;35850;48,244433;-1,8542857;Crédit Agricole - Ille Et Vilaine
Relais CA LE SYMPATIC BAR - LASSY;2 Rue de la Mairie, 35580 LASSY;35580;47,9795041;-1,8711299;Crédit Agricole - Ille Et Vilaine
Agence bancaire LE GRAND-FOUGERAY;10, Place de l Eglise, 35390 LE GRAND-FOUGERAY;35390;;;Crédit Agricole - Ille Et Vilaine
Relais CA LE CONVIVIAL - LE PETIT-FOUGERAY;5 Place du Commerce, 35320 LE PETIT-FOUGERAY;35320;47,92757719999999;-1,6076179;Crédit Agricole - Ille Et Vilaine
Relais CA LE QG DU PETIT FOUGERAY - Le Petit-Fougeray;5 Place du Commerce, 35320 Le Petit-Fougeray;35320;47,9275894;-1,6075788;Crédit Agricole - Ille Et Vilaine
Agence bancaire LE RHEU;Route de l Hermitage, 35650 LE RHEU;35650;;;Crédit Agricole - Ille Et Vilaine
Agence bancaire LE SEL-DE-BRETAGNE;2, rue Duguesclin, 35320 LE SEL-DE-BRETAGNE;35320;;;Crédit Agricole - Ille Et Vilaine
Relais CA LE ROCHE K'FEE - LE THEIL-DE-BRETAGNE;Le Bourg Neuf, 35240 LE THEIL-DE-BRETAGNE;35240;47,9200368;-1,4222317;Crédit Agricole - Ille Et Vilaine
Relais CA LE THEILLAIS - LE THEIL-DE-BRETAGNE;22 Rue Amand de Léon des Ormeaux, 35240 LE THEIL-DE-BRETAGNE;35240;47,91950509999999;-1,4299296;Crédit Agricole - Ille Et Vilaine
Relais CA TABAC PRESSE LE VERGER - LE VERGER;4 Rue de la Forge, 35160 LE VERGER;35160;48,0699013;-1,9344633;Crédit Agricole - Ille Et Vilaine
Relais CA LE PANIER DU VIVIER - LE VIVIER-SUR-MER;5 Place de l'Église, 35960 LE VIVIER-SUR-MER;35960;48,6026372;-1,7750535;Crédit Agricole - Ille Et Vilaine
Agence bancaire LECOUSSE LE PARC;Centre Commercial Le Parc - 1 Rue Marion du Faouët, 35133 LECOUSSE;35133;;;Crédit Agricole - Ille Et Vilaine
Relais CA CHEZ NOUS - Les Portes du Coglais;9 Place Saint-Mélaine, 35460 Les Portes du Coglais;35460;48,4423682;-1,3089695;Crédit Agricole - Ille Et Vilaine
Relais CA LA TANIERE - LES PORTES DU COGLAIS;Rue de Saint-Jean, 35460 LES PORTES DU COGLAIS;35460;48,459273;-1,3636219;Crédit Agricole - Ille Et Vilaine
Relais CA MD RESTAURANT - LIEURON;10 Rue de Villeneuve, 35550 LIEURON;35550;47,8508431;-1,9437502;Crédit Agricole - Ille Et Vilaine
Agence bancaire LIFFRE;9, rue de Fougères, 35340 LIFFRE;35340;;;Crédit Agricole - Ille Et Vilaine
Relais CA LA ROZELL - LOUVIGNE-DE-BAIS;1 Place de l'Église, 35680 LOUVIGNE-DE-BAIS;35680;48,0479163;-1,3315607;Crédit Agricole - Ille Et Vilaine
Agence bancaire LOUVIGNE-DU-DESERT;26, rue du Général Lariboisière, 35420 LOUVIGNE-DU-DESERT;35420;;;Crédit Agricole - Ille Et Vilaine
Relais CA LYMM - Luitré-Dompierre;2 Bis Rue de Normandie, 35133 Luitré-Dompierre;35133;48,28389629999999;-1,1182753;Crédit Agricole - Ille Et Vilaine
Agence bancaire MAEN ROCH;18, boulevard du Général Leclerc, 35460 MAEN ROCH;35460;;;Crédit Agricole - Ille Et Vilaine
Agence bancaire MARTIGNE-FERCHAUD;10, rue Emile Bridel, 35640 MARTIGNE-FERCHAUD;35640;;;Crédit Agricole - Ille Et Vilaine
Agence bancaire MAURE-DE-BRETAGNE;25, rue de Guer, 35330 MAURE-DE-BRETAGNE;35330;;;Crédit Agricole - Ille Et Vilaine
Relais CA BOULANGERIE POULY - MAXENT;29 Rue Pierre Porcher, 35380 MAXENT;35380;47,982965;-2,0367123;Crédit Agricole - Ille Et Vilaine
Relais CA AU COURS DES HALLES - MEDREAC;4 Place de l'Église, 35360 MEDREAC;35360;48,2672612;-2,066141;Crédit Agricole - Ille Et Vilaine
Agence bancaire MELESSE;5, place de l Eglise, 35520 MELESSE;35520;;;Crédit Agricole - Ille Et Vilaine
Relais CA CAFE MELLOUEN - MELLE;1 Place Saint-Martin, 35420 MELLE;35420;48,4886555;-1,188721;Crédit Agricole - Ille Et Vilaine
Relais CA L'INDIAN'S - MESNIL-ROC'H;36 Rue de la Libération, 35720 MESNIL-ROC'H;35720;48,4454646;-1,9138602;Crédit Agricole - Ille Et Vilaine
Relais CA MARKET VILLAGE - Mesnil-Roc'h;2 Place du Calvaire, 35720 Mesnil-Roc'h;35720;48,4582505;-1,8289851;Crédit Agricole - Ille Et Vilaine
Relais CA CAFE L'OMNIBUS - MESSAC;67 Avenue de la Gare, 35480 MESSAC;35480;47,8228628;-1,8164935;Crédit Agricole - Ille Et Vilaine
Relais CA L'OMNIBUS - MESSAC;67 Avenue de la Gare, 35480 MESSAC;35480;47,8228628;-1,8164935;Crédit Agricole - Ille Et Vilaine
Relais CA LE MANACH  BAR TABAC PRESSE - MESSAC;20 Avenue de la Gare, 35480 MESSAC;35480;47,8238265;-1,8067455;Crédit Agricole - Ille Et Vilaine
Relais CA LES AMOUREUX DU PAIN - MEZIERES-SUR-COUESNON;4 Rue de Rennes, 35140 MEZIERES-SUR-COUESNON;35140;48,2959366;-1,4322538;Crédit Agricole - Ille Et Vilaine
Agence bancaire MINIAC-MORVAN;10 Rue Bienheureuse Thérèse Fantou, 35540 Miniac-Morvan;35540;;;Crédit Agricole - Ille Et Vilaine
Relais CA PRE DE CHEZ MOI - MONDEVERT;1 bis Rue du Chêne, 35370 MONDEVERT;35370;48,0849746;-1,0992602;Crédit Agricole - Ille Et Vilaine
Agence bancaire MONTAUBAN-DE-BRETAGNE;1, rue de Beaudouin, 35360 MONTAUBAN-DE-BRETAGNE;35360;;;Crédit Agricole - Ille Et Vilaine
Relais CA LE BREIZH - MONTERFIL;Bourg, 35160 MONTERFIL;35160;48,067393;-1,978352;Crédit Agricole - Ille Et Vilaine
Agence bancaire MONTFORT-SUR-MEU;3, boulevard Villebois Mareuil, 35160 MONTFORT-SUR-MEU;35160;;;Crédit Agricole - Ille Et Vilaine
Relais CA LA MAISON - MONTREUIL-SUR-ILLE;46 Avenue Alexis Rey, 35440 MONTREUIL-SUR-ILLE;35440;48,3060775;-1,6743201;Crédit Agricole - Ille Et Vilaine
Agence bancaire MORDELLES;8, avenue du Maréchal Leclerc, 35310 MORDELLES;35310;;;Crédit Agricole - Ille Et Vilaine
Relais CA BOULANGERIE NEVEZTEL - NOUVOITOU;2 Rue Tir Gigot, 35410 NOUVOITOU;35410;48,0414296;-1,5468914;Crédit Agricole - Ille Et Vilaine
Agence bancaire NOYAL-CHATILLON-SUR-SEICHE;29, rue de Rennes, 35230 NOYAL-CHATILLON-SUR-SEICHE;35230;;;Crédit Agricole - Ille Et Vilaine
Agence bancaire NOYAL-SUR-VILAINE;13, rue Pierre Marchand, 35530 NOYAL-SUR-VILAINE;35530;;;Crédit Agricole - Ille Et Vilaine
Agence bancaire ORGERES;1, place de la Mairie, 35230 ORGERES;35230;;;Crédit Agricole - Ille Et Vilaine
Agence bancaire PACE;1, rue Châteaubriand, 35740 PACE;35740;;;Crédit Agricole - Ille Et Vilaine
Relais CA BOULANGERIE PATISSERIE BAR PAUTRET - PARIGNE;19 Rue de la Mairie, 35133 PARIGNE;35133;48,4279468;-1,1913128;Crédit Agricole - Ille Et Vilaine
Relais CA LE TY MARCHE - Parthenay-de-Bretagne;21 Rue Principale, 35850 Parthenay-de-Bretagne;35850;48,1919474;-1,8282816;Crédit Agricole - Ille Et Vilaine
Agence bancaire PIPRIAC;19, rue de la Libération, 35550 PIPRIAC;35550;;;Crédit Agricole - Ille Et Vilaine
Relais CA BOULANGERIE LOISANCE - PIRE-CHANCE;6 Rue du Temple, 35150 PIRE-CHANCE;35150;48,0090819;-1,4306389;Crédit Agricole - Ille Et Vilaine
Agence bancaire PLEINE-FOUGERES;33, rue de Rennes, 35610 PLEINE-FOUGERES;35610;;;Crédit Agricole - Ille Et Vilaine
Agence bancaire PLELAN-LE-GRAND;39, avenue de la Libération, 35380 PLELAN-LE-GRAND;35380;;;Crédit Agricole - Ille Et Vilaine
Relais CA L'ESCALE - PLERGUER;8 Rue du Gén de Gaulle, 35540 PLERGUER;35540;48,5270454;-1,848247;Crédit Agricole - Ille Et Vilaine
Relais CA VOTRE MARCHE - PLEUGUENEUC;3 Place de l'Église, 35720 PLEUGUENEUC;35720;48,3973753;-1,9031738;Crédit Agricole - Ille Et Vilaine
Relais CA LA TULIPE - PLEUMEULEUC;3 L'Épinette, 35137 PLEUMEULEUC;35137;48,1780998;-1,9196155;Crédit Agricole - Ille Et Vilaine
Agence bancaire PLEURTUIT;2, place du Général de Gaulle, 35730 PLEURTUIT;35730;;;Crédit Agricole - Ille Et Vilaine
Relais CA LE PENDRAGON - Pléchâtel;3 Place de l'Église, 35470 Pléchâtel;35470;47,8945039;-1,7500775;Crédit Agricole - Ille Et Vilaine
Relais CA Le 36 - Pont-Péan;36 Route de Nantes, 35131 Pont-Péan;35131;48,0179462;-1,7054005;Crédit Agricole - Ille Et Vilaine
Relais CA O GRAIN DE CAFE - QUEBRIAC;2 Rue de la Liberté, 35190 QUEBRIAC;35190;48,343959;-1,8266951;Crédit Agricole - Ille Et Vilaine
Relais CA VIVECO - QUEDILLAC;15 Rue de Rennes, 35290 QUEDILLAC;35290;48,2494265;-2,1416296;Crédit Agricole - Ille Et Vilaine
Agence bancaire REDON BEAULIEU;Centre Commercial le Relais 51 rue de Rennes, 35600 REDON;35600;47,664898;-2,070566;Crédit Agricole - Ille Et Vilaine
Agence bancaire REDON PARC ANGER;14 Rue Victor Hugo, 35600 REDON;35600;47,6511216;-2,087151;Crédit Agricole - Ille Et Vilaine
Agence bancaire RENNES ALMA;Centre Commercial Alma, 35200 RENNES;35200;48,082609;-1,679620743;Crédit Agricole - Ille Et Vilaine
Agence bancaire RENNES BAUD-CHARDONNET;14 Avenue Jorge Semprún, 35000 Rennes;35000;48,1090774;-1,6459497;Crédit Agricole - Ille Et Vilaine
Agence bancaire RENNES BEAUREGARD;5, place Eugène Aulnette, 35000 RENNES;35000;48,12929116;-1,699404716;Crédit Agricole - Ille Et Vilaine
Agence bancaire RENNES BOURG L'EVEQUE;6 bis, rue de Brest, 35000 RENNES;35000;48,1120831;-1,6882169;Crédit Agricole - Ille Et Vilaine
Agence bancaire RENNES BREQUIGNY;266, rue de Nantes BP 1411, 35015 RENNES;35015;48,09038;-1,692666;Crédit Agricole - Ille Et Vilaine
Agence bancaire RENNES COEUR COURROUZE;14 Place Jeanne Laurent, 35000 Rennes;35000;48,097641;-1,698296;Crédit Agricole - Ille Et Vilaine
Agence bancaire RENNES CULTURE;7, rue St-Hélier, 35000 RENNES;35000;48,1076087;-1,6726495;Crédit Agricole - Ille Et Vilaine
Agence bancaire RENNES HOCHE;24 Rue Saint-Melaine, 35000 Rennes;35000;48,1148306;-1,6768822;Crédit Agricole - Ille Et Vilaine
Agence bancaire RENNES ITALIE;Centre Commercial Italie 2 rue de Suisse, 35200 RENNES;35200;48,086519;-1,667139;Crédit Agricole - Ille Et Vilaine
Agence bancaire RENNES JACQUES CARTIER;43, rue de l Alma, 35000 RENNES;35000;48,09874;-1,675411;Crédit Agricole - Ille Et Vilaine
Agence bancaire RENNES JEAN NORMAND;8 Place Jean Normand, 35200 RENNES;35200;48,087713;-1,655595;Crédit Agricole - Ille Et Vilaine
Agence bancaire RENNES LEON BOURGEOIS;1, boulevard Léon Bourgeois, 35200 RENNES;35200;48,0981155;-1,6556358;Crédit Agricole - Ille Et Vilaine
Agence bancaire RENNES LIBERTE;25 Rue du Pré Perche, 35000 RENNES;35000;48,1078559;-1,681955000000016;Crédit Agricole - Ille Et Vilaine
Agence bancaire RENNES LONGSCHAMPS;Centre Commercial Allée Morvan Le Besque, 35700 RENNES;35700;48,130151;-1,632474;Crédit Agricole - Ille Et Vilaine
Agence bancaire RENNES LORIENT;87, rue de Lorient, 35000 RENNES;35000;48,1093228;-1,7071646;Crédit Agricole - Ille Et Vilaine
Agence bancaire RENNES MAUREPAS;134, rue de Fougères, 35700 RENNES;35700;48,1222481;-1,6617998;Crédit Agricole - Ille Et Vilaine
Agence bancaire RENNES NEMOURS;9 Rue de Nemours, 35000 RENNES;35000;48,1083193;-1,6800043;Crédit Agricole - Ille Et Vilaine
Agence bancaire RENNES OPERA;4, rue d Orléans, 35000 RENNES;35000;48,110628;-1,6792211;Crédit Agricole - Ille Et Vilaine
Agence bancaire RENNES PARIS;100, rue de Paris, 35000 RENNES;35000;48,1145838;-1,657227;Crédit Agricole - Ille Et Vilaine
Agence bancaire RENNES POTERIE;Centre Commercial de la Poterie 2 place de Ronceray, 35200 RENNES;35200;48,0908272;-1,6407791;Crédit Agricole - Ille Et Vilaine
Agence bancaire RENNES St MARTIN;157, rue de Saint-Malo, 35000 RENNES;35000;48,1228957;-1,6843084;Crédit Agricole - Ille Et Vilaine
Agence bancaire RENNES TRINITE;2 Place de la Trinité, 35000 RENNES;35000;48,1122676;-1,6836146;Crédit Agricole - Ille Et Vilaine
Agence bancaire RENNES VILLEJEAN;66 Centre Commercial Kennedy, 35000 RENNES;35000;48,12140989;-1,709870696;Crédit Agricole - Ille Et Vilaine
Agence bancaire RENNES VOLTAIRE;1, boulevard Voltaire, 35000 RENNES;35000;48,1050264;-1,6935834;Crédit Agricole - Ille Et Vilaine
Agence bancaire RETIERS;22, place Saint-Pierre, 35240 RETIERS;35240;;;Crédit Agricole - Ille Et Vilaine
Relais CA LA GODINETTE - ROMAZY;13 Route du Mont Saint-Michel, 35490 ROMAZY;35490;48,3767028;-1,4960778;Crédit Agricole - Ille Et Vilaine
Agence bancaire ROMILLE;11, rue des Templiers, 35850 ROMILLE;35850;;;Crédit Agricole - Ille Et Vilaine
Relais CA LE BIST'ROZ - Roz-Landrieux;11 Rue de l'Église, 35120 Roz-Landrieux;35120;48,543664;-1,8161113;Crédit Agricole - Ille Et Vilaine
Agence bancaire SAINT JACQUES DE LA LANDE;13, rue François Mitterrand, 35136 SAINT JACQUES DE LA LANDE;35136;48,079482;-1,71387;Crédit Agricole - Ille Et Vilaine
Relais CA BAR L'ARMELIEN - Saint-Armel;1 Route de Rennes, 35230 Saint-Armel;35230;48,0140086;-1,5952836;Crédit Agricole - Ille Et Vilaine
Agence bancaire SAINT-AUBIN-D AUBIGNE;16, rue d Antrain, 35250 SAINT-AUBIN-D AUBIGNE;35250;;;Crédit Agricole - Ille Et Vilaine
Agence bancaire SAINT-AUBIN-DU-CORMIER;angle rue Libération et Rue Heurtault, 35140 SAINT-AUBIN-DU-CORMIER;35140;;;Crédit Agricole - Ille Et Vilaine
Relais CA BOULANGERIE HALLIER - SAINT-BRIAC-SUR-MER;1 Rue de la Mairie, 35800 SAINT-BRIAC-SUR-MER;35800;48,6193018;-2,132282;Crédit Agricole - Ille Et Vilaine
Relais CA MARIE ET MARC - SAINT-BROLADRE;49 Rue de Saint-Malo, 35120 SAINT-BROLADRE;35120;48,5888334;-1,6587696;Crédit Agricole - Ille Et Vilaine
Relais CA LE PANIER DES BOIS - SAINT-CHRISTOPHE-DES-BOIS;6 Rue du Relais des Forges, 35210 SAINT-CHRISTOPHE-DES-BOIS;35210;48,2270474;-1,2455769;Crédit Agricole - Ille Et Vilaine
Relais CA LE PETIT LUCCI - Saint-Didier;1 Rue des Écoles, 35220 Saint-Didier;35220;48,0948045;-1,3717064;Crédit Agricole - Ille Et Vilaine
Relais CA LE PETIT ZINC BAR TABAC - SAINT-DIDIER;1 Rue des Écoles, 35220 SAINT-DIDIER;35220;48,0948516;-1,3716527;Crédit Agricole - Ille Et Vilaine
Relais CA CEMICLO - Saint-Domineuc;29 Rue nationale, 35190 Saint-Domineuc;35190;48,3722856;-1,8761848;Crédit Agricole - Ille Et Vilaine
Relais CA LE BELISE - SAINT-ERBLON;39 Place de l'Église, 35230 SAINT-ERBLON;35230;48,0200233;-1,6525641;Crédit Agricole - Ille Et Vilaine
Relais CA TEZEA - SAINT-GANTON;6 Rue du Stade, 35550 SAINT-GANTON;35550;47,8533783;-2,0041891;Crédit Agricole - Ille Et Vilaine
Relais CA VOTRE MARCHE - SAINT-GERMAIN-EN-COGLES;13 Rue Principale, 35133 SAINT-GERMAIN-EN-COGLES;35133;48,4052959;-1,2634979;Crédit Agricole - Ille Et Vilaine
Agence bancaire SAINT-GILLES;6, rue de Rennes, 35590 SAINT-GILLES;35590;;;Crédit Agricole - Ille Et Vilaine
Relais CA SAPERLIPOPETTE - Saint-Gonlay;2 Rue du Parc de Pentière, 35750 Saint-Gonlay;35750;48,1131284;-2,0661147;Crédit Agricole - Ille Et Vilaine
Agence bancaire GRAND QUARTIER;Centre Commercial Grand Quartier Route de Saint-Malo, 35760 SAINT-GREGOIRE;35760;48,13696716;-1,694598198;Crédit Agricole - Ille Et Vilaine
Agence bancaire SAINT-GREGOIRE;1, rue Alphonse Milon, 35760 SAINT-GREGOIRE;35760;48,1519922;-1,6846675;Crédit Agricole - Ille Et Vilaine
Relais CA VIVAL - SAINT-GUINOUX;8 Rue de la Mairie, 35430 SAINT-GUINOUX;35430;48,5762228;-1,8835644;Crédit Agricole - Ille Et Vilaine
Relais CA EPISERVICES - SAINT-HILAIRE-DES-LANDES;Rue des Sources, 35140 SAINT-HILAIRE-DES-LANDES;35140;48,3525645;-1,3569545;Crédit Agricole - Ille Et Vilaine
Relais CA LA PETITE BOUFFE - SAINT-HILAIRE-DES-LANDES;9 Rue du Commerce, 35140 SAINT-HILAIRE-DES-LANDES;35140;48,3511047;-1,3568866;Crédit Agricole - Ille Et Vilaine
Relais CA LE CEDRE BLEU - SAINT-JACUT-LES-PINS;2 Place de l'Église, 56220 SAINT-JACUT-LES-PINS;56220;47,68447200000001;-2,215346;Crédit Agricole - Ille Et Vilaine
Relais CA LA TERANGA - SAINT-JEAN-SUR-VILAINE;5 Rue de Vitré, 35220 SAINT-JEAN-SUR-VILAINE;35220;48,1172908;-1,3601166;Crédit Agricole - Ille Et Vilaine
Agence bancaire SAINT-JOUAN-DES-GUERETS;rue Siochan, 35430 SAINT-JOUAN-DES-GUERETS;35430;;;Crédit Agricole - Ille Et Vilaine
Relais CA CHEZ COCO - Saint-Just;5 Rue de l'Abbé Corbe, 35550 Saint-Just;35550;47,76479;-1,9615697;Crédit Agricole - Ille Et Vilaine
Relais CA BAR DES SPORTS LE DRICUS - SAINT-M'HERVE;2 Place de l'Église, 35500 SAINT-M'HERVE;35500;48,1781608;-1,1174467;Crédit Agricole - Ille Et Vilaine
Relais CA MON POTAGER GOURMAND - SAINT-MALO;51 Rue du Grand Jardin, 35400 SAINT-MALO;35400;48,62942409999999;-1,9836995;Crédit Agricole - Ille Et Vilaine
Agence bancaire SAINT-MALO INTRAMUROS;2 Place du Pilori, 35400 SAINT-MALO;35400;48,6489202;-2,0256702;Crédit Agricole - Ille Et Vilaine
Agence bancaire SAINT-MALO LA MADELEINE;Centre Commercial La Madeleine Avenue de la Flaudais, 35400 SAINT-MALO;35400;48,62486734;-1,994640827;Crédit Agricole - Ille Et Vilaine
Agence bancaire SAINT-MALO PARAME;4, rue Gustave Flaubert, 35400 SAINT-MALO;35400;48,6581146;-1,9844951;Crédit Agricole - Ille Et Vilaine
Agence bancaire SAINT-MALO ROCABEY;9, boulevard de la République, 35400 SAINT-MALO;35400;48,6505568;-2,0081287;Crédit Agricole - Ille Et Vilaine
Agence bancaire SAINT-MALO St SERVAN;60, rue Ville-Pépin, 35413 SAINT-MALO;35413;48,6347211;-2,0135983;Crédit Agricole - Ille Et Vilaine
Relais CA TY PRENN - SAINT-MALO-DE-PHILY;6 Place de l'Église, 35480 SAINT-MALO-DE-PHILY;35480;47,8772279;-1,7864977;Crédit Agricole - Ille Et Vilaine
Relais CA LE BARACLE - SAINT-MARC-LE-BLANC;4 Rue de Dinan, 35460 SAINT-MARC-LE-BLANC;35460;48,3652446;-1,4093246;Crédit Agricole - Ille Et Vilaine
Relais CA CHEZ MARTINE - SAINT-MAUGAN;4 Rue du Morbihan, 35750 SAINT-MAUGAN;35750;48,1348761;-2,0831154;Crédit Agricole - Ille Et Vilaine
Relais CA VIVAL - SAINT-MEDARD-SUR-ILLE;16 Rue des Écoles, 35250 SAINT-MEDARD-SUR-ILLE;35250;48,2727621;-1,6580643;Crédit Agricole - Ille Et Vilaine
Agence bancaire SAINT-MEEN-LE-GRAND;1, avenue du Maréchal Foch, 35290 SAINT-MEEN-LE-GRAND;35290;;;Crédit Agricole - Ille Et Vilaine
Agence bancaire SAINT-MELOIR-DES-ONDES;9, rue de Bellevue, 35350 SAINT-MELOIR-DES-ONDES;35350;;;Crédit Agricole - Ille Et Vilaine
Relais CA LA FONTAINE - SAINT-PERAN;3 Rue de la Mairie, 35380 SAINT-PERAN;35380;48,0537949;-2,0569886;Crédit Agricole - Ille Et Vilaine
Relais CA LA RANDONNEE - SAINT-PERAN;2 Rue de la Mairie, 35380 SAINT-PERAN;35380;48,0540993;-2,057308;Crédit Agricole - Ille Et Vilaine
Relais CA LA RENCONTRE - SAINT-REMY-DU-PLAIN;14 Rue de l'église, 35560 SAINT-REMY-DU-PLAIN;35560;48,3698644;-1,5706638;Crédit Agricole - Ille Et Vilaine
Relais CA LE PETIT SULPICIEN - SAINT-SULPICE-DES-LANDES;3 Rue Louis Leray, 35390 SAINT-SULPICE-DES-LANDES;35390;47,7667086;-1,6230304;Crédit Agricole - Ille Et Vilaine
Relais CA LA VALLEE - SAINT-THURIAL;1 Rue du Schiste Violet, 35310 SAINT-THURIAL;35310;48,0297649;-1,9320031;Crédit Agricole - Ille Et Vilaine
Relais CA VIVECO - SAINTE-ANNE-SUR-VILAINE;15 Place de l'Église, 35390 SAINTE-ANNE-SUR-VILAINE;35390;47,7304228;-1,8249758;Crédit Agricole - Ille Et Vilaine
Relais CA RESTAURANT LE CHAPITRE - SAINTE-MARIE;LE CHAPITRE, 35600 SAINTE-MARIE;35600;47,694652;-2,001438;Crédit Agricole - Ille Et Vilaine
Relais CA DESILLES HUBERT - SAULNIERES;11 Rue des Paludiers, 35320 SAULNIERES;35320;47,9158784;-1,5879704;Crédit Agricole - Ille Et Vilaine
Agence bancaire SENS-DE-BRETAGNE;23, place de la Mairie, 35490 SENS-DE-BRETAGNE;35490;;;Crédit Agricole - Ille Et Vilaine
Agence bancaire SERVICE PRIVILEGE;Caisse Régionale du Crédit Agricole, 35136 SERVICE PRIVILEGE;35136;48,092277;-1,705949;Crédit Agricole - Ille Et Vilaine
Agence bancaire SERVON-SUR-VILAINE;2, rue du Général de Gaulle, 35530 SERVON-SUR-VILAINE;35530;;;Crédit Agricole - Ille Et Vilaine
Relais CA AU FOURNIL DE L'AFF - SIXT-SUR-AFF;14 Rue Onffroy de la Rosière, 35550 SIXT-SUR-AFF;35550;47,7759924;-2,0789004;Crédit Agricole - Ille Et Vilaine
Relais CA GALLO PAIN - SOUGEAL;7b Rue de la Forge, 35610 SOUGEAL;35610;48,467714;-1,5018411;Crédit Agricole - Ille Et Vilaine
Relais CA LE BISTROT ST GERMAIN - ST GERMAIN SUR ILLE;Place de la Mairie, 35250 ST GERMAIN SUR ILLE;35250;48,2489587;-1,6589357;Crédit Agricole - Ille Et Vilaine
Relais CA CHEZ CINDY ET LAURENT - TALENSAC;13 Rue de Bréal, 35160 TALENSAC;35160;48,1085675;-1,9261604;Crédit Agricole - Ille Et Vilaine
Relais CA CHEZ SEB - TEILLAY;3 Rue Andrée Récipon, 35620 TEILLAY;35620;47,8065198;-1,5368921;Crédit Agricole - Ille Et Vilaine
Agence bancaire THORIGNE-FOUILLARD;15, allée du Marché, 35235 THORIGNE-FOUILLARD;35235;;;Crédit Agricole - Ille Et Vilaine
Relais CA BAR TABAC - THOURIE;9 Rue de la Libération, 35134 THOURIE;35134;47,8538242;-1,4789318;Crédit Agricole - Ille Et Vilaine
Agence bancaire TINTENIAC;Centre Commercial 'Les Petites Douves' Avenue des Trente, 35190 TINTENIAC;35190;;;Crédit Agricole - Ille Et Vilaine
Relais CA BOULANGERIE AU FOUR A BOIS - TRANS-LA-FORET;15 Rue de Villecartier, 35610 TRANS-LA-FORET;35610;48,4964291;-1,5881453;Crédit Agricole - Ille Et Vilaine
Relais CA SPAR - TREMBLAY;4 Rue de la Gare, 35460 TREMBLAY;35460;48,4222349;-1,4731634;Crédit Agricole - Ille Et Vilaine
Agence bancaire VAL D IZE;1, rue Joseph Aubert, 35450 VAL D IZE;35450;;;Crédit Agricole - Ille Et Vilaine
Agence bancaire VERN-SUR-SEICHE;9, rue de Chateaubriant, 35770 VERN-SUR-SEICHE;35770;;;Crédit Agricole - Ille Et Vilaine
Agence bancaire VEZIN-LE-COQUET;Centre Commercial 12 rue de Rennes, 35132 VEZIN-LE-COQUET;35132;;;Crédit Agricole - Ille Et Vilaine
Relais CA LE REFUGE - VIGNOC;4 Place de l'Église, 35630 VIGNOC;35630;48,2479184;-1,7830292;Crédit Agricole - Ille Et Vilaine
Relais CA LE BRETAGNE - VITRE;32 Boulevard de Laval, 35500 VITRE;35500;48,1233343;-1,1983598;Crédit Agricole - Ille Et Vilaine
Agence bancaire VITRE;6, boulevard St Martin, 35503 VITRE;35503;48,123351;-1,208927;Crédit Agricole - Ille Et Vilaine
Agence bancaire VITRE LA BARATIERE;23, rue de Redon, 35500 VITRE;35500;48,111505;-1,212592;Crédit Agricole - Ille Et Vilaine
