nom;adresse;code_postal;latitude;longitude;region_source
Agence bancaire AIGURANDE;22, Place de la Promenade,, 36140 AIGURANDE;36140;;;Crédit Agricole - Centre Ouest
Agence bancaire AIXE SUR VIENNE;71, Avenue du Président Wilson,, 87700 AIXE SUR VIENNE;87700;;;Crédit Agricole - Centre Ouest
Agence bancaire AMBAZAC;19, Avenue de la Libération, 87240 AMBAZAC;87240;;;Crédit Agricole - Centre Ouest
Relais CA LE SESAME - Ambrault;9 Place de l'Église, 36120 Ambrault;36120;46,7849;1,95938;Crédit Agricole - Centre Ouest
Agence bancaire ARDENTES;30, Avenue de Verdun,, 36120 ARDENTES;36120;;;Crédit Agricole - Centre Ouest
Agence bancaire ARGENTON SUR CREUSE;8, Place de la République, 36200 ARGENTON SUR CREUSE;36200;;;Crédit Agricole - Centre Ouest
Relais CA BOULANGERIE - Arnac-la-Poste;3 Rue des Fleurs, 87160 Arnac-la-Poste;87160;46,2655125;1,3735024;Crédit Agricole - Centre Ouest
Relais CA PROXI - Arnac-la-Poste;Place de l'Église, 87160 Arnac-la-Poste;87160;46,2657063;1,374438;Crédit Agricole - Centre Ouest
Relais CA CAFE DES FLEURS - Azay-le-Ferron;7 Rue de l'Église, 36290 Azay-le-Ferron;36290;46,8512985;1,070701;Crédit Agricole - Centre Ouest
Agence bancaire BELABRE;10, Avenue Jean Jaurès,, 36370 BELABRE;36370;;;Crédit Agricole - Centre Ouest
Agence bancaire BELLAC;6, bis rue Gambetta ,, 87300 BELLAC;87300;;;Crédit Agricole - Centre Ouest
Relais CA LE RELAIS DU VINCOU - Berneuil;5 Route de Limoges, 87300 Berneuil;87300;46,0688532;1,1060721;Crédit Agricole - Centre Ouest
Relais CA EIRL BOUCHERIE DU RIVALIER - BERSAC SUR RIVALIER;7 PLACE DES FOSSES, 87370 BERSAC SUR RIVALIER;87370;46,0821;1,4265;Crédit Agricole - Centre Ouest
Agence bancaire BESSINES;4, Rue Peyrichon-Bey,, 87250 BESSINES SUR GARTEMPE;87250;;;Crédit Agricole - Centre Ouest
Distributeur automatique de billets AUTOMATE - BOSMIE;PLACE PEDRALBA, 87110 BOSMIE L'AIGUILLE;87110;45,780282;1,201899;Crédit Agricole - Centre Ouest
Distributeur automatique de billets AUTOMATE - BOSMIE;place pedralba, 87110 BOSMIE L'AIGUILLE;87110;45,780282;1,201899;Crédit Agricole - Centre Ouest
Relais CA CHABRETOU ET FILS PT VERT - Bujaleuf;32 Route de Saint-Léonard, 87460 Bujaleuf;87460;45,7957817;1,6223811;Crédit Agricole - Centre Ouest
Relais CA PHARMACIE LES 3 FONTAINES - BUSSIERE GALANT;AV DE LA GARE, 87230 BUSSIERE GALANT;87230;45,6076242;1,0286508;Crédit Agricole - Centre Ouest
Relais CA VIVAL - BUSSIERE GALANT;PL DU GENERAL DE GAULLE, 87230 BUSSIERE GALANT;87230;45,5858;1,06385;Crédit Agricole - Centre Ouest
Agence bancaire BUSSIERE POITEVINE;69, Avenue de la Libération,, 87320 BUSSIERE POITEVINE;87320;;;Crédit Agricole - Centre Ouest
Agence bancaire BUZANCAIS;5, Avenue du Général Leclerc,, 36500 BUZANCAIS;36500;;;Crédit Agricole - Centre Ouest
Agence bancaire CHABRIS;1, Rue du Pont,, 36210 CHABRIS;36210;;;Crédit Agricole - Centre Ouest
Relais CA LA BARAKA - Chaillac;Place du Bosquet, 36310 Chaillac;36310;46,4348205;1,2991471;Crédit Agricole - Centre Ouest
Agence bancaire CHALUS;Place Cardailhac,, 87230 CHALUS;87230;;;Crédit Agricole - Centre Ouest
Relais CA AVIA BAR TABAC - Champillet;1 Route de la Châtre, 36160 Champillet;36160;46,5486985;2,1115435;Crédit Agricole - Centre Ouest
Agence bancaire CHATEAUNEUF LA FORET;2, Avenue d'Arsonval,, 87130 CHATEAUNEUF LA FORET;87130;;;Crédit Agricole - Centre Ouest
Agence bancaire CHATEAUPONSAC;8, Rue Jeanne d'Arc,, 87290 CHATEAUPONSAC;87290;;;Crédit Agricole - Centre Ouest
Agence bancaire AGENCE ENTREPRISE 36;68, Av. Pierre de Coubertin,, 36014 CHATEAUROUX;36014;46,80305587;1,719317436;Crédit Agricole - Centre Ouest
Agence bancaire AGENCE des PROFESSIONNELS 36;68, Avenue Pierre de Coubertin,, 36000 CHATEAUROUX;36000;46,8029875;1,7192555;Crédit Agricole - Centre Ouest
Guichet Automatique de banque AUTOMATE - INTER CHATEAUROUX MYMIKA;371 AVENUE DE VERDUN, 36000 CHATEAUROUX;36000;46,789799;1,704322;Crédit Agricole - Centre Ouest
Agence bancaire BANQUE PRIVEE 36;68, Av. Pierre de Coubertin,, 36014 CHATEAUROUX;36014;46,80305587;1,719317436;Crédit Agricole - Centre Ouest
Agence bancaire CHATEAUROUX COUBERTIN;68, Avenue Pierre de Coubertin,, 36000 CHATEAUROUX;36000;46,8029176;1,7193246;Crédit Agricole - Centre Ouest
Agence bancaire CHATEAUROUX GAMBETTA;20, Place Gambetta,, 36000 CHATEAUROUX;36000;46,8123741;1,6954877;Crédit Agricole - Centre Ouest
Agence bancaire CHATEAUROUX LA BRAUDERIE;148, Avenue Charles de Gaulle,, 36000 CHATEAUROUX;36000;46,8104168;1,6873411;Crédit Agricole - Centre Ouest
Agence bancaire CHATEAUROUX LES MARINS;67, Avenue des Marins,, 36000 CHATEAUROUX;36000;46,8095564;1,6839269;Crédit Agricole - Centre Ouest
Agence bancaire CHATEAUROUX SAINT CHRISTOPHE;1, Place Saint-Christophe,, 36000 CHATEAUROUX;36000;46,8170834;1,6838268;Crédit Agricole - Centre Ouest
Agence Immobilière SQUARE HABITAT 36 Square Habitat;68, Av. Pierre de Coubertin,, 36000 CHATEAUROUX;36000;46,80305587;1,719317436;Crédit Agricole - Centre Ouest
Agence bancaire CHATILLON SUR INDRE;31, Boulevard du Général Leclerc,, 36700 CHATILLON-SUR-INDRE;36700;;;Crédit Agricole - Centre Ouest
Relais CA ROULLET SARL - CHAVIN;le bourg, 36200 CHAVIN;36200;46,5615651;1,6121635;Crédit Agricole - Centre Ouest
Relais CA VIVAL - Château-Chervix;Place du 8 Mai 1945, 87380 Château-Chervix;87380;45,609616;1,353087;Crédit Agricole - Centre Ouest
Relais CA TRAVERSI GAELLE - CIEUX;15 Rue du 11 Novembre 1918, 87520 CIEUX;87520;45,9915666;1,0456721;Crédit Agricole - Centre Ouest
Relais CA BOULANGERIE - CIRON;11 ROUTE NATIONALE, 36300 CIRON;36300;46,6308668;1,250856;Crédit Agricole - Centre Ouest
Relais CA BOUCHERIE - Clion;11 Rue nationale, 36700 Clion;36700;46,9415197;1,2318231;Crédit Agricole - Centre Ouest
Relais CA MARINIER PIERRE - Clion;1 Rue nationale, 36700 Clion;36700;46,9415882;1,2325086;Crédit Agricole - Centre Ouest
Agence bancaire CLUIS;5, Rue des Jardiniers,, 36340 CLUIS;36340;;;Crédit Agricole - Centre Ouest
Relais CA GARAGE LYDA - COGNAC LA FORET;RUE JEAN MOULIN, 87310 COGNAC LA FORET;87310;45,8352;1,01045;Crédit Agricole - Centre Ouest
Relais CA LE RELAIS DES LACS - Compreignac;2 Rue Jacques Fontanier, 87140 Compreignac;87140;45,99285099999999;1,2742978;Crédit Agricole - Centre Ouest
Agence bancaire CONDAT SUR VIENNE;1, Place de la Libération,, 87920 CONDAT SUR VIENNE;87920;;;Crédit Agricole - Centre Ouest
Relais CA VIVAL - COUSSAC BONNEVAL;18 AV DU 11 NOVEMBRE 1918, 87500 COUSSAC BONNEVAL;87500;45,5112;1,32515;Crédit Agricole - Centre Ouest
Agence bancaire COUZEIX;61, Avenue de Limoges,, 87270 COUZEIX;87270;;;Crédit Agricole - Centre Ouest
Guichet Automatique de banque AUTOMATE - INTER CUSSAC;32 RUE DE SAINT MATHIEU, 87150 CUSSAC;87150;45,707879;0,845616;Crédit Agricole - Centre Ouest
Distributeur automatique de billets AUTOMATE - INTER CUSSAC;32 Rue de Saint-Mathieu, 87150 Cussac;87150;45,707879;0,845616;Crédit Agricole - Centre Ouest
Agence bancaire DEOLS;2, Place de la République,, 36130 DEOLS;36130;;;Crédit Agricole - Centre Ouest
Relais CA VIVAL - DOURNEZAC;Place du Champ de Foire, 87230 DOURNEZAC;87230;45,624942;0,916962;Crédit Agricole - Centre Ouest
Relais CA HOTEL DE France - Dun-le-Poëlier;2 Rue de la République, 36210 Dun-le-Poëlier;36210;47,20367;1,753426;Crédit Agricole - Centre Ouest
Agence bancaire ECUEILLE;6, Rue Albert Jahan,, 36240 ECUEILLE;36240;;;Crédit Agricole - Centre Ouest
Agence bancaire EGUZON;2 bis, Rue Camille Toussaints,, 36270 EGUZON;36270;;;Crédit Agricole - Centre Ouest
Relais CA LAVAUD ALIMENTATION - EGUZON CHANTOME;PLACE DE LA REPUBLIQUE, 36270 EGUZON CHANTOME;36270;46,4422448;1,5830054;Crédit Agricole - Centre Ouest
Relais CA Café -Tabacs - Journaux - Brasserie - Point Vert B - Etrechet;Le bourg, 36120 Etrechet;36120;46,7786;1,7847;Crédit Agricole - Centre Ouest
Agence bancaire EYMOUTIERS;3, Boulevard de la Libération,, 87120 EYMOUTIERS;87120;;;Crédit Agricole - Centre Ouest
Relais CA BEN HAMIDA LOTFI - FAVEROLLES;2 PLACE DE L EGLISE, 36360 FAVEROLLES;36360;47,1711869;1,4100328;Crédit Agricole - Centre Ouest
Relais CA L EPICERIE - FAVEROLLES;2 PLACE DE L EGLISE, 36360 FAVEROLLES;36360;47,1711869;1,4100328;Crédit Agricole - Centre Ouest
Agence bancaire FEYTIAT;Centre Commercial Mas Cerise,, 87220 FEYTIAT;87220;;;Crédit Agricole - Centre Ouest
Relais CA CAFE DES SPORTS - FLAVIGNAC;PL DU 8 MAI, 87230 FLAVIGNAC;87230;45,7039736;1,091184;Crédit Agricole - Centre Ouest
Relais CA Les Fourmis - FONTGOMBAULT;6 RUE DU CHATELET, 36220 FONTGOMBAULT;36220;46,6748341;0,9850396;Crédit Agricole - Centre Ouest
Relais CA LE CAMPAGNARD - FOUGEROLLES;le bourg, 36230 FOUGEROLLES;36230;46,5631213;1,8677757;Crédit Agricole - Centre Ouest
Relais CA Auberge de la Chaumerette - Gargilesse-Dampierre;La Chaumerette, 36190 Gargilesse-Dampierre;36190;46,50767099999999;1,583344;Crédit Agricole - Centre Ouest
Relais CA 8 A HUIT - Genillé;2 Rue des Noisetiers, 37460 Genillé;37460;47,1818159;1,0956062;Crédit Agricole - Centre Ouest
Guichet Automatique de banque AUTOMATE - INTER GLANDON;LIEU-DIT LASCAUX, 87500 GLANDON;87500;45,495351;1,214562;Crédit Agricole - Centre Ouest
Distributeur automatique de billets AUTOMATE - INTER GLANDON;LIEU-DIT LASCAUX, 87500 GLANDON;87500;45,495351;1,214562;Crédit Agricole - Centre Ouest
Relais CA AUBERGE D'HEUGNES POINT V - Heugnes;7 PLACE SAINT MARTIN, 36180 Heugnes;36180;47,0113549;1,40997;Crédit Agricole - Centre Ouest
Agence bancaire ISLE;1, Rue Jean Jaurès,, 87170 ISLE;87170;;;Crédit Agricole - Centre Ouest
Agence bancaire ISSOUDUN ROOSEVELT;1, Boulevard Roosevelt,, 36100 ISSOUDUN;36100;;;Crédit Agricole - Centre Ouest
Relais CA BLANCHARD JACQUELINE - LA BERTHENOUX;LE BOURG LA BERTHENOUX, 36400 LA BERTHENOUX;36400;46,6613;2,06191;Crédit Agricole - Centre Ouest
Agence bancaire LA CHATRE;156, Rue Nationale,, 36400 LA CHATRE;36400;;;Crédit Agricole - Centre Ouest
Relais CA TABAC PRESSE DE L'ARBORETUM - La Jonchère-Saint-Maurice;4 Place de l'Église, 87340 La Jonchère-Saint-Maurice;87340;45,9990654;1,4686264;Crédit Agricole - Centre Ouest
Relais CA ELAN - La Meyze;36 Rue Gabriel Debregeas, 87800 La Meyze;87800;45,6171808;1,2146512;Crédit Agricole - Centre Ouest
Relais CA BONNET BRIGITTE - LA PEROUILLE;LE BOURG, 36350 LA PEROUILLE;36350;46,70365706794693;1,513832298904295;Crédit Agricole - Centre Ouest
Relais CA LE VIEUX CHATEAU - LA ROCHE L ABEILLE;LE BOURG, 87800 LA ROCHE L ABEILLE;87800;1,24126;45,5962;Crédit Agricole - Centre Ouest
Relais CA PHARMACIE MILLET - Ladignac-le-Long;6 Rue Pierre et Marie Curie, 87500 Ladignac-le-Long;87500;45,5821324;1,1152887;Crédit Agricole - Centre Ouest
Agence bancaire LAURIERE;18 PLACE DU GENERAL THOUMAS, 87370 Laurière;87370;;;Crédit Agricole - Centre Ouest
Agence bancaire LE BLANC;15, Rue de la République,, 36300 LE BLANC;36300;;;Crédit Agricole - Centre Ouest
Relais CA L'ESTAMINET DES AMIS - LE CHATENET EN DOGNON;LE BOURG, 87400 LE CHATENET EN DOGNON;87400;45,9058;1,50623;Crédit Agricole - Centre Ouest
Agence bancaire LE DORAT;11, Grande Rue,, 87210 LE DORAT;87210;;;Crédit Agricole - Centre Ouest
Guichet Automatique de banque AUTOMATE - INTER LE MAGNY;18 RUE DES AJONCS, 36400 LE MAGNY;36400;46,576183;1,974047;Crédit Agricole - Centre Ouest
Distributeur automatique de billets AUTOMATE - INTER LE MAGNY;18 Rue des Ajoncs, 36400 Le Magny;36400;46,576183;1,974047;Crédit Agricole - Centre Ouest
Agence bancaire LE PALAIS SUR VIENNE;11, Rue Jean Jaurès,, 87410 LE PALAIS SUR VIENNE;87410;;;Crédit Agricole - Centre Ouest
Agence bancaire LE POINCONNET;65, Avenue de la Forêt,, 36330 LE POINCONNET;36330;;;Crédit Agricole - Centre Ouest
Relais CA DOMINGUES PATRICIA - LES CARS;LE BOURG, 87230 LES CARS;87230;45,6785;1,07307;Crédit Agricole - Centre Ouest
Agence bancaire LEVROUX;18, Place de la République,, 36110 LEVROUX;36110;;;Crédit Agricole - Centre Ouest
Relais CA RESTAURANT LE CAMPAGNARD - Lignac;47 Avenue de la Liberté, 36370 Lignac;36370;46,4658117;1,2192545;Crédit Agricole - Centre Ouest
Agence bancaire AGENCE DES PROFESSIONS LIBERALES 87;247, Rue Francois Perrin,, 87000 LIMOGES;87000;45,825049;1,230124;Crédit Agricole - Centre Ouest
Agence bancaire AGENCE ENTREPRISE 87;20 Rue Pierre Boulez,, 87000 LIMOGES;87000;45,834544;1,275402;Crédit Agricole - Centre Ouest
Agence bancaire AGENCE des PROFESSIONNELS 87;20 Rue Pierre Boulez, 87044 LIMOGES;87044;45,834544;1,275402;Crédit Agricole - Centre Ouest
Guichet Automatique de banque AUTOMATE - LIMOGES CHU;77 RUE CHARLES LEGENDRE, 87000 LIMOGES;87000;45,814143;1,244333;Crédit Agricole - Centre Ouest
Distributeur automatique de billets AUTOMATE - LIMOGES CHU;77 RUE CHARLES LEGENDRE, 87000 LIMOGES;87000;45,814143;1,244333;Crédit Agricole - Centre Ouest
Guichet Automatique de banque AUTOMATE - LIMOGES FAMILY VILLAGE;BAT E 30 RUE AMEDEE GORDINI, 87280 LIMOGES;87280;45,894993;1,282685;Crédit Agricole - Centre Ouest
Distributeur automatique de billets AUTOMATE - LIMOGES FAMILY VILLAGE;BAT E 30 RUE AMEDEE GORDINI, 87280 LIMOGES;87280;45,894993;1,282685;Crédit Agricole - Centre Ouest
Guichet Automatique de banque AUTOMATE - LIMOGES JAURES THEATRE;46 RUE JEAN JAURES, 87000 LIMOGES;87000;45,83205;1,258647;Crédit Agricole - Centre Ouest
Distributeur automatique de billets AUTOMATE - LIMOGES JAURES THEATRE;46 Rue Jean Jaurès, 87000 Limoges;87000;45,83205;1,258647;Crédit Agricole - Centre Ouest
Guichet Automatique de banque AUTOMATE - LIMOGES LA MOTTE;PLACE DE LA MOTTE, 87000 LIMOGES;87000;45,82984;1,256844;Crédit Agricole - Centre Ouest
Distributeur automatique de billets AUTOMATE - LIMOGES LA MOTTE;Place de la Motte, 87000 Limoges;87000;45,82984;1,256844;Crédit Agricole - Centre Ouest
Guichet Automatique de banque AUTOMATE - LIMOGES VENTADOUR;RUE BERNART DE VENTADOUR, 87000 LIMOGES;87000;45,813986;1,267691;Crédit Agricole - Centre Ouest
Distributeur automatique de billets AUTOMATE - LIMOGES VENTADOUR;Rue Bernart de Ventadour, 87000 Limoges;87000;45,813986;1,267691;Crédit Agricole - Centre Ouest
Agence bancaire BANQUE PRIVEE 87;20 rue Pierre Boulez,, 87000 LIMOGES;87000;45,834544;1,275402;Crédit Agricole - Centre Ouest
Relais CA BISTROT DES RUCHOUX - Limoges;75 Avenue des Ruchoux, 87100 Limoges;87100;45,8380229;1,2456764;Crédit Agricole - Centre Ouest
Relais CA CHANVALON JEAN FRANCOIS - Limoges;214 Avenue Baudin, 87000 Limoges;87000;45,8169749;1,2511017;Crédit Agricole - Centre Ouest
Agence bancaire HABITAT CONSEIL 87;48, Avenue des Bénédictins,, 87000 LIMOGES;87000;45,8324811;1,265228;Crédit Agricole - Centre Ouest
Relais CA LE MARACANA - Limoges;100 Rue Armand Dutreix, 87000 Limoges;87000;45,83124249999999;1,2416298;Crédit Agricole - Centre Ouest
Agence bancaire LIMOGES BABYLONE;105, Rue de Babylone, 87000 LIMOGES;87000;45,8220462;1,274018;Crédit Agricole - Centre Ouest
Agence bancaire LIMOGES BEAUBREUIL;1, Place Beaubreuil, Centre Commercial La Coupole,, 87280 LIMOGES;87280;45,88003045;1,29342556;Crédit Agricole - Centre Ouest
Agence bancaire LIMOGES CARMES;13, Place des Carmes,, 87000 LIMOGES;87000;45,829654;1,251574;Crédit Agricole - Centre Ouest
Agence bancaire LIMOGES CASSEAUX;20 rue Pierre BOULEZ, 87044 LIMOGES;87044;45,834544;1,275402;Crédit Agricole - Centre Ouest
Agence bancaire LIMOGES CORGNAC;14, Rue G Briquet, Centre Commercial Corgnac, 87100 LIMOGES;87100;45,8409986;1,23321533;Crédit Agricole - Centre Ouest
Agence bancaire LIMOGES ESPACE JAURES - CARNOT;24 Rue Jean Jaurès, 87000 Limoges;87000;45,8305017;1,2599891;Crédit Agricole - Centre Ouest
Agence bancaire LIMOGES LANDOUGE;225, Avenue de Landouge,, 87100 LIMOGES;87100;45,843369;1,1929871;Crédit Agricole - Centre Ouest
Agence bancaire LIMOGES LIBERATION;50, Avenue Libération,, 87000 LIMOGES;87000;45,8336267;1,2580033;Crédit Agricole - Centre Ouest
Agence bancaire LIMOGES VANTEAUX;29, Boulevard de Vanteaux,, 87000 LIMOGES;87000;45,8202761;1,23776436;Crédit Agricole - Centre Ouest
Agence Immobilière SQUARE HABITAT 87 Square Habitat;29 rue Turgot, 87000 LIMOGES;87000;45,831263;1,256458;Crédit Agricole - Centre Ouest
Relais CA BOUCHERIE CHARCUTERIE - LINARDS;LE BOURG, 87130 LINARDS;87130;45,6753;1,50764;Crédit Agricole - Centre Ouest
Relais CA LE JADIS - LINARDS;1 PLACE DU 11 NOVEMBRE 1918, 87130 LINARDS;87130;45,700621;1,5331472;Crédit Agricole - Centre Ouest
Relais CA LES MILLE SAVEURS - Lingé;2 Route de Martizay, 36220 Lingé;36220;46,754625;1,0835822;Crédit Agricole - Centre Ouest
Relais CA CAFE DE LA PLACE - Luant;4 Place de l'Église, 36350 Luant;36350;46,7332869;1,5584101;Crédit Agricole - Centre Ouest
Relais CA LE FOURNIL DE LA CISTUDE - Luant;8 Place de l'Église, 36350 Luant;36350;46,7335941;1,5585234;Crédit Agricole - Centre Ouest
Agence bancaire LUCAY LE MALE;2, Place de Verdun,, 36360 LUCAY-LE-MALE;36360;;;Crédit Agricole - Centre Ouest
Relais CA BAR LE TOTEM - LURAIS;1 PL DES TILLEULS, 36220 LURAIS;36220;46,7047;0,951604;Crédit Agricole - Centre Ouest
Relais CA Auberge du grebe - LUREUIL;6 B PL DE L'EGLISE, 36220 LUREUIL;36220;46,7447764;1,0425952;Crédit Agricole - Centre Ouest
Relais CA SPAR - LUSSAC LES EGLISES;LE BOURG, 87360 LUSSAC LES EGLISES;87360;46,3456;1,1746;Crédit Agricole - Centre Ouest
Agence bancaire MAGNAC BOURG;2, Place des Docteurs DONNET,, 87380 MAGNAC BOURG;87380;;;Crédit Agricole - Centre Ouest
Agence bancaire MAGNAC LAVAL;2, Rue Camille Grellier,, 87190 MAGNAC-LAVAL;87190;;;Crédit Agricole - Centre Ouest
Relais CA ALIMENTATION GENERALE - Martizay;2 Place de l'Église, 36220 Martizay;36220;46,806452;1,0430711;Crédit Agricole - Centre Ouest
Relais CA BERGEAULT FRERE ET SŒUR - Martizay;5 Rue du Blanc, 36220 Martizay;36220;46,8063069;1,0424658;Crédit Agricole - Centre Ouest
Relais CA JOUBERT CLAUDE - Martizay;3 Rue de Verdun, 36220 Martizay;36220;46,8068057;1,0416883;Crédit Agricole - Centre Ouest
Relais CA LES FEUILLARDIERS - Marval;Le Bourg, 87440 Marval;87440;45,6272458;0,7989604;Crédit Agricole - Centre Ouest
Relais CA CLA-TIM - MASLEON;LE BOURG, 87130 MASLEON;87130;45,7639;1,56835;Crédit Agricole - Centre Ouest
Relais CA LE PETIT BAR DE LA MAIRIE - MERS SUR INDRE;22 R GEORGE SAND, 36230 MERS SUR INDRE;36230;46,6585652;1,8812926;Crédit Agricole - Centre Ouest
Relais CA CAFE DES SPORTS - MEUZAC;25 RUE DU 11 NOVEMBRE 1918, 87380 MEUZAC;87380;45,5533;45,5533;Crédit Agricole - Centre Ouest
Agence bancaire MEZIERES EN BRENNE;7, Place du Général de Gaulle,, 36290 MEZIERES EN BRENNE;36290;;;Crédit Agricole - Centre Ouest
Agence bancaire MEZIERES SUR ISSOIRE;28, Place de la République,, 87330 MEZIERES SUR ISSOIRE;87330;;;Crédit Agricole - Centre Ouest
Relais CA CAFE DES SPORTS CHEZ CATHERINE - Méobecq;2 Route de Neuillay, 36500 Méobecq;36500;46,7364066;1,4118375;Crédit Agricole - Centre Ouest
Relais CA LE MONCABRIEN - MONTCHEVRIER;LE BOURG, 36140 MONTCHEVRIER;36140;46,48100288;1,740873531;Crédit Agricole - Centre Ouest
Relais CA EPICERIE LA GRILLADE - Montgivray;13 Rue Pierre Bordat, 36400 Montgivray;36400;46,6033227;1,982313;Crédit Agricole - Centre Ouest
Agence bancaire NANTIAT;12 Avenue de la Gare,, 87140 NANTIAT;87140;;;Crédit Agricole - Centre Ouest
Relais CA PANIER SYMPA - NEDDE;LE BOURG, 87120 NEDDE;87120;45,7192;1,83169;Crédit Agricole - Centre Ouest
Relais CA RESTAURANT LE DUCHE - Neuvy-Saint-Sépulchre;17 Rue Emile Forichon, 36230 Neuvy-Saint-Sépulchre;36230;46,59623819999999;1,8078081;Crédit Agricole - Centre Ouest
Agence bancaire NEUVY SAINT SEPULCHRE;21, Rue Emile Forichon,, 36230 NEUVY-ST-SEPULCHRE;36230;;;Crédit Agricole - Centre Ouest
Agence bancaire NEXON;1, Avenue Charles de Gaulle,, 87800 NEXON;87800;;;Crédit Agricole - Centre Ouest
Agence bancaire NIEUL;13, Place Emile Foussat,, 87510 NIEUL;87510;;;Crédit Agricole - Centre Ouest
Relais CA PANIER SYMPA - Niherne;1 Place de l'Église, 36250 Niherne;36250;46,8291777;1,5646903;Crédit Agricole - Centre Ouest
Relais CA VIVAL - NOUIC;19 PL DOCTEUR JUSTIN LABUZE, 87330 NOUIC;87330;46,0597;0,920054;Crédit Agricole - Centre Ouest
Relais CA TABAC BOUTIN - OBTERRE;LE BOURG OBTERRE, 36290 OBTERRE;36290;46,9155;1,03727;Crédit Agricole - Centre Ouest
Agence bancaire ORADOUR SUR GLANE;18, Avenue du 10 Juin 1944,, 87520 ORADOUR SUR GLANE;87520;;;Crédit Agricole - Centre Ouest
Agence bancaire ORADOUR SUR VAYRES;13, Rue du Général de Gaulle,, 87150 ORADOUR SUR VAYRES;87150;;;Crédit Agricole - Centre Ouest
Agence bancaire Epicave;Place de l'Eglise,, 36190 ORSENNES;36190;;;Crédit Agricole - Centre Ouest
Agence bancaire PANAZOL;21, Place du Commerce,, 87350 PANAZOL;87350;;;Crédit Agricole - Centre Ouest
Relais CA LE RELAIS DES CINQ ROUTES - Parnac;Les Cinq Routes, 36170 Parnac;36170;46,4426608;1,4890914;Crédit Agricole - Centre Ouest
Relais CA LA FORGE - SARL LEAD - PAULNAY;4 PLACE ST ETIENNE, 36290 PAULNAY;36290;46,8502;1,14775;Crédit Agricole - Centre Ouest
Relais CA PROXI - PEYRAT LE CHATEAU;8 Avenue de la Tour, 87470 PEYRAT LE CHATEAU;87470;45,8145549;1,7727142;Crédit Agricole - Centre Ouest
Relais CA QUINCAILLERIE BASSET - OUT ET EQUIP MAISON - PEYRAT LE CHATEAU;PLACE DU CHAMP DE FOIRE, 87470 PEYRAT LE CHATEAU;87470;45,8136;1,77264;Crédit Agricole - Centre Ouest
Relais CA CHEZ SYLVIE - Peyrat-de-Bellac;9 Rue de l'Ancienne Mairie, 87300 Peyrat-de-Bellac;87300;46,1405848;1,0348351;Crédit Agricole - Centre Ouest
Agence bancaire PIERRE BUFFIERE;2, Avenue de Toulouse,, 87260 PIERRE BUFFIERE;87260;;;Crédit Agricole - Centre Ouest
Relais CA GARAGE DU POULAIN - POULAINES;LA CROIX MAURE RTE DE VATAN, 36210 POULAINES;36210;47,1473;1,66698;Crédit Agricole - Centre Ouest
Relais CA PERRIN DIDIER - Pouligny-Notre-Dame;POULIGNY-NOTRE-DAME, 36160 Pouligny-Notre-Dame;36160;46,4886033;2,013702;Crédit Agricole - Centre Ouest
Relais CA AUBERGE DE L'INDROIS - Preaux;3 Route Villedomain, 36240 Preaux;36240;47,0217143;1,2926741;Crédit Agricole - Centre Ouest
Relais CA BOULANGERIE RENAUD - Prissac;Rue Robert Nogrette, 36370 Prissac;36370;46,510086;1,3092537;Crédit Agricole - Centre Ouest
Relais CA CAFE DE LA PLACE - PRISSAC;3 PLACE DU 8 MAI, 36370 PRISSAC;36370;46,5099;1,30846;Crédit Agricole - Centre Ouest
Relais CA LE RAZES - RAZES;3 RTE MAUVE, 87640 RAZES;87640;46,0363262;1,3449519;Crédit Agricole - Centre Ouest
Agence bancaire REUILLY;3, Place de la République,, 36260 REUILLY;36260;;;Crédit Agricole - Centre Ouest
Agence bancaire RILHAC RANCON;Place du 19 mars 1962,, 87570 RILHAC RANCON;87570;;;Crédit Agricole - Centre Ouest
Relais CA NOC PHILIPPE - RIVARENNES;2 RUE DES DAMES, 36800 RIVARENNES;36800;46,6359;1,38623;Crédit Agricole - Centre Ouest
Agence bancaire ROCHECHOUART;4, Place des Halles,, 87600 ROCHECHOUART;87600;;;Crédit Agricole - Centre Ouest
Relais CA BOULANGERIE - Rosnay;5 RUE ST ANDRE, 36300 Rosnay;36300;46,7006866;1,2141609;Crédit Agricole - Centre Ouest
Relais CA CHEZ P'TIT JEAN - Ruffec;74 Route nationale, 36300 Ruffec;36300;46,62959499999999;1,1692807;Crédit Agricole - Centre Ouest
Agence bancaire SAINT AOUT;23, Rue de l'Eglise, 36120 SAINT AOUT;36120;;;Crédit Agricole - Centre Ouest
Agence bancaire SAINT BENOIT DU SAULT;Rue Georges Ratier,, 36170 SAINT BENOIT DU SAULT;36170;;;Crédit Agricole - Centre Ouest
Relais CA L'ETAPE - SAINT BONNET DE BELLAC;ROUTE DE POITIERS, 87300 SAINT BONNET DE BELLAC;87300;46,168;0,95511;Crédit Agricole - Centre Ouest
Relais CA STATION SERVICE ELAN - SAINT DENIS DE JOUHET;4 AV DE L EUROPE, 36230 SAINT DENIS DE JOUHET;36230;46,5301114;1,8657882;Crédit Agricole - Centre Ouest
Agence bancaire SAINT GAULTIER;37, Place du Champ de Foire ,, 36800 SAINT GAULTIER;36800;;;Crédit Agricole - Centre Ouest
Agence bancaire SAINT GERMAIN LES BELLES;3, Avenue de la Gare,, 87380 SAINT GERMAIN LES BELLES;87380;;;Crédit Agricole - Centre Ouest
Agence bancaire SAINT JUNIEN;2, Bis Avenue Sadi Carnot,, 87200 SAINT JUNIEN;87200;;;Crédit Agricole - Centre Ouest
Relais CA BOULANGERIE - SAINT JUST LE MARTEL;RUE POULBOT, 87590 SAINT JUST LE MARTEL;87590;45,8612;1,38464;Crédit Agricole - Centre Ouest
Agence bancaire SAINT LAURENT SUR GORRE;1, Avenue du 8 Mai 1945, 87310 SAINT LAURENT SUR GORRE;87310;;;Crédit Agricole - Centre Ouest
Agence bancaire SAINT LEONARD DE NOBLAT;10, Place du Champ de Mars,, 87400 SAINT LEONARD DE NOBLAT;87400;;;Crédit Agricole - Centre Ouest
Guichet Automatique de banque AUTOMATE - INTER ST MARCEL;ROUTE DE SAINT MARIN, 36200 SAINT MARCEL;36200;46,604507;1,507361;Crédit Agricole - Centre Ouest
Agence bancaire SAINT MATHIEU;7, Place de l'église,, 87440 SAINT MATHIEU;87440;;;Crédit Agricole - Centre Ouest
Relais CA LUNA FOURNIL - SAINT PAUL;5 RUE DU 11 NOVEMBRE 1918, 87260 SAINT PAUL;87260;45,7502394;1,432689;Crédit Agricole - Centre Ouest
Relais CA L'EPI MARCHOIS - SAINT PLANTAIRE;15 rue principale, 36190 SAINT PLANTAIRE;36190;46,4566019;1,671673;Crédit Agricole - Centre Ouest
Relais CA LE SEVEROIS - SAINT SEVERE;41 AVENUE D'AUVERGNE, 36160 SAINT SEVERE;36160;46,4862728;2,0718877;Crédit Agricole - Centre Ouest
Relais CA VIVAL - SAINT SORNIN LEULAC;38 AV DE LA PROMENADE, 87290 SAINT SORNIN LEULAC;87290;46,1992;1,29671;Crédit Agricole - Centre Ouest
Relais CA KERGUELEN - SAINT SULPICE LAURIERE;40 AV DE LA GARE, 87370 SAINT SULPICE LAURIERE;87370;46,0479543;1,4794447;Crédit Agricole - Centre Ouest
Agence bancaire SAINT SULPICE LES FEUILLES;5, Rue Jean Jaurès,, 87160 SAINT SULPICE LES FEUILLES;87160;;;Crédit Agricole - Centre Ouest
Relais CA CGS SERVICES - SAINT VICTURNIEN;15 AV DU PONT, 87420 SAINT VICTURNIEN;87420;45,8746334;1,0126037;Crédit Agricole - Centre Ouest
Relais CA BOULANGERIE - SAINT-CHRISTOPHE-EN BOUCHERIE;LE BOURG, 36400 SAINT-CHRISTOPHE-EN BOUCHERIE;36400;46,6781;2,1212;Crédit Agricole - Centre Ouest
Relais CA CARPENTIER MARTINE - Saint-Christophe-en-Bazelle;11 Rue de Bazelle, 36210 Saint-Christophe-en-Bazelle;36210;47,1915668;1,7113423;Crédit Agricole - Centre Ouest
Relais CA CHEZ MARLENE - Saint-Hilaire-la-Treille;4 Rue Robert Saunier, 87190 Saint-Hilaire-la-Treille;87190;46,25145690000001;1,3175934;Crédit Agricole - Centre Ouest
Relais CA TABAC - Saint-Maur;5 Impasse du Gué, 36250 Saint-Maur;36250;46,8048899;1,6382765;Crédit Agricole - Centre Ouest
Relais CA KAT'NDO - Saint-Maurice-les-Brousses;6 Avenue de Limoges, 87800 Saint-Maurice-les-Brousses;87800;45,7008166;1,237142;Crédit Agricole - Centre Ouest
Relais CA LE SAINT CYRAN - Saint-Michel-en-Brenne;18 Place Saint-Cyran, 36290 Saint-Michel-en-Brenne;36290;46,8056574;1,1578323;Crédit Agricole - Centre Ouest
Agence bancaire SAINT YRIEIX LA PERCHE;18 Boulevard de L'Hôtel de ville, 87500 Saint-Yrieix-la-Perche;87500;;;Crédit Agricole - Centre Ouest
Agence bancaire SAINTE SEVERE;2, Rue des Gardes,, 36160 SAINTE SEVERE;36160;;;Crédit Agricole - Centre Ouest
Relais CA BOUCHERIE - Solignac;59 Avenue Saint-Eloi, 87110 Solignac;87110;45,7554373;1,274274;Crédit Agricole - Centre Ouest
Relais CA LE TRISTELL - ST LEGER MAGNAZEIX;10 RUE DU CLOCHER, 87190 ST LEGER MAGNAZEIX;87190;46,2883;1,24758;Crédit Agricole - Centre Ouest
Relais CA ALIMENTATION GENERALE - ST MAUR;5 RTE DE CHATEAUROUX VILLERS LES ORMES, 36250 ST MAUR;36250;46,8071323;1,6411332;Crédit Agricole - Centre Ouest
Relais CA BOULANGERIE PREVAUTEL - Thevet-Saint-Julien;16 Place de la Mairie, 36400 Thevet-Saint-Julien;36400;46,6374493;2,067265;Crédit Agricole - Centre Ouest
Agence bancaire TOURNON SAINT MARTIN;38, Rue de la Mairie,, 36220 TOURNON SAINT MARTIN;36220;;;Crédit Agricole - Centre Ouest
Relais CA CHEZ VIRGINIE - Tournon-Saint-Pierre;4 Rue de la Mairie, 37290 Tournon-Saint-Pierre;37290;46,7386162;0,9538729;Crédit Agricole - Centre Ouest
Relais CA MME RIBAULT SYLVIE - Tournon-Saint-Pierre;37 Rue de la Mairie, 37290 Tournon-Saint-Pierre;37290;46,7363189;0,9536222;Crédit Agricole - Centre Ouest
Agence bancaire VALENCAY;6, Rue de l'Auditoire,, 36600 VALENCAY;36600;;;Crédit Agricole - Centre Ouest
Relais CA BOUCHERIE - varennes sur fouzon;14 Rue Élie Granat, 36210 varennes sur fouzon;36210;47,2132795;1,6056176;Crédit Agricole - Centre Ouest
Agence bancaire VATAN;25, Avenue de la Libération,, 36150 VATAN;36150;;;Crédit Agricole - Centre Ouest
Relais CA LA GAILLARDISE - Velles;8 Route de Mosnay, 36330 Velles;36330;46,68903110000001;1,6484885;Crédit Agricole - Centre Ouest
Relais CA SARL NICAULT SABARD - VENDOEUVRES;7 PL ST JEAN, 36500 VENDOEUVRES;36500;46,8013;1,35429;Crédit Agricole - Centre Ouest
Relais CA POINT VERT CAFE DU CENTRE - Vendœuvres;53 Rue Grande, 36500 Vendœuvres;36500;46,8022116;1,3581725;Crédit Agricole - Centre Ouest
Relais CA HOTEL PREVAUTEL - Verneuil-sur-Igneraie;44 Rue des Potiers, 36400 Verneuil-sur-Igneraie;36400;46,6570977;2,0195276;Crédit Agricole - Centre Ouest
Relais CA LA FORGE - Vicq-Exemplet;26 Place du 8 Mai 45, 36400 Vicq-Exemplet;36400;46,628453;2,142892;Crédit Agricole - Centre Ouest
Relais CA EPICERIE GARRIVET - Vicq-sur-Nahon;9 Rue de l'Église, 36600 Vicq-sur-Nahon;36600;47,107567;1,5283213;Crédit Agricole - Centre Ouest
Relais CA CAFE BAR - VIJON;LE BOURG, 36160 VIJON;36160;45,9215345;0,7124978;Crédit Agricole - Centre Ouest
Agence bancaire VILLEDIEU SUR INDRE;43 bis, Rue du Général de Gaulle,, 36320 VILLEDIEU SUR INDRE;36320;;;Crédit Agricole - Centre Ouest
Relais CA GRAINETERIE BERTRAND - Villegouin;Rue du Moulin Neuf, 36500 Villegouin;36500;46,964045;1,374768;Crédit Agricole - Centre Ouest
Relais CA CAFE DES SPORTS - Vineuil;5 Rue de la Gare, 36110 Vineuil;36110;46,898;1,63501;Crédit Agricole - Centre Ouest
Relais CA ALIMENTATION GENERALE - Vouillon;13 Route d'Ardentes, 36100 Vouillon;36100;46,8207;1,9248;Crédit Agricole - Centre Ouest
Relais CA DELAVEAU JB - VOUILLON;13 RTE D ARDENTES, 36100 VOUILLON;36100;46,8207;1,9248;Crédit Agricole - Centre Ouest
Relais CA LE P'TIT ZYNC TABAC PRESSE JEUX - YZEURES SUR CREUSE;2 R PASTEUR, 37290 YZEURES SUR CREUSE;37290;46,7848;0,876008;Crédit Agricole - Centre Ouest
