nom;adresse;code_postal;latitude;longitude;region_source
Agence bancaire AMANCEY;15 A Grande Rue, 25330 AMANCEY;25330;;;Crédit Agricole - Franche Comte
Agence bancaire ARBOIS;58, grande rue, 39600 ARBOIS;39600;;;Crédit Agricole - Franche Comte
Agence bancaire ARC ET SENANS - Point Service Conseil;2 rue du centre Bourg, 25610 ARC ET SENANS;25610;;;Crédit Agricole - Franche Comte
Agence bancaire ARINTHOD;2 place de la Poste, lieu dit La Ville, 39240 ARINTHOD;39240;;;Crédit Agricole - Franche Comte
Relais CA SCAF DES ERYTHRONES - AROMAS;Zone artisanale champ rouge, 39240 AROMAS;39240;46,2929389;5,482430000000022;Crédit Agricole - Franche Comte
Agence bancaire AUDINCOURT;2, rue de Seloncourt, 25400 AUDINCOURT;25400;;;Crédit Agricole - Franche Comte
Relais CA AU P'TOT MEUNIER - Aumont;4 route de dole, 39800 Aumont;39800;46,9104624;5,632093800000007;Crédit Agricole - Franche Comte
Agence bancaire BAUME LES DAMES;14 Esplanade du Breuil, 25110 BAUME LES DAMES;25110;;;Crédit Agricole - Franche Comte
Agence bancaire BAVANS;4, grande rue, 25550 BAVANS;25550;;;Crédit Agricole - Franche Comte
Agence bancaire BEAUCOURT;3, Place SALENGRO, 90500 BEAUCOURT;90500;;;Crédit Agricole - Franche Comte
Relais CA SPRAD - MAXIMARCHE - BEAUFORT;rue du champ bouvier, 39190 BEAUFORT;39190;46,576566;5,43609;Crédit Agricole - Franche Comte
Agence bancaire BELFORT CENTRE;2 parking des Arts, 90000 BELFORT;90000;47,6413;6,86138;Crédit Agricole - Franche Comte
Agence bancaire BELFORT JEAN JAURES;148 Avenue Jean Jaurès, 90000 BELFORT;90000;47,65185;6,85096;Crédit Agricole - Franche Comte
Agence bancaire BELFORT LES QUAIS - Leclerc;1 AVENUE DU GENERAL DE GAULLE, 90000 BELFORT;90000;47,62864;6,863;Crédit Agricole - Franche Comte
Agence bancaire BELFORT VIEILLE VILLE;8B, Grande Rue, 90000 BELFORT;90000;47,63813;6,88112;Crédit Agricole - Franche Comte
Agence bancaire POLE PATRIMONIAL NORD FRANCHE COMTE;2 Place des Arts, 90000 Belfort;90000;47,6361927;6,8578494;Crédit Agricole - Franche Comte
Relais CA CHARMOILLAUX GEORGETTE - BELLEHERBE;23 grande rue, 25380 BELLEHERBE;25380;47,2630879;6,658055200000035;Crédit Agricole - Franche Comte
Relais CA LE P'TIT PIERRE - CHEVASSU PIERRE - Besain;7 Rue de Crotenay, 39800 Besain;39800;46,7823019;5,798237599999999;Crédit Agricole - Franche Comte
Agence bancaire BESANCON CHAPRAIS;85 D, rue de Belfort, 25000 BESANCON;25000;47,24992;6,03282;Crédit Agricole - Franche Comte
Agence bancaire BESANCON CUSENIER;11, avenue Elisée Cusenier, 25000 BESANCON;25000;47,24113;6,0259;Crédit Agricole - Franche Comte
Agence bancaire BESANCON Entreprises;Immeuble NOVATECH 2G Avenue des Montboucons, 25000 BESANCON;25000;47,251862;5,998951;Crédit Agricole - Franche Comte
Agence bancaire BESANCON FONTAINE ARGENT;50, av. Fontaine-Argent, 25000 BESANCON;25000;47,24789;6,03645;Crédit Agricole - Franche Comte
Agence bancaire BESANCON LE VIGNY;11 rue Alfred de Vigny, 25000 BESANCON;25000;47,21591;5,9626;Crédit Agricole - Franche Comte
Agence bancaire BESANCON MONTRAPON;22 bis, avenue de Montrapon, 25000 BESANCON;25000;47,24565;6,00975;Crédit Agricole - Franche Comte
Agence bancaire BESANCON PASTEUR;29, grande rue, 25000 BESANCON;25000;47,23872;6,02249;Crédit Agricole - Franche Comte
Agence bancaire BESANCON Pôle Santé;18 D Rue du Professeur Paul Milleret, 25000 BESANCON;25000;47,22338;5,95629;Crédit Agricole - Franche Comte
Agence bancaire BESANCON SAINT CLAUDE;84, rue de Vesoul, 25000 BESANCON;25000;47,24145;5,97849;Crédit Agricole - Franche Comte
Agence bancaire BESANCON SAINT-FERJEUX;98, rue de Dole, 25000 BESANCON;25000;47,23455;6,01122;Crédit Agricole - Franche Comte
Agence bancaire BESANCON TEMIS - Point service conseil;4 Avenue des Montboucons, 25000 BESANCON;25000;47,25074;6,0006;Crédit Agricole - Franche Comte
Agence bancaire BESSONCOURT;Zone de la Porte des Vosges 19 route du Stratégique, 90160 BESSONCOURT;90160;;;Crédit Agricole - Franche Comte
Relais CA O DELICE DE BEURRE - Beure;17 rue de lyon, 25270 Beure;25270;47,210009;6,000995900000021;Crédit Agricole - Franche Comte
Relais CA O FOURNIL DE BEURRE - Beure;55 rue de Besançon, 25270 Beure;25270;47,2070689;6,004467999999974;Crédit Agricole - Franche Comte
Agence bancaire BLETTERANS;44, rue Louis-le-Grand, 39140 BLETTERANS;39140;;;Crédit Agricole - Franche Comte
Relais CA FRUITIERE DE BONNETAGE - BONNETAGE;4 route de besancon, 25210 BONNETAGE;25210;47,18599279999999;6,719966399999976;Crédit Agricole - Franche Comte
Agence bancaire BOUCLANS;18, Grande Rue, 25360 BOUCLANS;25360;;;Crédit Agricole - Franche Comte
Relais CA SARL LA CHARMOTTE - BOULIGNEY;40 grande rue, 70800 BOULIGNEY;70800;47,8956281;6,236172200000056;Crédit Agricole - Franche Comte
Relais CA L AUTRE CAFE - BOULOT;grande rue, 70190 BOULOT;70190;47,4872339;5,945481100000052;Crédit Agricole - Franche Comte
Relais CA LOIGET GAUTHIER CHRISTIANE - BRETONVILLERS;8 D4096, 25380 BRETONVILLERS;25380;47,21926194795744;6,636030561901862;Crédit Agricole - Franche Comte
Relais CA LE CENTRAL BAR - MICHAUT REGINE - Breuches;12 Place Léon Grosjean, 70300 Breuches;70300;47,7985092;6,3273551;Crédit Agricole - Franche Comte
Relais CA LA MARMOTTE JURASSIENNE - Cernans;2 rue de salins, 39110 Cernans;39110;46,9321283;5,932004099999972;Crédit Agricole - Franche Comte
Agence bancaire CHAMPAGNOLE;48, av de la République, 39300 CHAMPAGNOLE;39300;46,74449;5,90945;Crédit Agricole - Franche Comte
Agence bancaire POLE AGRICULTURE JURA SUD;48 Avenue de la République, 39300 Champagnole;39300;46,7444158;5,9091374;Crédit Agricole - Franche Comte
Agence bancaire CHAMPLITTE;Place de l'Eglise, 70600 CHAMPLITTE;70600;;;Crédit Agricole - Franche Comte
Agence bancaire CHARQUEMONT;31 Grande Rue, 25140 CHARQUEMONT;25140;;;Crédit Agricole - Franche Comte
Relais CA LES DEUX PORTS - Chassey-lès-Scey;Le breuil, 70360 Chassey-lès-Scey;70360;47,643147;5,978287000000023;Crédit Agricole - Franche Comte
Agence bancaire CHATENOIS LES FORGES - Point Service Conseil;80 rue du General de Gaulle, 90700 CHATENOIS LES FORGES;90700;;;Crédit Agricole - Franche Comte
Agence bancaire CHAUSSIN;19 grande rue, 39120 CHAUSSIN;39120;;;Crédit Agricole - Franche Comte
Relais CA AU TRADITION'L - CHAUX;18 grande rue, 90330 CHAUX;90330;47,7038272;6,836495799999966;Crédit Agricole - Franche Comte
Relais CA L'EPICERIE D'ICI - CHAUX-DES-CROTENAY;21 grande rue, 39150 CHAUX-DES-CROTENAY;39150;46,6577664;5,965271900000062;Crédit Agricole - Franche Comte
Relais CA GUINCHARD CHANTAL - CHAUX-NEUVE;1 grande rue, 25240 CHAUX-NEUVE;25240;46,6796768;6,133503499999961;Crédit Agricole - Franche Comte
Relais CA AUBERGE DE CHOUX - CHOUX;7 route de la perrine, 39370 CHOUX;39370;46,3056223;5,768835299999978;Crédit Agricole - Franche Comte
Agence bancaire CLAIRVAUX;5 bis, grande rue, 39130 CLAIRVAUX LES LACS;39130;;;Crédit Agricole - Franche Comte
Agence bancaire CLERVAL;3 avenue Gaston Renaud, 25340 CLERVAL;25340;;;Crédit Agricole - Franche Comte
Agence bancaire COLOMBIER FONTAINE;28, grande rue, 25260 COLOMBIER FONTAINE;25260;;;Crédit Agricole - Franche Comte
Relais CA BELOT LAURENT PIZZERIA - CONFLANS-SUR-LANTERNE;9 place de la république, 70800 CONFLANS-SUR-LANTERNE;70800;47,8162403;6,208692100000008;Crédit Agricole - Franche Comte
Relais CA PAILLOUX SEVERINE - Corre;31 Rue Jean Monasson, 70500 Corre;70500;47,9179107;5,990808599999999;Crédit Agricole - Franche Comte
Relais CA PHARMACIE VALERIE TARD - Corre;25 Rue Jean Monasson, 70500 Corre;70500;47,9180888;5,991329599999999;Crédit Agricole - Franche Comte
Agence bancaire SAINT LUPICIN;1, rue Lacuzon, 39170 COTEAUX DU LIZON;39170;;;Crédit Agricole - Franche Comte
Relais CA VIVAL - COURLAOUX;35 rue du chalet, 39570 COURLAOUX;39570;46,6676992;5,461077400000022;Crédit Agricole - Franche Comte
Agence bancaire COUSANCE;61, grande rue2, 39190 COUSANCE;39190;;;Crédit Agricole - Franche Comte
Agence bancaire DAMPIERRE;3 bis, rue de Besançon, 39700 DAMPIERRE;39700;;;Crédit Agricole - Franche Comte
Agence bancaire DAMPIERRE SUR SALON;1, rue Louis Dornier, 70180 DAMPIERRE SUR SALON;70180;;;Crédit Agricole - Franche Comte
Agence bancaire DANJOUTIN;2, rue d'Andelnans, 90400 DANJOUTIN;90400;;;Crédit Agricole - Franche Comte
Relais CA MME SIRLONGE MARIELLE - DASLE;10 rue du moulin, 25230 DASLE;25230;47,4770103;6,893497199999956;Crédit Agricole - Franche Comte
Relais CA PHARMACIE DE DASLE - DASLE;30 rue centrale, 25230 DASLE;25230;47,4781666;6,895005900000001;Crédit Agricole - Franche Comte
Agence bancaire DELLE;11 Rue de la 1ère Armée Française, 90100 Delle;90100;;;Crédit Agricole - Franche Comte
Agence bancaire DEVECEY;Ctre commercial S CI CHANOIS, 25870 DEVECEY;25870;;;Crédit Agricole - Franche Comte
Relais CA BOUCHERIE CHARCUTERIE CHANUT - Dole;40 Avenue du Général Eisenhower, 39100 Dole;39100;47,0961164;5,4997604;Crédit Agricole - Franche Comte
Agence bancaire DOLE BEDUGUE;76, avenue du Maréchal Juin, 39100 DOLE;39100;47,07485;5,4969;Crédit Agricole - Franche Comte
Agence bancaire DOLE CENTRE;4, rue de Besançon, 39100 DOLE;39100;47,09425;5,49637;Crédit Agricole - Franche Comte
Agence bancaire DOLE CHALON;20 Avenue Jacques Duhamel, 39100 Dole;39100;47,0885056;5,486776599999985;Crédit Agricole - Franche Comte
Agence bancaire POLE AGRICULTURE DOUBS SAONE LOUE;4 Rue de Besançon, 39100 Dole;39100;47,0941397;5,496233;Crédit Agricole - Franche Comte
Agence bancaire POLE PATRIMONIAL DOUBS SAONE LOUE;4 Rue de Besançon, 39100 Dole;39100;47,0941397;5,496233;Crédit Agricole - Franche Comte
Agence bancaire POLE PROFESSIONNEL DOUBS SAONE LOUE;4 Rue de Besançon, 39100 Dole;39100;47,0941397;5,496233;Crédit Agricole - Franche Comte
Agence bancaire DOUBS;9 Rue de Besançon, 25300 DOUBS;25300;;;Crédit Agricole - Franche Comte
Relais CA SARL COURTOY - Ehuns;route de visoncourt, 70300 Ehuns;70300;47,77258;6,313086999999996;Crédit Agricole - Franche Comte
Relais CA EURL FERME DES GRANDS CHAMPS - ESPRELS;1 rue du 7ème RCA, 70110 ESPRELS;70110;47,5370701;6,379260199999976;Crédit Agricole - Franche Comte
"Nos agences
							à Ehuns";;;47,5351364;6,373561300000006;Crédit Agricole - Franche Comte
Agence bancaire ESSERT;82 T rue du General de Gaulle, 90850 ESSERT;90850;;;Crédit Agricole - Franche Comte
Agence bancaire FAVERNEY - Point Service Conseil;Place du Général de Gaulle, 70160 FAVERNEY;70160;;;Crédit Agricole - Franche Comte
Agence bancaire FESCHES LE CHATEL;5, rue du 8 mai, 25490 FESCHES LE CHATEL;25490;;;Crédit Agricole - Franche Comte
Relais CA GARAGE VUILLEMIN - FLANGEBOUCHE;12 GRANDE RUE, 25390 FLANGEBOUCHE;25390;47,13945034896484;6,471596988360602;Crédit Agricole - Franche Comte
Relais CA LA FRUITIERE DE FONTAIN - FONTAIN;route de pugey, 25660 FONTAIN;25660;47,1908114;6,01647939999998;Crédit Agricole - Franche Comte
Relais CA PHARMACIE SCHWARTZMANN - Fontaine-lès-Luxeuil;45 Rue Marquiset, 70800 Fontaine-lès-Luxeuil;70800;47,85676369999999;6,3339097;Crédit Agricole - Franche Comte
Agence bancaire FOUGEROLLES;37, grande rue, 70220 FOUGEROLLES;70220;;;Crédit Agricole - Franche Comte
Relais CA JACQUEMIN GILLES - FRAHIER-ET-CHATEBIER;6 rue des champs, 70400 FRAHIER-ET-CHATEBIER;70400;47,6605223;6,743899300000066;Crédit Agricole - Franche Comte
Agence bancaire FRASNE;29 grande rue, 25560 FRASNE;25560;;;Crédit Agricole - Franche Comte
Agence bancaire FRESNE ST MAMES - Point Service Conseil;Grande Rue, 70130 FRESNE ST MAMES;70130;;;Crédit Agricole - Franche Comte
Relais CA AU COEUR FONDANT - Fretigney-et-veloreille;19 grande rue, 70130 Fretigney-et-veloreille;70130;47,4875479;5,946018999999978;Crédit Agricole - Franche Comte
Relais CA SNC IONI - GIGNY;route de lons, 39320 GIGNY;39320;46,4552687;5,460946000000035;Crédit Agricole - Franche Comte
Agence bancaire GILLEY;4 avenue De Lattre de Tassigny, 25650 GILLEY;25650;;;Crédit Agricole - Franche Comte
Agence bancaire GIROMAGNY;10, Place des Mineurs, 90200 GIROMAGNY;90200;;;Crédit Agricole - Franche Comte
Relais CA SARL SOUS L'ACACIA - GOURGEON;2 RUE DE VESOUL, 70120 GOURGEON;70120;47,7210541;5,843439600000011;Crédit Agricole - Franche Comte
Agence bancaire GRAND CHARMONT;7, rue de Sochaux, 25200 GRAND CHARMONT;25200;;;Crédit Agricole - Franche Comte
Agence bancaire GRANDVILLARS;29, rue du Général Leclerc, 90600 GRANDVILLARS;90600;;;Crédit Agricole - Franche Comte
Agence bancaire GRAY;13, rue Gambetta, 70100 GRAY;70100;;;Crédit Agricole - Franche Comte
Relais CA AU SALON DE LAURA - Guyans-vennes;21 grande rue, 25390 Guyans-vennes;25390;47,1557337;6,570533800000021;Crédit Agricole - Franche Comte
Agence bancaire GY;2, rue Beauregard, 70700 GY;70700;;;Crédit Agricole - Franche Comte
Agence bancaire HERICOURT;31, av Léon Jouhaux, 70400 HERICOURT;70400;;;Crédit Agricole - Franche Comte
Agence bancaire HERIMONCOURT;8, rue Pierre Peugeot, 25310 HERIMONCOURT;25310;;;Crédit Agricole - Franche Comte
Relais CA Paquetteclop - Houtaud;34 grande rue, 25300 Houtaud;25300;46,91657970000001;6,308521799999994;Crédit Agricole - Franche Comte
Relais CA SNC LE JOKER - JOUGNE;5 place Butigliera alta, 25370 JOUGNE;25370;46,7624342;6,388450499999976;Crédit Agricole - Franche Comte
Agence bancaire JUSSEY;13  rue Gambetta, 70500 JUSSEY;70500;;;Crédit Agricole - Franche Comte
Agence bancaire L'ISLE SUR LE DOUBS;6 rue Mal Lattre de Tassigny, 25250 L'ISLE SUR LE DOUBS;25250;;;Crédit Agricole - Franche Comte
Relais CA JANIER DUBRY LIONEL - La Marre;7 Rue de la Ranche, 39210 La Marre;39210;46,7343698;5,698651099999999;Crédit Agricole - Franche Comte
Relais CA CHEZ LOU-ET - La rivière-Drugeon;2 places charles le téméraire, 25560 La rivière-Drugeon;25560;46,8673097;6,216015200000015;Crédit Agricole - Franche Comte
Relais CA La fruitière des Lacs - Labergement-Sainte-Marie;1 rue derrière chez Saget, 25160 Labergement-Sainte-Marie;25160;46,774381;6,282316000000037;Crédit Agricole - Franche Comte
Relais CA MARIE STEPHANE-LAMOURA ALIMENTAT - LAMOURA;469 grande rue, 39310 LAMOURA;39310;46,39474320000001;5,967874064418083;Crédit Agricole - Franche Comte
Relais CA SNC NADEN - LAVONCOURT;39 rue de l'Europe, 70120 LAVONCOURT;70120;47,62414090000001;5,784045800000058;Crédit Agricole - Franche Comte
Relais CA BOULANGERIE DUCOTEY - Le Deschaux;19 route de dole, 39120 Le Deschaux;39120;46,952605;5,502192000000036;Crédit Agricole - Franche Comte
Agence bancaire LE RUSSEY;7 Place Dominique Parrenin, 25210 LE RUSSEY;25210;;;Crédit Agricole - Franche Comte
Agence bancaire LES HOPITAUX NEUFS;7, place de la Mairie, 25370 LES HOPITAUX NEUFS;25370;;;Crédit Agricole - Franche Comte
Agence bancaire LES ROUSSES;62, rue Pasteur, 39220 LES ROUSSES;39220;;;Crédit Agricole - Franche Comte
Agence bancaire LEVIER;11, place de Verdun, 25270 LEVIER;25270;;;Crédit Agricole - Franche Comte
Relais CA VUILLET PAUL - LONGCHAUMOIS;39 GRANDE RUE, 39400 LONGCHAUMOIS;39400;46,4618999;5,932951099999968;Crédit Agricole - Franche Comte
Agence bancaire LONS Entreprises;340, B avenue d'Offenbourg, 39000 LONS LE SAUNIER;39000;46,67753;5,57045;Crédit Agricole - Franche Comte
Agence bancaire LONS LAFAYETTE;23, rue Lafayette, 39000 LONS LE SAUNIER;39000;46,67413;5,55171;Crédit Agricole - Franche Comte
Agence bancaire LONS MARJORIE;340 Avenue d'Offenbourg, 39009 LONS LE SAUNIER;39009;46,6775931;5,570951700000023;Crédit Agricole - Franche Comte
Agence bancaire LURE;56, av de la République, 70201 LURE;70201;;;Crédit Agricole - Franche Comte
Agence bancaire LUXEUIL LES BAINS;35 Rue Jules Jeanneney, 70300 LUXEUIL-LES-BAINS;70300;;;Crédit Agricole - Franche Comte
Agence bancaire MAICHE;6 bis Rue du Gymnase, 25120 Maîche;25120;;;Crédit Agricole - Franche Comte
Agence bancaire MANDEURE;1, rue du Temple, 25350 MANDEURE;25350;;;Crédit Agricole - Franche Comte
Agence bancaire MARNAY;34 avenue de Marnay la Ville, 70150 MARNAY;70150;;;Crédit Agricole - Franche Comte
Relais CA LE CHRISTIS - MATHAY;1367 rue du pont, 25700 MATHAY;25700;47,452586;6,790660000000003;Crédit Agricole - Franche Comte
Agence bancaire MELISEY;1 rue des Vosges, 70270 MELISEY;70270;;;Crédit Agricole - Franche Comte
Relais CA LE CACTUS - TISSERAND AURORA - Membrey;10 place de la fontaine, 70180 Membrey;70180;47,58925446062975;5,743209101852472;Crédit Agricole - Franche Comte
Agence bancaire BELFORT Entreprises;1 avenue de la Gare TGV, 90400 MEROUX;90400;;;Crédit Agricole - Franche Comte
Agence bancaire MOIRANS EN MONTAGNE;6, rue du Murgin, 39260 MOIRANS EN MONTAGNE;39260;;;Crédit Agricole - Franche Comte
Relais CA BOULANGERIE PATISSERIE CHALUMEAU - MOLINGES;10 rue des écoles, 39360 MOLINGES;39360;46,3557889;5,766607499999964;Crédit Agricole - Franche Comte
Relais CA MAISON CHALUMEAU - MOLINGES;10 rue des écoles, 39360 MOLINGES;39360;46,3557889;5,766607499999964;Crédit Agricole - Franche Comte
Agence bancaire MONT SOUS VAUDREY;11 bis route de Dole, 39380 MONT SOUS VAUDREY;39380;;;Crédit Agricole - Franche Comte
Agence bancaire MONTBELIARD CENTRE;50, place Albert Thomas, 25200 MONTBELIARD;25200;47,50976;6,80009;Crédit Agricole - Franche Comte
Agence bancaire MONTBELIARD Pied des Gouttes;Rue Jacques Foillet, 25200 MONTBELIARD;25200;47,500274;6,813991699999974;Crédit Agricole - Franche Comte
Agence bancaire MONTBENOIT;20 rue du Val Saugeais, 25650 MONTBENOIT;25650;;;Crédit Agricole - Franche Comte
Agence bancaire MONTBOZON;5 B, rue des Chennevières, 70230 MONTBOZON;70230;;;Crédit Agricole - Franche Comte
Relais CA SAS FOUGERAY - Montferrand-le-Château;20 Rue de Besançon, 25320 Montferrand-le-Château;25320;47,1826399;5,9083121;Crédit Agricole - Franche Comte
Agence bancaire MOREZ;165, rue de la République, 39400 MOREZ;39400;;;Crédit Agricole - Franche Comte
Agence bancaire MORTEAU;18, rue Saint Michel, 25500 MORTEAU;25500;;;Crédit Agricole - Franche Comte
Agence bancaire MOUCHARD - Point Service Conseil;12 Rue de Strasbourg, 39330 MOUCHARD;39330;;;Crédit Agricole - Franche Comte
Agence bancaire MOUTHE;21, grande rue, 25240 MOUTHE;25240;;;Crédit Agricole - Franche Comte
Relais CA BAULIER DISTRIBUTION NANCRAY - NANCRAY;8 grande rue, 25360 NANCRAY;25360;47,2439679;6,176353400000039;Crédit Agricole - Franche Comte
Relais CA LA FROM - NODS;19 grande rue,, 25580 NODS;25580;47,093847;6,340952000000016;Crédit Agricole - Franche Comte
Agence bancaire NOIDANS LES VESOUL;8, rue Noël Ory, 70000 NOIDANS LES VESOUL;70000;;;Crédit Agricole - Franche Comte
Relais CA PHARMACIE DE NOROY - Noroy-Le-Bourg;15 grande rue, 70000 Noroy-Le-Bourg;70000;47,61432321624962;6,305359328836062;Crédit Agricole - Franche Comte
Relais CA CERDA CERDOS - NOS VIES L'ART DU PAIN - novillars;13 b rue de besancon, 25220 novillars;25220;47,28586800000001;6,134742999999958;Crédit Agricole - Franche Comte
Agence bancaire NOZEROY;38, grande rue, 39250 NOZEROY;39250;;;Crédit Agricole - Franche Comte
Agence bancaire ORCHAMPS - Point Service Conseil;7 place du Monument, 39700 ORCHAMPS;39700;;;Crédit Agricole - Franche Comte
Agence bancaire ORCHAMPS VENNES;1 bis, grande rue, 25390 ORCHAMPS VENNES;25390;;;Crédit Agricole - Franche Comte
Agence bancaire ORGELET;5, chemin des Perrières, 39270 ORGELET;39270;;;Crédit Agricole - Franche Comte
Agence bancaire ORNANS;1 rue Saint Laurent, 25290 ORNANS;25290;;;Crédit Agricole - Franche Comte
Relais CA JMT AUTOS - PARCEY;36 Route Nationale, 39100 PARCEY;39100;47,0191469;5,4943442;Crédit Agricole - Franche Comte
Relais CA SNC CHEZ BINET - PASSAVANT;3 grande rue, 25360 PASSAVANT;25360;47,2745302;6,383001299999933;Crédit Agricole - Franche Comte
Relais CA VIVAL PASSAVANT - Passavant-la -Rochère;10 place Jeanne D'arc, 70210 Passavant-la -Rochère;70210;47,9698546;6,035388099999977;Crédit Agricole - Franche Comte
Agence bancaire PESMES;Place le la Mairie, 70140 PESMES;70140;;;Crédit Agricole - Franche Comte
Agence bancaire PIERREFONTAINE LES VARANS;Centre Espace Belle Vue - 27 Grande rue, 25510 PIERREFONTAINE LES VARANS;25510;;;Crédit Agricole - Franche Comte
Relais CA SARL LE PETRIN - PIREY;2 rue du lavoir, 25480 PIREY;25480;47,26034219999999;5,970857300000034;Crédit Agricole - Franche Comte
Relais CA LES DELICES DU PLATEAU - Plasne;Route de Fied, 39800 Plasne;39800;46,8005637;5,6879038;Crédit Agricole - Franche Comte
Agence bancaire POLIGNY;28, place des Déportés, 39800 POLIGNY;39800;;;Crédit Agricole - Franche Comte
Agence bancaire PONT DE ROIDE;25 Rue de la Gare, 25150 Pont-de-Roide;25150;;;Crédit Agricole - Franche Comte
Relais CA GARAGE DES BOIS SERVICES - pont-du-navoy;2 rue des echaillons, 39300 pont-du-navoy;39300;46,7243401472;5,7758924908768;Crédit Agricole - Franche Comte
Agence bancaire POLE AGRICULTURE HAUT DOUBS;1 Rue Dechanet, 25300 Pontarlier;25300;46,9085409;6,335223399999999;Crédit Agricole - Franche Comte
Agence bancaire POLE PATRIMONIAL HAUT DOUBS;59 Rue de la République, 25300 Pontarlier;25300;46,9033491;6,354939600000001;Crédit Agricole - Franche Comte
Agence bancaire POLE PROFESSIONNEL HAUT DOUBS;1 Rue Dechanet, 25300 Pontarlier;25300;46,9085409;6,335223399999999;Crédit Agricole - Franche Comte
Agence bancaire PONTARLIER GRANDS PLANCHANTS;1, Rue Pierre DECHANET, 25300 PONTARLIER;25300;46,907326;6,336658;Crédit Agricole - Franche Comte
Agence bancaire PONTARLIER REPUBLIQUE;59, rue de la République, 25300 PONTARLIER;25300;46,90365;6,35495;Crédit Agricole - Franche Comte
Relais CA SARL NEW BOULANG - Pontarlier;59 rue de besancon, 25300 Pontarlier;25300;46,9089284;6,347919899999965;Crédit Agricole - Franche Comte
Agence bancaire PORT SUR SAONE;15 Rue Gilberte Lavaire, 70170 PORT-SUR-SAONE;70170;;;Crédit Agricole - Franche Comte
Agence bancaire POUILLEY LES VIGNES;Ctre commercial Super U, 25115 POUILLEY LES VIGNES;25115;;;Crédit Agricole - Franche Comte
Agence bancaire QUINGEY;6, Grande rue, 25440 QUINGEY;25440;;;Crédit Agricole - Franche Comte
Agence bancaire RECOLOGNE - Point Service Conseil;6 Place des Tilleuls, 25170 RECOLOGNE;25170;;;Crédit Agricole - Franche Comte
Relais CA KILQUE CHRISTINE - Réchésy;route de lepuis-neuf, 90370 Réchésy;90370;47,517817;7,108910000000037;Crédit Agricole - Franche Comte
Relais CA SARL MILLARDET - RIGNEY;25 grande rue, 25640 RIGNEY;25640;47,3876278;6,175411199999985;Crédit Agricole - Franche Comte
Agence bancaire RIOZ;6 Avenue Jules Jeanneney, 70190 RIOZ;70190;;;Crédit Agricole - Franche Comte
Agence bancaire ROCHE LEZ BEAUPRE;46 Route Nationale, 25220 ROCHE LEZ BEAUPRE;25220;;;Crédit Agricole - Franche Comte
Agence bancaire RONCHAMP;38 avenue Pasteur, 70250 RONCHAMP;70250;;;Crédit Agricole - Franche Comte
Relais CA AUX PETITS FRERES COMTOIS - ROPPE;avenue du générale de gaulle, 90380 ROPPE;90380;47,669448;6,918915100000049;Crédit Agricole - Franche Comte
Agence bancaire ROUGEMONT;2, rue de la Gare, 25680 ROUGEMONT;25680;;;Crédit Agricole - Franche Comte
Agence bancaire ROUGEMONT LE CHÂTEAU - Point Service Conseil;Route d'Etueffont-Haut, 90110 ROUGEMONT LE CHATEAU;90110;;;Crédit Agricole - Franche Comte
Relais CA SARL AU BLE MOULU - ROulans;42 grande rue, 25640 ROulans;25640;47,3166573;6,235131799999976;Crédit Agricole - Franche Comte
Relais CA LE BACCARA - ROYE;10 rue de la verrerie, 70200 ROYE;70200;47,6758452;6,526247799999965;Crédit Agricole - Franche Comte
Relais CA LES 4 SAISONS - RYE;9 route de dijon, 39230 RYE;39230;46,8716845;5,429923499999973;Crédit Agricole - Franche Comte
Agence bancaire SAINT AMOUR;12, place d'Armes, 39160 SAINT AMOUR;39160;;;Crédit Agricole - Franche Comte
Agence bancaire SAINT AUBIN - Point Service Conseil;36 Grande rue, 39410 SAINT AUBIN;39410;;;Crédit Agricole - Franche Comte
Agence bancaire SAINT CLAUDE;52, rue du Pré, 39200 SAINT CLAUDE;39200;;;Crédit Agricole - Franche Comte
Agence bancaire SAINT HIPPOLYTE;13, grande rue, 25190 SAINT HIPPOLYTE;25190;;;Crédit Agricole - Franche Comte
Agence bancaire SAINT JULIEN;Rue Lezay - Marnezia, 39320 SAINT JULIEN;39320;;;Crédit Agricole - Franche Comte
Agence bancaire SAINT LAURENT EN GRANDVAUX;3, Place Pasteur, 39150 SAINT LAURENT EN GRANDVAUX;39150;;;Crédit Agricole - Franche Comte
Agence bancaire SAINT LOUP SUR SEMOUSE;19, place J. Jaures, 70800 SAINT LOUP SUR SEMOUSE;70800;;;Crédit Agricole - Franche Comte
Agence bancaire SAINT VIT;33 c, rue du Général de Gaulle, 25410 SAINT VIT;25410;;;Crédit Agricole - Franche Comte
Agence bancaire SALINS LES BAINS;28 rue de la République, 39110 SALINS LES BAINS;39110;;;Crédit Agricole - Franche Comte
Relais CA BUREAU DE TABAC BERNARD ARMELLE - Sancey;2 route de clerval, 25430 Sancey;25430;47,3056311;6,594572599999992;Crédit Agricole - Franche Comte
Agence bancaire SANCEY LE GRAND;38, rue Mal de Lattre de Tassigny - BP 1, 25430 SANCEY LE GRAND;25430;;;Crédit Agricole - Franche Comte
Agence bancaire SAONE;1, rue de la Croix de Mission, 25660 SAONE;25660;;;Crédit Agricole - Franche Comte
Agence bancaire SELONCOURT;134, rue du Gal Leclerc, 25230 SELONCOURT;25230;;;Crédit Agricole - Franche Comte
Relais CA LE TOBAC - Servance;33 avenue charles de gaulle, 70440 Servance;70440;47,8157095;6,68261229999996;Crédit Agricole - Franche Comte
Agence bancaire SOCHAUX;5, Avenue du Général Leclerc, 25600 SOCHAUX;25600;;;Crédit Agricole - Franche Comte
Relais CA HERKAT HOUDAIFA HOUDYS - SOCHUAX;4 avenue du général Leclerc, 25600 SOCHUAX;25600;47,51485066937024;6,831966500000021;Crédit Agricole - Franche Comte
Relais CA MR GADDA ALAIN - VIVECO - SOING-CUBRY-CHARENTENAY;10 place de la république, 70130 SOING-CUBRY-CHARENTENAY;70130;47,58182989999999;5,878510900000038;Crédit Agricole - Franche Comte
Agence bancaire TAVAUX;11, av Kennedy, 39500 TAVAUX;39500;;;Crédit Agricole - Franche Comte
Agence bancaire THISE;27, rue de Besançon, 25220 THISE;25220;;;Crédit Agricole - Franche Comte
Relais CA LE BISTROT DU VAL - Valdahon;Avenue du Général Burney, 25800 Valdahon;25800;47,1499831;6,3406303;Crédit Agricole - Franche Comte
Agence bancaire POLE AGRICULTURE DOUBS CENTRAL;1 Place du Général de Gaulle, 25800 Valdahon;25800;47,1477679;6,3439345;Crédit Agricole - Franche Comte
Agence bancaire POLE PATRIMONIAL DOUBS CENTRAL;1 Place du Général de Gaulle, 25800 Valdahon;25800;47,1477679;6,3439345;Crédit Agricole - Franche Comte
Agence bancaire POLE PROFESSIONNEL DOUBS CENTRAL;1 Place du Général de Gaulle, 25800 Valdahon;25800;47,1477679;6,3439345;Crédit Agricole - Franche Comte
Agence bancaire VALDAHON;1, place du Gal de Gaulle, 25800 VALDAHON;25800;47,14789;6,34446;Crédit Agricole - Franche Comte
Agence bancaire VALDOIE;37, rue Carnot, 90300 VALDOIE;90300;;;Crédit Agricole - Franche Comte
Agence bancaire VALENTIGNEY;23 Grande Rue, 25700 VALENTIGNEY;25700;;;Crédit Agricole - Franche Comte
Agence bancaire VAUVILLERS;23, grande rue, 70210 VAUVILLERS;70210;;;Crédit Agricole - Franche Comte
Relais CA AU 23 CHEZ MARIE - VELLEVANS;23 grande rue, 25430 VELLEVANS;25430;47,31112539999999;6,499925500000018;Crédit Agricole - Franche Comte
Agence bancaire VERCEL;2, rue de l'Etang, 25530 VERCEL;25530;;;Crédit Agricole - Franche Comte
Relais CA COOPERATIVE FROMAGERE FRUITIERE - Vers-en-Montagne;24 Place du Chalet, 39300 Vers-en-Montagne;39300;46,8166322;5,916568700000001;Crédit Agricole - Franche Comte
Agence bancaire POLE AGRICULTURE HAUTE SAONE;1 Rue Henri Poincaré, 70000 Vesoul;70000;47,6162982;6,161334300000001;Crédit Agricole - Franche Comte
Agence bancaire POLE PATRIMONIAL HAUTE SAONE;43B Rue Grosjean, 70000 Vesoul;70000;47,61624639999999;6,1610084;Crédit Agricole - Franche Comte
Agence bancaire POLE PROFESSIONNEL HAUT SAONE;1 Rue Henri Poincaré, 70000 Vesoul;70000;47,6162982;6,161334300000001;Crédit Agricole - Franche Comte
Agence bancaire VESOUL ALSACE LORRAINE;28, rue d'Alsace Lorraine, 70000 VESOUL;70000;47,62242;6,15579;Crédit Agricole - Franche Comte
Agence bancaire VESOUL Entreprises;43 B rue Grosjean, 70000 VESOUL;70000;47,61628;6,16081;Crédit Agricole - Franche Comte
Agence bancaire VESOUL GROSJEAN;1 rue Henri Poincaré, 70000 VESOUL;70000;47,61628;6,16081;Crédit Agricole - Franche Comte
Relais CA SARL LA BOULANGERIE DE VIEUX CHARMONT - Vieux-Charmont;56 Rue de Belfort, 25600 Vieux-Charmont;25600;47,5249806;6,8398338;Crédit Agricole - Franche Comte
Agence bancaire VILLERS LE LAC;7, place nationale, 25130 VILLERS LE LAC;25130;;;Crédit Agricole - Franche Comte
Agence bancaire VILLERSEXEL;15, place de l'Hotel de Ville, 70110 VILLERSEXEL;70110;;;Crédit Agricole - Franche Comte
Relais CA BOUCHERIE CHARCUTERIE CHANUT - Villette-les-dole;31 grande rue, 39100 Villette-les-dole;39100;47,0472335;5,494726700000001;Crédit Agricole - Franche Comte
Relais CA CHEZ LA DOM - Viry;14 rue rouget de lisle, 39360 Viry;39360;46,2998068;5,738099700000021;Crédit Agricole - Franche Comte
Relais CA GARAGE CARDINAUX - VITREY-SUR-MANCE;Rue Georges Clemenceau, 70500 VITREY-SUR-MANCE;70500;47,81125470362495;5,760047373016391;Crédit Agricole - Franche Comte
Agence bancaire VOITEUR;1, Grande rue, 39210 VOITEUR;39210;;;Crédit Agricole - Franche Comte
Relais CA MAISON DE LA PRESSE - Voujeaucourt;5 rue du mont bart, 25420 Voujeaucourt;25420;47,478742;6,767363199999977;Crédit Agricole - Franche Comte
Relais CA SAS EPICERIE DE LA VALLEE - Vuillafans;14 route de besançon, 25840 Vuillafans;25840;47,0653564;6,214946899999973;Crédit Agricole - Franche Comte
