nom;adresse;code_postal;latitude;longitude;region_source
Agence bancaire ABONDANCE;Place du Champ de Foire, 74360 ABONDANCE;74360;;;Crédit Agricole - Des Savoie
Agence bancaire AIGUEBLANCHE;Place du Château, 73260 AIGUEBLANCHE;73260;;;Crédit Agricole - Des Savoie
Agence bancaire AIME;1006 avenue de la Tarentaise, 73210 AIME LA PLAGNE;73210;;;Crédit Agricole - Des Savoie
Agence bancaire AIX LES BAINS - Clémenceau;31 place Georges Clémenceau, 73100 AIX LES BAINS;73100;45,693373;5,911024;Crédit Agricole - Des Savoie
Agence bancaire AIX LES BAINS - Les Thermes;2 square du Temple de Diane, 73100 AIX LES BAINS;73100;45,689111;5,914845;Crédit Agricole - Des Savoie
Agence bancaire AIX LES BAINS - Roosevelt;36 boulevard Franklin Roosevelt, 73100 AIX LES BAINS;73100;45,7012306;5,909370399999943;Crédit Agricole - Des Savoie
Agence bancaire ALBERTVILLE - Gambetta;10 rue Gambetta, 73200 ALBERTVILLE;73200;;;Crédit Agricole - Des Savoie
Agence bancaire ALBY SUR CHERAN;31 rue du Pont Neuf, 74540 ALBY-SUR-CHERAN;74540;;;Crédit Agricole - Des Savoie
Relais CA MARTIN DUNAND ANNICK CHRISTINE - ALLINGES;1200 Route de Noyer, 74200 ALLINGES;74200;46,33485;6,4787551;Crédit Agricole - Des Savoie
Agence bancaire ALLONZIER LA CAILLE;PAE La Caille - 165 avenue des Marais, 74350 ALLONZIER-LA-CAILLE;74350;;;Crédit Agricole - Des Savoie
Agence bancaire AMBILLY;Place de la Martinière, 74100 AMBILLY;74100;;;Crédit Agricole - Des Savoie
Agence bancaire ANNECY - Filaterie;25 rue Filaterie, 74000 ANNECY;74000;45,899027;6,126479;Crédit Agricole - Des Savoie
Agence bancaire ANNECY - Genève;58 avenue de Genève, 74000 ANNECY;74000;45,915775;6,123843;Crédit Agricole - Des Savoie
Agence bancaire ANNECY - Les Fins;53 avenue de Genève, 74000 ANNECY;74000;45,91237599999999;6,123694600000022;Crédit Agricole - Des Savoie
Agence bancaire ANNECY - Novel;Centre Commercial Novel, 1 place de l'Annapurna, 74000 ANNECY;74000;45,916949;6,133609;Crédit Agricole - Des Savoie
Agence bancaire ANNECY - Parmelan;2 avenue du Parmelan, 74000 ANNECY;74000;45,903408;6,130618;Crédit Agricole - Des Savoie
Agence bancaire ANNECY - Saint-François;9 rue Saint-François de Sales, 74000 ANNECY;74000;45,9001797;6,121730599999978;Crédit Agricole - Des Savoie
Agence bancaire CRAN GEVRIER;17 avenue de la République, 74960 ANNECY;74960;45,90739749999999;6,1073075;Crédit Agricole - Des Savoie
Agence Immobilière Espace Habitat - ANNECY Square Habitat;7 Avenue du Pré Félin, 74940 Annecy;74940;45,9246013;6,1657077;Crédit Agricole - Des Savoie
Agence bancaire ANNECY LE VIEUX - Pommaries;3 rue des Ecoles, 74940 ANNECY LE VIEUX;74940;45,911309;6,144587;Crédit Agricole - Des Savoie
Agence bancaire Agence Entreprises Annecy Genevois;PAE Les Glaisins - 4 avenue du Pré Félin, 74985 ANNECY LE VIEUX;74985;45,925147;6,16646;Crédit Agricole - Des Savoie
Agence bancaire ANNEMASSE - Gare;15 rue de la Gare, 74100 ANNEMASSE;74100;46,1946645;6,23362069999996;Crédit Agricole - Des Savoie
Agence bancaire ANNEMASSE - Marché;7 avenue Pasteur, 74100 ANNEMASSE;74100;46,193093;6,235947600000031;Crédit Agricole - Des Savoie
Agence bancaire ANNEMASSE - St André;5 place de l'Eglise St André, 74100 ANNEMASSE;74100;46,1899193996862;6,233638823032379;Crédit Agricole - Des Savoie
Agence Immobilière Espace Habitat - BASSIN ANNEMASSIEN Square Habitat;15 Rue de la Gare, 74100 Annemasse;74100;46,1946624;6,233603599999999;Crédit Agricole - Des Savoie
Agence bancaire FLAINE;Route de Flaine, 74300 ARACHES LA FRASSE;74300;46,00554231064662;6,693578881072995;Crédit Agricole - Des Savoie
Agence bancaire LES CARROZ D'ARÂCHES;7 Place de l'Ambiance, 74300 ARACHES LA FRASSE;74300;46,043322;6,632759;Crédit Agricole - Des Savoie
Agence bancaire BARBERAZ;25 route d'Apremont, 73000 BARBERAZ;73000;;;Crédit Agricole - Des Savoie
Agence bancaire BARBY;Clos Besson - 1 square de la Mairie, 73230 BARBY;73230;;;Crédit Agricole - Des Savoie
Agence bancaire BASSENS;218 rue Jean Perrier-Gustin, 73000 BASSENS;73000;;;Crédit Agricole - Des Savoie
Agence bancaire BEAUFORT SUR DORON;Immeuble Le Roselend - place Roger Frison-Roche, 73270 BEAUFORT SUR DORON;73270;;;Crédit Agricole - Des Savoie
Agence bancaire LE CHÂBLE BEAUMONT;25 Rue Beaupré, 74160 BEAUMONT;74160;;;Crédit Agricole - Des Savoie
Relais CA LA HALTE DES BAUGES - BELLECOMBE EN BAUGES;Chef-Lieu, 73340 BELLECOMBE EN BAUGES;73340;45,73871341953712;6,141890093924269;Crédit Agricole - Des Savoie
Agence bancaire BOEGE;30 rue de la Vallée Verte, 74420 BOEGE;74420;;;Crédit Agricole - Des Savoie
Agence bancaire BONNE;157 avenue du Léman, 74380 BONNE;74380;;;Crédit Agricole - Des Savoie
Agence bancaire BONNEVILLE;236 place de l'Hôtel de ville, 74131 BONNEVILLE;74131;;;Crédit Agricole - Des Savoie
Agence bancaire BONS EN CHABLAIS;2 avenue du Léman, 74890 BONS EN CHABLAIS;74890;;;Crédit Agricole - Des Savoie
Agence bancaire BOURG ST MAURICE;Immeuble Le Centenaire - avenue du Centenaire, 73700 BOURG ST MAURICE;73700;45,6172165;6,769304499999976;Crédit Agricole - Des Savoie
Agence bancaire LES ARCS;Immeuble Le Bellecôte, Arcs 1800, 73700 BOURG ST MAURICE;73700;45,57548756181026;6,779916286468506;Crédit Agricole - Des Savoie
Agence bancaire BOZEL;55 rue Jean Jaurès, 73350 BOZEL;73350;;;Crédit Agricole - Des Savoie
Agence bancaire BRIDES LES BAINS;6 rue Emile Machet, 73570 BRIDES LES BAINS;73570;;;Crédit Agricole - Des Savoie
Agence bancaire CHALLES LES EAUX;Immeuble les Terrasses de Challes - 1308 avenue de Chambéry, 73190 CHALLES LES EAUX;73190;;;Crédit Agricole - Des Savoie
Agence bancaire CHAMBERY - Bissy;586 avenue Général Cartier, 73000 CHAMBERY;73000;45,576573;5,898909;Crédit Agricole - Des Savoie
Agence bancaire CHAMBERY - Château;2 place du Château, 73000 CHAMBERY;73000;45,564725;5,91937;Crédit Agricole - Des Savoie
Agence bancaire CHAMBERY - Comte-Vert;280 avenue du Comte-Vert, 73000 CHAMBERY;73000;45,571496;5,912442;Crédit Agricole - Des Savoie
Agence bancaire CHAMBERY - Jules Ferry;277 faubourg Montmélian, 73000 CHAMBERY;73000;45,566357;5,929425;Crédit Agricole - Des Savoie
Agence bancaire CHAMBERY - Pugnet;99 avenue d'Annecy, 73000 CHAMBERY;73000;45,5894439;5,919477400000005;Crédit Agricole - Des Savoie
Agence bancaire CHAMONIX MONT BLANC;152 avenue Michel Croz, 74400 CHAMONIX MONT BLANC;74400;;;Crédit Agricole - Des Savoie
Agence bancaire CHAMOUX SUR GELON;226 rue des Écoles, 73390 CHAMOUX-SUR-GELON;73390;;;Crédit Agricole - Des Savoie
Relais CA L'ECHAPPEE BELLE - CHAPEIRY;Chef-lieu, 74540 CHAPEIRY;74540;45,832501;6,034964;Crédit Agricole - Des Savoie
Agence bancaire CHATEL;142 route du centre, 74390 CHATEL;74390;;;Crédit Agricole - Des Savoie
Relais CA REQUET JEAN LUC - CHENS SUR LEMAN;1210 Rue du Léman, 74140 CHENS SUR LEMAN;74140;46,32649802241298;6,268090456724167;Crédit Agricole - Des Savoie
Agence bancaire CHINDRIEUX;30 rue Perron, 73310 CHINDRIEUX;73310;;;Crédit Agricole - Des Savoie
Agence bancaire CLUSES - Centre;4 place des Allobroges, 74300 CLUSES;74300;46,057421;6,581275;Crédit Agricole - Des Savoie
Agence bancaire CLUSES SARDAGNE;28 avenue de la Sardagne, 74300 CLUSES;74300;46,070131;6,563728;Crédit Agricole - Des Savoie
Agence Immobilière Espace Habitat CHABLAIS - CLUSES Square Habitat;4 Place des Allobroges, 74300 Cluses;74300;46,057244;6,581381599999999;Crédit Agricole - Des Savoie
Agence bancaire COGNIN;Centre commercial de l'Epine, 73160 COGNIN;73160;;;Crédit Agricole - Des Savoie
Agence bancaire COLLONGES SOUS SALEVE;Immeuble Le Moulin - 85 route de Genève, 74160 COLLONGES SOUS SALEVE;74160;;;Crédit Agricole - Des Savoie
Agence bancaire COMBLOUX;45 route de Sallanches, 74920 COMBLOUX;74920;;;Crédit Agricole - Des Savoie
Relais CA SNC AU P'TIT CONTAMINE - CONTAMINE-SUR-ARVE;33 Route d'Annemasse, 74130 CONTAMINE-SUR-ARVE;74130;46,12695979999999;6,3397761;Crédit Agricole - Des Savoie
Agence bancaire COURCHEVEL;La Croisette - rue de la Croisette, 73121 COURCHEVEL;73121;;;Crédit Agricole - Des Savoie
Agence bancaire CRANVES SALES;63 route des Fontaines, 74380 CRANVES SALES;74380;;;Crédit Agricole - Des Savoie
Agence bancaire CRUSEILLES;15 place de la Fontaine, 74350 CRUSEILLES;74350;;;Crédit Agricole - Des Savoie
Relais CA LA CHARMOTTE - CUSY;LD la Pallud, 74540 CUSY;74540;45,76639;6,026948;Crédit Agricole - Des Savoie
Agence bancaire DOUSSARD;40 rue de Macherine, 74210 DOUSSARD;74210;;;Crédit Agricole - Des Savoie
Agence bancaire DOUVAINE;Centre Commercial Domino - avenue de Thonon, 74140 DOUVAINE;74140;;;Crédit Agricole - Des Savoie
Agence bancaire AIX LES BAINS - Sud;167 avenue du Golf, 73420 DRUMETTAZ CLARAFOND;73420;;;Crédit Agricole - Des Savoie
Relais CA SNC TNT - ENTRE-DEUX-GUIERS;75 Place Centrale, 38380 ENTRE-DEUX-GUIERS;38380;45,4342028;5,7547787;Crédit Agricole - Des Savoie
Agence bancaire ENTRELACS;32 place de l'Eglise, 73410 ENTRELACS;73410;;;Crédit Agricole - Des Savoie
Agence bancaire EPAGNY;Le Clos du Corti - 14 rue de la Liberté, 74330 EPAGNY;74330;;;Crédit Agricole - Des Savoie
Agence bancaire EVIAN;68 quai Charles Albert Besson, 74500 EVIAN-LES-BAINS;74500;;;Crédit Agricole - Des Savoie
Agence bancaire FAVERGES;236 rue de la République, 74210 FAVERGES;74210;;;Crédit Agricole - Des Savoie
Relais CA RESTAURANT LES ROUTIERS - FEISSONS SUR ISERE;90 route nationale, 73260 FEISSONS SUR ISERE;73260;45,55821130668518;6,469170302152634;Crédit Agricole - Des Savoie
Agence bancaire THORENS GLIERES;10 Place de la Mairie, 74570 Fillière;74570;;;Crédit Agricole - Des Savoie
Relais CA SNC L'ENTRE DEUX - FILLINGES;69 rte Vallée Verte, 74250 FILLINGES;74250;46,16348502321151;6,353702545166016;Crédit Agricole - Des Savoie
Agence bancaire FLUMET;88 Rue du Mont Blanc, 73590 Flumet;73590;;;Crédit Agricole - Des Savoie
Agence bancaire MODANE;9 rue de la Concorde, 73500 FOURNEAUX;73500;;;Crédit Agricole - Des Savoie
Agence bancaire FRANGY;100 place Centrale, 74270 FRANGY;74270;;;Crédit Agricole - Des Savoie
Agence bancaire FRONTENEX;Immeuble le colibri - 11 bis rue de la Mairie, 73460 FRONTENEX;73460;;;Crédit Agricole - Des Savoie
Agence bancaire GAILLARD;2 rue de Moellesulaz, 74240 GAILLARD;74240;;;Crédit Agricole - Des Savoie
Agence bancaire ALBERTVILLE CHIRIAC;177 avenue Georges Pompidou, 73200 GILLY SUR ISERE;73200;;;Crédit Agricole - Des Savoie
Agence bancaire GRESY SUR AIX;Copropriété La Cascade 2 - 85 chemin du Moulin, 73100 GRESY SUR AIX;73100;;;Crédit Agricole - Des Savoie
Agence bancaire GROISY;1 Allée du Lachat, 74570 Groisy;74570;;;Crédit Agricole - Des Savoie
Relais CA TABASCO - GRUFFY;2607 Route des Bauges, 74540 GRUFFY;74540;45,7876594;6,054388200000001;Crédit Agricole - Des Savoie
Relais CA ETABLISSEMENTS BONNET - HABERE POCHE;Le Schuss, 74420 HABERE POCHE;74420;46,248468;6,471481;Crédit Agricole - Des Savoie
Agence bancaire LA BATHIE;100 rue Alphonse de Lamartine, 73540 LA BATHIE;73540;;;Crédit Agricole - Des Savoie
Relais CA COMPTOIR VALS DU DAUPHINE - LA BAUCHE;Le château, 73360 LA BAUCHE;73360;45,49597;5,76799;Crédit Agricole - Des Savoie
Relais CA TABAC LES ARCADES - LA BIOLLE;1567 Route d'Annecy, 73410 LA BIOLLE;73410;45,75510149999999;5,9298875;Crédit Agricole - Des Savoie
Agence bancaire LA CHAMBRE;327 Grande Rue, 73130 La Chambre;73130;;;Crédit Agricole - Des Savoie
Relais CA BOULANGERIE CANON - LA CHAPELLE D'ABONDANCE;Chef Lieu, 74360 LA CHAPELLE D'ABONDANCE;74360;46,298615;6,789512;Crédit Agricole - Des Savoie
Agence bancaire LA CLUSAZ;22 place de la Poste, 74220 LA CLUSAZ;74220;;;Crédit Agricole - Des Savoie
Agence bancaire Agence Entreprises Chambéry;1220 avenue Costa de Beauregard, 73290 LA MOTTE-SERVOLEX;73290;45,5876216;5,883200399999964;Crédit Agricole - Des Savoie
Agence bancaire LA MOTTE SERVOLEX;114 Rue des Allobroges, 73290 LA MOTTE-SERVOLEX;73290;45,5972875;5,8764461;Crédit Agricole - Des Savoie
Agence bancaire LA RAVOIRE;Le Carré Palladio - rue de la Concorde, 73490 LA RAVOIRE;73490;;;Crédit Agricole - Des Savoie
Agence bancaire LA ROCHE SUR FORON;2 place de la Grenette, 74800 LA ROCHE-SUR-FORON;74800;;;Crédit Agricole - Des Savoie
Agence bancaire LA ROCHETTE;Rue de Schweighouse sur Moder, 73110 LA ROCHETTE;73110;;;Crédit Agricole - Des Savoie
Agence bancaire LA ROSIERE - MONTVALEZAN;Centre Commercial Le Valaisan, 73700 LA ROSIERE MONTVALEZAN;73700;;;Crédit Agricole - Des Savoie
Agence bancaire LA TOUSSUIRE;Immeuble Perce Neige, 73300 LA TOUSSUIRE;73300;;;Crédit Agricole - Des Savoie
Agence bancaire LANSLEBOURG;49 rue du Mont-Cenis, 73480 LANSLEBOURG-MONT-CENIS;73480;;;Crédit Agricole - Des Savoie
Agence bancaire LE BOURGET DU LAC;Place du Commandant Jeandet, 73370 LE BOURGET DU LAC;73370;;;Crédit Agricole - Des Savoie
Agence bancaire LE CHATELARD;Rue Amédée V, 73630 LE CHATELARD;73630;;;Crédit Agricole - Des Savoie
Agence bancaire LE GRAND BORNAND;Résidence La Forclaz B - 68 route de Villavit, 74450 LE GRAND BORNAND;74450;;;Crédit Agricole - Des Savoie
Agence bancaire PONT DE BEAUVOISIN;18 rue Emmanuel Cretet, 73330 Le Pont-de-Beauvoisin;73330;;;Crédit Agricole - Des Savoie
Agence bancaire MERIBEL LES ALLUES;345 Rue des Jeux Olympiques, 73550 Les Allues;73550;;;Crédit Agricole - Des Savoie
Agence bancaire ST MARTIN DE BELLEVILLE;Chef-lieu, 73440 LES BELLEVILLE;73440;;;Crédit Agricole - Des Savoie
Agence bancaire LES ECHELLES;124 rue de l'Hôtel de Ville, 73360 LES ECHELLES;73360;;;Crédit Agricole - Des Savoie
Agence bancaire LES GETS;Immeuble Le Cry de Lys - 397 rue du Centre, 74260 LES GETS;74260;;;Crédit Agricole - Des Savoie
Agence bancaire LES HOUCHES;75 place de la mairie, 74310 LES HOUCHES;74310;;;Crédit Agricole - Des Savoie
Agence bancaire LES MENUIRES;Immeuble Le Belledonne, 74440 LES MENUIRES;74440;;;Crédit Agricole - Des Savoie
Agence bancaire LES SAISIES;Immeuble Le Rond Point, 73620 LES SAISIES;73620;;;Crédit Agricole - Des Savoie
Agence bancaire LA PLAGNE CENTRE;Galerie Mercure, 73150 MACOT-LA-PLAGNE;73150;;;Crédit Agricole - Des Savoie
Relais CA BOUCHERIE DE L'ALBANAIS - MARCELLAZ-ALBANAIS;36 Place de l'Albanais, 74150 MARCELLAZ-ALBANAIS;74150;45,8732508;6,0005055;Crédit Agricole - Des Savoie
Agence bancaire MARIGNIER;53 avenue de la Plaine, 74970 MARIGNIER;74970;;;Crédit Agricole - Des Savoie
Agence bancaire MEGEVE;36 rue du Général Muffat de Saint-Amour, 74120 MEGEVE;74120;;;Crédit Agricole - Des Savoie
Agence bancaire MENTHON ST BERNARD;467 rue St Bernard, 74290 MENTHON ST BERNARD;74290;;;Crédit Agricole - Des Savoie
Relais CA LE FOURNIL DE MENTHONAY - MENTHONNEX EN BORNES;48 Place de la Mairie, 74350 MENTHONNEX EN BORNES;74350;46,05312319999999;6,1719517;Crédit Agricole - Des Savoie
Agence bancaire MEYTHET;3 route de Frangy, 74960 MEYTHET;74960;;;Crédit Agricole - Des Savoie
Agence bancaire MONTMELIAN;Résidence Le Catinat - place Albert Serraz, 73800 MONTMELIAN;73800;;;Crédit Agricole - Des Savoie
Agence bancaire AVORIAZ;Immeubles Les Fontaines Blanches - place Centrale, 74110 MORZINE;74110;46,19148583143032;6,776031777262688;Crédit Agricole - Des Savoie
Agence bancaire MORZINE;44 route de la Combe À Zore, 74110 MORZINE;74110;46,18148129999999;6,702772299999999;Crédit Agricole - Des Savoie
Agence bancaire MOUTIERS;99 square de la Liberté, 73600 MOUTIERS TARENTAISE;73600;;;Crédit Agricole - Des Savoie
Agence bancaire NOVALAISE;44 route du Lac, 73470 NOVALAISE;73470;;;Crédit Agricole - Des Savoie
Agence bancaire PASSY;91 avenue de Marlioz, 74190 PASSY;74190;;;Crédit Agricole - Des Savoie
Agence bancaire POISY;180 route d'Annecy, 74330 POISY;74330;;;Crédit Agricole - Des Savoie
Agence bancaire PRALOGNAN;345 - 406 avenue de Chasseforet, 73710 PRALOGNAN-LA-VANOISE;73710;;;Crédit Agricole - Des Savoie
Agence bancaire PRINGY;Espace des Charmilles, 287 route d'Annecy, 74370 PRINGY;74370;;;Crédit Agricole - Des Savoie
Agence bancaire AMPHION;Immeuble les Résidences du Port - avenue de la Rive, 74500 PUBLIER;74500;;;Crédit Agricole - Des Savoie
Relais CA CAFE DU MIRANTIN - QUEIGE;Chef-lieu, 73720 QUEIGE;73720;45,751695;6,39841;Crédit Agricole - Des Savoie
Agence bancaire REIGNIER;171 Grande Rue, 74930 REIGNIER-ESERY;74930;;;Crédit Agricole - Des Savoie
Agence bancaire RUMILLY;Immeuble Le Sévigné - place d'Armes, 74150 RUMILLY;74150;45,86433400000001;5,946028099999999;Crédit Agricole - Des Savoie
Agence bancaire RUMILLY SUD;21 Rue René Cassin, 74150 Rumilly;74150;45,8550769;5,9512765;Crédit Agricole - Des Savoie
Agence bancaire ST CERGUES;75 rue de la Chapelle, 74140 SAINT-CERGUES;74140;;;Crédit Agricole - Des Savoie
Relais CA LES TONTONS SNACKEURS - SAINT-COLOMBAN-DES-VILLARDS;215 Route de la Pèrriere, 73130 SAINT-COLOMBAN-DES-VILLARDS;73130;45,29132569999999;6,222972599999999;Crédit Agricole - Des Savoie
Agence bancaire ST GENIX SUR GUIERS;22 rue du Couvent, 73240 SAINT-GENIX SUR GUIERS;73240;;;Crédit Agricole - Des Savoie
Agence bancaire ST GERVAIS;Immeuble La Fontaine - 8 rue de la Comtesse, 74170 SAINT-GERVAIS-LES-BAINS;74170;;;Crédit Agricole - Des Savoie
Agence bancaire ST JEAN D'AULPS;2497 route des Grandes Alpes, 74430 SAINT-JEAN D'AULPS;74430;;;Crédit Agricole - Des Savoie
Agence bancaire ST JEAN DE MAURIENNE;Immeuble Saint Ayrald - rue Ramassot, 73300 SAINT-JEAN DE MAURIENNE;73300;;;Crédit Agricole - Des Savoie
Agence bancaire ST JEOIRE EN FAUCIGNY;Immeuble Les Airets - 115 rue du Faucigny, 74490 SAINT-JEOIRE;74490;;;Crédit Agricole - Des Savoie
Agence bancaire ST JORIOZ;9 route d'Albertville, 74410 SAINT-JORIOZ;74410;;;Crédit Agricole - Des Savoie
Agence bancaire ST JULIEN EN GENEVOIS;2 place de la Libération, 74160 SAINT-JULIEN-EN-GENEVOIS;74160;;;Crédit Agricole - Des Savoie
Agence bancaire ST MICHEL DE MAURIENNE;2 rue Léon Richard, 73140 SAINT-MICHEL-DE-MAURIENNE;73140;;;Crédit Agricole - Des Savoie
Agence bancaire ST PAUL EN CHABLAIS;Immeuble le Bévère - 251 route du Chablais, 74500 SAINT-PAUL-EN-CHABLAIS;74500;;;Crédit Agricole - Des Savoie
Agence bancaire ST PIERRE D'ALBIGNY;125 avenue du Grand Arc, 73250 SAINT-PIERRE-D'ALBIGNY;73250;;;Crédit Agricole - Des Savoie
Agence bancaire ST PIERRE EN FAUCIGNY;81 place des Arcades, 74800 SAINT-PIERRE-EN-FAUCIGNY;74800;;;Crédit Agricole - Des Savoie
Relais CA TABAC PRESSE - SAINT-REMY-DE-MAURIENNE;100 Route de la Lauzière, 73660 SAINT-REMY-DE-MAURIENNE;73660;45,392442;6,266107799999999;Crédit Agricole - Des Savoie
Agence bancaire ST SORLIN D'ARVES;Chemin de la Sapinière, 73530 SAINT-SORLIN-D'ARVES;73530;;;Crédit Agricole - Des Savoie
Agence bancaire SALLANCHES;103 place de la Grenette, 74700 SALLANCHES;74700;;;Crédit Agricole - Des Savoie
Relais CA EURL ROSTAN - SALLENOVE;Route du Chef-lieu, 74270 SALLENOVE;74270;46,0071839;5,9948702;Crédit Agricole - Des Savoie
Agence bancaire SAMOENS;48 avenue Cognacq Jay, 74340 SAMOENS;74340;;;Crédit Agricole - Des Savoie
Agence bancaire SCIEZ;Immeuble Le Bonlieu - avenue des Charmes, 74140 SCIEZ;74140;;;Crédit Agricole - Des Savoie
Agence bancaire Agence Entreprises Mt Blanc Leman;520 avenue des Lacs, 74954 SCIONZIER;74954;46,066734;6,554524;Crédit Agricole - Des Savoie
Agence bancaire SCIONZIER;Immeuble La Résidence - place du Foron, 74950 SCIONZIER;74950;46,0567182;6,5497307;Crédit Agricole - Des Savoie
Agence bancaire SEVRIER;Place de la Mairie, 74320 SEVRIER;74320;;;Crédit Agricole - Des Savoie
Agence bancaire SEYNOD;Centre commercial - 4 place Saint-Jean, 74600 SEYNOD;74600;45,88784589999999;6,1003939;Crédit Agricole - Des Savoie
Agence bancaire SEYNOD PERIAZ;Immeuble Symphonie Semnoz - 33 boulevard Costa de Beauregard, 74600 SEYNOD;74600;45,8797887;6,098351099999999;Crédit Agricole - Des Savoie
Agence bancaire SEYSSEL;26 place de l'Orme, 74910 SEYSSEL;74910;;;Crédit Agricole - Des Savoie
Agence bancaire LA BALME DE SILLINGY;3030 route de Bellegarde, 74330 SILLINGY;74330;;;Crédit Agricole - Des Savoie
Relais CA 1001 COURSES - ST THIBAUD DE COUZ;CHEF-LIEU, 73160 ST THIBAUD DE COUZ;73160;45,501227;5,844301;Crédit Agricole - Des Savoie
Agence bancaire TANINGES;Les Arcades Centrales - rue de la Poste, 74440 TANINGES;74440;;;Crédit Agricole - Des Savoie
Agence bancaire THONES;10 rue des Portiques, 74230 THONES;74230;;;Crédit Agricole - Des Savoie
Agence Immobilière Espace Habitat CHABLAIS - THONON Square Habitat;10 Place Jules Mercier, 74200 Thonon-les-Bains;74200;46,3694827;6,4786622;Crédit Agricole - Des Savoie
Agence bancaire THONON LES BAINS - Concorde;Immeuble Le Concorde - 10 place Jules Mercier, 74200 THONON-LES-BAINS;74200;46,370004;6,478353;Crédit Agricole - Des Savoie
Agence bancaire THONON LES BAINS - Léman;19 rue d'Hirmentaz, 74200 THONON-LES-BAINS;74200;46,361367;6,458137;Crédit Agricole - Des Savoie
Agence bancaire THONON LES BAINS - Rénovation;2 avenue Saint-François de Sales, 74200 THONON-LES-BAINS;74200;46,3738732;6,481862599999999;Crédit Agricole - Des Savoie
Agence bancaire THONON LES BAINS - Thuyset;Avenue des prés verts, 74200 THONON-LES-BAINS;74200;46,379558;6,492823;Crédit Agricole - Des Savoie
Agence bancaire THYEZ;Immeuble Le Catalpa - 23 rue de la poste, 74300 THYEZ;74300;;;Crédit Agricole - Des Savoie
Agence bancaire TIGNES;Maison de Tignes - place du Lac, 73320 TIGNES;73320;;;Crédit Agricole - Des Savoie
Relais CA Le Tresserviable - TRESSERVE;2 Montée de Tresserve, 73100 TRESSERVE;73100;45,6771075;5,9002349;Crédit Agricole - Des Savoie
Agence bancaire UGINE;Centre commercial les Campanules, 73400 UGINE;73400;;;Crédit Agricole - Des Savoie
Agence bancaire AIGUEBELLE;64 rue Principale, 73220 VAL D'ARC;73220;;;Crédit Agricole - Des Savoie
Agence bancaire VAL D'ISERE;Résidence du Télémark - avenue Olympique, 73150 VAL-D'ISERE;73150;;;Crédit Agricole - Des Savoie
Agence bancaire VAL THORENS;Immeuble la Vanoise - rue piétonne de Caron, 73440 VAL-THORENS;73440;;;Crédit Agricole - Des Savoie
Agence bancaire VALLEIRY;Immeuble les Citadies - 56 rue de la Gare, 74520 VALLEIRY;74520;;;Crédit Agricole - Des Savoie
Agence bancaire VALLOIRE;Immeuble Rochebrune - 51 rue de la Setaz, 73450 VALLOIRE;73450;;;Crédit Agricole - Des Savoie
Relais CA LA VALLEE DES MINES - VALMEINIER;Rue du Chef-Lieu, 73450 VALMEINIER;73450;45,18700126479661;6,48004800081253;Crédit Agricole - Des Savoie
Agence bancaire VEIGY FONCENEX;53 route du Pont de l'Hermance, 74140 VEIGY-FONCENEX;74140;;;Crédit Agricole - Des Savoie
Relais CA PROXI - VILLARD-SUR-DORON;Les Rosières, 73270 VILLARD-SUR-DORON;73270;45,726324;6,527959;Crédit Agricole - Des Savoie
Agence bancaire VILLAZ;Immeuble Les Rochettes - 153 avenue de Bonatray, 74370 VILLAZ;74370;;;Crédit Agricole - Des Savoie
Agence bancaire VILLE LA GRAND;8 rue du commerce, 74100 VILLE LA GRAND;74100;;;Crédit Agricole - Des Savoie
Agence bancaire VIRY;40 route de Frangy, 74580 VIRY;74580;;;Crédit Agricole - Des Savoie
Relais CA FOURNIL ET DELICES - VIUZ LA CHIESAZ;2 Route des Bauges, 74540 VIUZ LA CHIESAZ;74540;45,8096818;6,0620154;Crédit Agricole - Des Savoie
Agence bancaire VIUZ EN SALLAZ;3 rue de la Paix, 74250 VIUZ-EN-SALLAZ;74250;;;Crédit Agricole - Des Savoie
Agence bancaire VIVIERS DU LAC;23 route d'Aix, 73420 VIVIERS-DU-LAC;73420;;;Crédit Agricole - Des Savoie
Agence bancaire YENNE;279 rue Antoine Laurent, 73170 YENNE;73170;;;Crédit Agricole - Des Savoie
