nom;adresse;code_postal;latitude;longitude;region_source
Agence bancaire Aiffres;1905 route de Niort, 79230 Aiffres;79230;;;Crédit Agricole - Charente Maritime Deux Sevres
Agence bancaire Aigrefeuille-d'Aunis;3 rue de l'Aunis, 17290 Aigrefeuille-d'Aunis;17290;;;Crédit Agricole - Charente Maritime Deux Sevres
Agence bancaire Airvault;31 rue de la Gendarmerie, 79600 Airvault;79600;;;Crédit Agricole - Charente Maritime Deux Sevres
Relais CA C&D Services - Amailloux;37 Grand Rue, 79350 Amailloux;79350;46,745781;-0,31243;Crédit Agricole - Charente Maritime Deux Sevres
Relais CA Café du Centre - Andilly;37 rue de la Paix, 17230 Andilly;17230;46,25347;-1,027848;Crédit Agricole - Charente Maritime Deux Sevres
Agence bancaire Angoulins;2 rue François Personnat, 17690 Angoulins;17690;;;Crédit Agricole - Charente Maritime Deux Sevres
Relais CA Coop - Arcais;6 rue du Marais, 79210 Arcais;79210;46,29679049188204;-0,6912984699010849;Crédit Agricole - Charente Maritime Deux Sevres
Agence bancaire Archiac;9 rue Catherine d'Archiac, 17520 Archiac;17520;;;Crédit Agricole - Charente Maritime Deux Sevres
Agence bancaire Argentonnay;6 place du 4 août, 79150 Argentonnay;79150;;;Crédit Agricole - Charente Maritime Deux Sevres
Relais CA La Mimolette - Asnières-la-Giraud;5 avenue de Saint-Jean-d'Angély, 17400 Asnières-la-Giraud;17400;45,888916;-0,521521;Crédit Agricole - Charente Maritime Deux Sevres
Agence bancaire Aulnay;12 place Aristide Briand, 17470 Aulnay;17470;;;Crédit Agricole - Charente Maritime Deux Sevres
Agence bancaire Aytré;4 bis avenue Edmond Grasset, 17440 Aytré;17440;;;Crédit Agricole - Charente Maritime Deux Sevres
Relais CA Guiberteau - Beauvais-sur-Matha;1 rue Grand Place, 17490 Beauvais-sur-Matha;17490;45,882556;-0,187042;Crédit Agricole - Charente Maritime Deux Sevres
Agence bancaire Beauvoir-sur-Niort;330 rue de la Gare, 79360 Beauvoir-sur-Niort;79360;;;Crédit Agricole - Charente Maritime Deux Sevres
Relais CA Proxi Benon - Comptoir Dumesnil - Benon;14 rue du Château, 17170 Benon;17170;46,205198;-0,81599;Crédit Agricole - Charente Maritime Deux Sevres
Relais CA Supérette Le Charentais - Bernay-Saint-Martin;34 route de La Rochelle Parançay, 17330 Bernay-Saint-Martin;17330;46,054017;-0,638947;Crédit Agricole - Charente Maritime Deux Sevres
"Relais CA Boule Camille ""Chez Camille"" - Boisredon";8 route de Soubran, 17150 Boisredon;17150;45,31431;-0,539019;Crédit Agricole - Charente Maritime Deux Sevres
Relais CA Le Panier Charentais - Bords;31 rue Saint-Vivien, 17430 Bords;17430;45,897007;-0,795189;Crédit Agricole - Charente Maritime Deux Sevres
Agence bancaire Bourcefranc-le-Chapus;2 rue Kennedy, 17560 Bourcefranc-le-Chapus;17560;;;Crédit Agricole - Charente Maritime Deux Sevres
Agence bancaire Bressuire (5 mai);15 place du 5 mai, 79300 Bressuire;79300;46,8385514;-0,4925564;Crédit Agricole - Charente Maritime Deux Sevres
Agence bancaire Bressuire (Bocapole);74 boulevard de Thouars, 79300 Bressuire;79300;46,8472815;-0,4764049;Crédit Agricole - Charente Maritime Deux Sevres
Agence bancaire Bressuire (agence entreprises);74 boulevard de Thouars, 79300 Bressuire;79300;46,8472815;-0,4764049;Crédit Agricole - Charente Maritime Deux Sevres
Agence bancaire Bressuire (banque privée);74 boulevard de Thouars, 79300 Bressuire;79300;46,8472815;-0,4764049;Crédit Agricole - Charente Maritime Deux Sevres
Agence bancaire Bressuire (pôle des professionnels);74 boulevard de Thouars, 79300 Bressuire;79300;46,8472815;-0,4764049;Crédit Agricole - Charente Maritime Deux Sevres
Relais CA Le Relais Tervais - Bressuire;28 boulevard Notre Dame, 79300 Bressuire;79300;46,84188;-0,491423;Crédit Agricole - Charente Maritime Deux Sevres
Relais CA Boulangerie Fuchs - Breuil-Magné;7 place des Caneteries, 17870 Breuil-Magné;17870;45,983825;-0,959063;Crédit Agricole - Charente Maritime Deux Sevres
Relais CA Au marché d'Annie - Brion-prés-Thouet;15 route de Saumur, 79290 Brion-prés-Thouet;79290;47,053597;-0,185522;Crédit Agricole - Charente Maritime Deux Sevres
Agence bancaire Brioux-sur-Boutonne;88 rue du Commerce, 79170 Brioux-sur-Boutonne;79170;;;Crédit Agricole - Charente Maritime Deux Sevres
Relais CA Tabac-Presse du Cèdre Vert - Brizambourg;31 avenue de Cognac, 17770 Brizambourg;17770;45,823223;-0,48183;Crédit Agricole - Charente Maritime Deux Sevres
Agence bancaire Burie;Rue de Verdun, 17770 Burie;17770;;;Crédit Agricole - Charente Maritime Deux Sevres
Relais CA La Boulange de Bussac-Forêt - Bussac-Forêt;3 route de la Cimenterie, 17210 Bussac-Forêt;17210;45,212804;-0,367886;Crédit Agricole - Charente Maritime Deux Sevres
Relais CA Le Relais des Bois - Bussac-Forêt;1 route de Saint-Yzan, 17210 Bussac-Forêt;17210;45,212027;-0,370003;Crédit Agricole - Charente Maritime Deux Sevres
Agence bancaire Celles-sur-Belle;4 rue Daniel Archaimbault, 79370 Celles-sur-Belle;79370;;;Crédit Agricole - Charente Maritime Deux Sevres
Agence bancaire Cerizay;17 avenue du Général de Gaulle, 79140 Cerizay;79140;;;Crédit Agricole - Charente Maritime Deux Sevres
Agence bancaire Champdeniers-Saint-Denis;29 place du Champ de Foire, 79220 Champdeniers-Saint-Denis;79220;;;Crédit Agricole - Charente Maritime Deux Sevres
Agence bancaire Chaniers;6 avenue Charles de Gaulle, 17610 Chaniers;17610;;;Crédit Agricole - Charente Maritime Deux Sevres
Agence bancaire Charron;Rue du Château - Zone de commerce Bat. C lot 2, 17230 Charron;17230;;;Crédit Agricole - Charente Maritime Deux Sevres
Agence bancaire Chauray;75 rue des Combes, 79180 Chauray;79180;;;Crédit Agricole - Charente Maritime Deux Sevres
Agence bancaire Châtelaillon-Plage;124 boulevard de la République, 17340 Châtelaillon-Plage;17340;;;Crédit Agricole - Charente Maritime Deux Sevres
Agence bancaire Chef-Boutonne;10 bis avenue Louis Doignon, 79110 Chef-Boutonne;79110;;;Crédit Agricole - Charente Maritime Deux Sevres
Agence bancaire Chevanceaux;19 Route de Libourne, 17210 Chevanceaux;17210;;;Crédit Agricole - Charente Maritime Deux Sevres
Relais CA Le relais des Mousquetaires - Chives;32 rue de l'Océan, 17510 Chives;17510;45,98872676799784;-0,1516276894495936;Crédit Agricole - Charente Maritime Deux Sevres
Relais CA Multimarket - Clérac;2 rue du jeu de quilles, 17270 Clérac;17270;45,181236;-0,227327;Crédit Agricole - Charente Maritime Deux Sevres
Relais CA Restaurant Le Marigny - Combrand;8 rue du Calvaire, 79140 Combrand;79140;46,862728;-0,688451;Crédit Agricole - Charente Maritime Deux Sevres
Agence bancaire Corme-Royal;14 place des Acacias, 17600 Corme-Royal;17600;;;Crédit Agricole - Charente Maritime Deux Sevres
Agence bancaire Coulonges-sur-l'Autize;4 boulevard de Niort, 79160 Coulonges-sur-l'Autize;79160;;;Crédit Agricole - Charente Maritime Deux Sevres
Agence bancaire Courçon;Place du Marché, 17170 Courçon;17170;;;Crédit Agricole - Charente Maritime Deux Sevres
Agence bancaire Courlay;4 rue des Forges, 79440 Courlay;79440;;;Crédit Agricole - Charente Maritime Deux Sevres
Agence bancaire Cozes;11 Grande Rue, 17120 Cozes;17120;;;Crédit Agricole - Charente Maritime Deux Sevres
Agence bancaire Dompierre-sur-Mer;50 rue du Général de Gaulle, 17139 Dompierre-sur-Mer;17139;;;Crédit Agricole - Charente Maritime Deux Sevres
Agence bancaire Échiré;160 Grand'Rue, 79410 Echiré;79410;;;Crédit Agricole - Charente Maritime Deux Sevres
Agence bancaire Étaules;45 rue Charles Hervé, 17750 Etaules;17750;;;Crédit Agricole - Charente Maritime Deux Sevres
Agence bancaire Ferrières d'Aunis;3 rue de Parençay, 17170 Ferrières d'Aunis;17170;;;Crédit Agricole - Charente Maritime Deux Sevres
Relais CA La Petite Fontaine - Fontaines-d'Ozillac;8 lieu-dit La Gare, 17500 Fontaines-d'Ozillac;17500;45,386247;-0,383298;Crédit Agricole - Charente Maritime Deux Sevres
Relais CA Boulangerie Stéphane Pillet - Fors;13 Grand Rue, 79230 Fors;79230;46,236019;-0,409687;Crédit Agricole - Charente Maritime Deux Sevres
Agence bancaire Fouras;54 rue de la Halle, 17450 Fouras;17450;;;Crédit Agricole - Charente Maritime Deux Sevres
Agence bancaire Frontenay-Rohan-Rohan;75 rue André Giannesini, 79270 Frontenay-Rohan-Rohan;79270;;;Crédit Agricole - Charente Maritime Deux Sevres
Agence bancaire Gémozac;9 place Jacques Verneuil, 17260 Gémozac;17260;;;Crédit Agricole - Charente Maritime Deux Sevres
Relais CA Vival - Gourgé;4 rue Philippe de Comines, 79200 Gourgé;79200;46,728483;-0,168093;Crédit Agricole - Charente Maritime Deux Sevres
Agence bancaire Jonzac;1 bis avenue des Poilus, 17500 Jonzac;17500;45,4417345;-0,4352083;Crédit Agricole - Charente Maritime Deux Sevres
Agence bancaire Jonzac (banque privée);1 bis avenue des Poilus, 17500 Jonzac;17500;45,441735;-0,435208;Crédit Agricole - Charente Maritime Deux Sevres
Agence bancaire Jonzac (pôle des professionnels);1 bis avenue des Poilus, 17500 Jonzac;17500;45,441735;-0,435208;Crédit Agricole - Charente Maritime Deux Sevres
Agence bancaire L'Absie;14 rue de la Poste, 79240 L'Absie;79240;;;Crédit Agricole - Charente Maritime Deux Sevres
Agence bancaire La Chapelle-Saint-Laurent;8 route de Niort, 79430 La Chapelle-Saint-Laurent;79430;;;Crédit Agricole - Charente Maritime Deux Sevres
Agence bancaire La Couarde-sur-Mer;1 route d'Ars, 17670 La Couarde-sur-Mer;17670;46,1957683;-1,4324202;Crédit Agricole - Charente Maritime Deux Sevres
Agence bancaire La Couarde-sur-Mer (banque privée);1 route d'Ars, 17670 La Couarde-sur-Mer;17670;46,1957683;-1,4324202;Crédit Agricole - Charente Maritime Deux Sevres
Agence bancaire La Couarde-sur-Mer (pôle des professionnels);1 route d'Ars, 17670 La Couarde-sur-Mer;17670;46,1957683;-1,4324202;Crédit Agricole - Charente Maritime Deux Sevres
Agence bancaire La Crèche;67 avenue de Paris, 79260 La Crèche;79260;;;Crédit Agricole - Charente Maritime Deux Sevres
Agence bancaire La Flotte;11 ter rue Jean Henry - Lainé, 17630 La Flotte;17630;;;Crédit Agricole - Charente Maritime Deux Sevres
Relais CA Boulangerie-Pâtisserie Gaborieau - La Forêt-sur-Sèvre;35 rue Maréchal de Lattre de Tassigny, 79380 La Forêt-sur-Sèvre;79380;46,769902;-0,649283;Crédit Agricole - Charente Maritime Deux Sevres
Agence bancaire La Jarrie;6 rue de La Providence, 17220 La Jarrie;17220;;;Crédit Agricole - Charente Maritime Deux Sevres
Agence bancaire La Mothe-Saint-Héray;32 rue de la Libération, 79800 La Mothe-Saint-Héray;79800;;;Crédit Agricole - Charente Maritime Deux Sevres
Agence Immobilière La Rochelle Square Habitat;47 quai Valin, 17000 La Rochelle;17000;46,1564642;-1,1494756;Crédit Agricole - Charente Maritime Deux Sevres
Agence bancaire La Rochelle (Champ de Mars);1 boulevard de Cognehors, 17000 La Rochelle;17000;46,1694177;-1,1464058;Crédit Agricole - Charente Maritime Deux Sevres
Agence bancaire La Rochelle (Gallieni);1 bis rue du Général Gallieni, 17000 La Rochelle;17000;46,16064357889673;-1,148299305661702;Crédit Agricole - Charente Maritime Deux Sevres
Agence bancaire La Rochelle (La Genette);85 avenue Jean Guiton, 17000 La Rochelle;17000;46,1597531;-1,1671319;Crédit Agricole - Charente Maritime Deux Sevres
Agence bancaire La Rochelle (La Pallice);153 bis boulevard Denfert Rochereau, 17000 La Rochelle;17000;46,164248;-1,2015906;Crédit Agricole - Charente Maritime Deux Sevres
Agence bancaire La Rochelle (Les Minimes);16 avenue Albert Einstein, 17000 La Rochelle;17000;46,148553;-1,1537161;Crédit Agricole - Charente Maritime Deux Sevres
Agence bancaire La Rochelle (Mireuil);1 place de l'Europe, 17000 La Rochelle;17000;46,1665432;-1,179046;Crédit Agricole - Charente Maritime Deux Sevres
Agence bancaire La Rochelle (Tasdon);51 rue Emile Normandin, 17000 La Rochelle;17000;46,14838109999999;-1,1434172;Crédit Agricole - Charente Maritime Deux Sevres
Agence bancaire La Tremblade;Place Alsace Lorraine, 17390 La Tremblade;17390;;;Crédit Agricole - Charente Maritime Deux Sevres
Agence bancaire Lagord (agence entreprises);14 rue Louis Tardy, 17140 Lagord;17140;46,1834704;-1,1489456;Crédit Agricole - Charente Maritime Deux Sevres
Agence bancaire Lagord (banque privée);14 rue Louis Tardy, 17140 Lagord;17140;46,1844850373562;-1,150937223065736;Crédit Agricole - Charente Maritime Deux Sevres
Agence bancaire Lagord (pôle des professionnels);14 rue Louis Tardy, 17140 Lagord;17140;46,18447731921268;-1,150933517972623;Crédit Agricole - Charente Maritime Deux Sevres
Agence bancaire Lagord Atlantech;2 rue Louis Tardy, 17140 Lagord;17140;46,18519440139919;-1,149883013169957;Crédit Agricole - Charente Maritime Deux Sevres
Relais CA Café des Jours Heureux - Landes;6 rue de Saintonge, 17380 Landes;17380;45,992103;-0,596232;Crédit Agricole - Charente Maritime Deux Sevres
Agence bancaire Le Château-d'Oléron;Porte d'Ors, 17480 Le Château-d'Oléron;17480;;;Crédit Agricole - Charente Maritime Deux Sevres
Relais CA L'Antre Deux - Le Vanneau-Irleau;7 chemin Neuf, 79270 Le Vanneau-Irleau;79270;46,30519599283139;-0,6485697182688308;Crédit Agricole - Charente Maritime Deux Sevres
Relais CA Mili-Ré - Les Portes-en-Ré;1 place de la Liberté, 17880 Les Portes-en-Ré;17880;46,249608;-1,498823;Crédit Agricole - Charente Maritime Deux Sevres
Agence bancaire Lezay;3 rue de Gâte Bourse, 79120 Lezay;79120;;;Crédit Agricole - Charente Maritime Deux Sevres
Relais CA Coop - Loiré-sur-Nie;4 rue de la Grand Chapitre, 17470 Loiré-sur-Nie;17470;45,953119;-0,284059;Crédit Agricole - Charente Maritime Deux Sevres
Agence bancaire Loretz-d'Argenton;18 place Eiffel, 79290 Loretz-d'Argenton;79290;;;Crédit Agricole - Charente Maritime Deux Sevres
Agence bancaire Loulay;2 place du Général de Gaulle, 17330 Loulay;17330;;;Crédit Agricole - Charente Maritime Deux Sevres
Agence bancaire Magné;23 rue de la Reine des Prés - Zone d'activité de la chaume aux bêtes, 79460 Magné;79460;;;Crédit Agricole - Charente Maritime Deux Sevres
Agence bancaire Marans;26 rue d'Aligre, 17230 Marans;17230;;;Crédit Agricole - Charente Maritime Deux Sevres
Agence bancaire Marennes;Place de la Poste, 17320 Marennes;17320;;;Crédit Agricole - Charente Maritime Deux Sevres
Relais CA Restaurant La Citadelle - Marennes-Hiers-Brouage;30 rue de Québec, 17320 Marennes-Hiers-Brouage;17320;45,865934;-1,070767;Crédit Agricole - Charente Maritime Deux Sevres
Relais CA Le Marsellois - Marsilly;33 avenue de Île d'Oléron, 17137 Marsilly;17137;46,230505;-1,13454;Crédit Agricole - Charente Maritime Deux Sevres
Agence bancaire Matha;Place de la Madeleine, 17160 Matha;17160;;;Crédit Agricole - Charente Maritime Deux Sevres
Agence bancaire Mauléon;3 rue Bernard Blanloeil - Zone d'activité de l'Esplanade, 79700 Mauléon;79700;;;Crédit Agricole - Charente Maritime Deux Sevres
Agence bancaire Mauzé-sur-le-Mignon;4 route de Jouet, 79210 Mauzé-sur-le-Mignon;79210;;;Crédit Agricole - Charente Maritime Deux Sevres
Agence bancaire Mazières-en-Gâtine;Place des Marronniers, 79310 Mazières-en-Gâtine;79310;;;Crédit Agricole - Charente Maritime Deux Sevres
Relais CA Autour des Pains - Melle;1 espace des Chênes Verts, 79500 Melle;79500;46,223976;-0,156358;Crédit Agricole - Charente Maritime Deux Sevres
Agence bancaire Melle;3 place René Groussard, 79500 Melle;79500;46,22150060000001;-0,1433882;Crédit Agricole - Charente Maritime Deux Sevres
Agence bancaire Melle (banque privée);3 place René Groussard, 79500 Melle;79500;46,22150060000001;-0,1433882;Crédit Agricole - Charente Maritime Deux Sevres
Agence bancaire Melle (pôle des professionnels);3 place René Groussard, 79500 Melle;79500;46,22150060000001;-0,1433882;Crédit Agricole - Charente Maritime Deux Sevres
Agence bancaire Meschers-sur-Gironde;48 rue Paul Massy, 17132 Meschers-sur-Gironde;17132;;;Crédit Agricole - Charente Maritime Deux Sevres
Agence bancaire Ménigoute;5 rue de Parthenay, 79340 Ménigoute;79340;;;Crédit Agricole - Charente Maritime Deux Sevres
Agence bancaire Mirambeau;105 avenue de la République, 17150 Mirambeau;17150;;;Crédit Agricole - Charente Maritime Deux Sevres
Agence bancaire Moncoutant;16 avenue du Maréchal de Lattre de Tassigny, 79320 Moncoutant;79320;;;Crédit Agricole - Charente Maritime Deux Sevres
Agence bancaire Montendre;8 rue des Brouillauds, 17130 Montendre;17130;;;Crédit Agricole - Charente Maritime Deux Sevres
Agence bancaire Montguyon;30 avenue de la République, 17270 Montguyon;17270;;;Crédit Agricole - Charente Maritime Deux Sevres
Relais CA Le Plaisir du Pain - Muron;2 rue des Tilleuls - 6 place de l'Église, 17430 Muron;17430;46,036053;-0,828157;Crédit Agricole - Charente Maritime Deux Sevres
Relais CA L'Épicerie du Coin - Néré;10 A rue de Saintonge, 17510 Néré;17510;45,973756;-0,236497;Crédit Agricole - Charente Maritime Deux Sevres
Agence bancaire Nieul-sur-Mer;Avenue du Grand Large, Le Moulin des Chênes Verts, 17137 Nieul-sur-Mer;17137;;;Crédit Agricole - Charente Maritime Deux Sevres
Relais CA MAG 2 - Niort;1 E rue André Maurois, 79000 Niort;79000;46,327255;-0,437411;Crédit Agricole - Charente Maritime Deux Sevres
Agence Immobilière Niort Square Habitat;6 ter rue Emilie Cholois, 79000 Niort;79000;46,3211478;-0,4651993;Crédit Agricole - Charente Maritime Deux Sevres
Agence bancaire Niort (Brèche);41 rue Ricard, 79000 Niort;79000;46,32351750678868;-0,4596998018337106;Crédit Agricole - Charente Maritime Deux Sevres
Agence bancaire Niort (Halles);23 rue Brisson, 79000 Niort;79000;46,3258647;-0,4639328;Crédit Agricole - Charente Maritime Deux Sevres
Agence bancaire Niort (Mendès France);10 rue Martin Luther King - Zone d'activité Mendès France, 79000 Niort;79000;46,335042;-0,4045357;Crédit Agricole - Charente Maritime Deux Sevres
Agence bancaire Niort (Saint-Florent);155 avenue de La Rochelle, 79000 Niort;79000;46,3169403;-0,4714015999999999;Crédit Agricole - Charente Maritime Deux Sevres
Agence bancaire Niort (Sainte-Pezenne);138 route de Coulonges, 79000 Niort;79000;46,3422426;-0,4746186000000001;Crédit Agricole - Charente Maritime Deux Sevres
Agence bancaire Niort (agence entreprises);4 boulevard Louis Tardy, 79000 Niort;79000;46,3105088;-0,4793597;Crédit Agricole - Charente Maritime Deux Sevres
Agence bancaire Niort (banque privée);4 boulevard Louis Tardy, 79000 Niort;79000;46,3105088;-0,4793597;Crédit Agricole - Charente Maritime Deux Sevres
Agence bancaire Niort (pôle des professionnels);4 boulevard Louis Tardy, 79000 Niort;79000;46,31147824703217;-0,4777719512699741;Crédit Agricole - Charente Maritime Deux Sevres
Relais CA Presse du Forum des Brizeaux - Niort;45 rue des Justices, 79000 Niort;79000;46,340553;-0,438406;Crédit Agricole - Charente Maritime Deux Sevres
Agence bancaire Nueil-les-Aubiers;73 avenue Saint-Hubert, 79250 Nueil-les-Aubiers;79250;;;Crédit Agricole - Charente Maritime Deux Sevres
Relais CA Bouillon SNC - Paillé;2 rue de la Place, 17470 Paillé;17470;45,988744;-0,392124;Crédit Agricole - Charente Maritime Deux Sevres
Agence bancaire Pamproux;1 rue du Marché, 79800 Pamproux;79800;;;Crédit Agricole - Charente Maritime Deux Sevres
Agence bancaire Parthenay (Leclerc);32 rue Ludwig van Beethoven, 79200 Parthenay;79200;46,6489866;-0,2237104;Crédit Agricole - Charente Maritime Deux Sevres
Agence bancaire Parthenay (Mendès France);2 avenue Pierre Mendès France, 79200 Parthenay;79200;46,6443551;-0,2491088;Crédit Agricole - Charente Maritime Deux Sevres
Agence bancaire Parthenay (banque privée);2 avenue Pierre Mendès France, 79200 Parthenay;79200;46,6443551;-0,2491088;Crédit Agricole - Charente Maritime Deux Sevres
Agence bancaire Parthenay (pôle des professionnels);2 avenue Pierre Mendès France, 79200 Parthenay;79200;46,6443551;-0,2491088;Crédit Agricole - Charente Maritime Deux Sevres
Agence bancaire Périgny;Place de la Pommeraie, 17180 Périgny;17180;;;Crédit Agricole - Charente Maritime Deux Sevres
Relais CA Vival - Pisany;16 avenue de Vivonne, 17600 Pisany;17600;45,700629;-0,78012;Crédit Agricole - Charente Maritime Deux Sevres
Relais CA Au marché d'Annie - Plaine-et-Vallées;20 place des Marronnniers, 79100 Plaine-et-Vallées;79100;46,951226;-0,08076;Crédit Agricole - Charente Maritime Deux Sevres
Agence bancaire Pons;22 cours Jules Ferry, 17800 Pons;17800;;;Crédit Agricole - Charente Maritime Deux Sevres
Agence bancaire Pont-l'Abbé-d'Arnoult;65 avenue André Malraux, 17250 Pont-l'Abbé-d'Arnoult;17250;;;Crédit Agricole - Charente Maritime Deux Sevres
Agence bancaire Port-des-Barques;Avenue de la République, 17730 Port-des-Barques;17730;;;Crédit Agricole - Charente Maritime Deux Sevres
Relais CA Café du Commerce - Pouillac;Le Carrefour, 17210 Pouillac;17210;45,27118548008339;-0,2506634894868867;Crédit Agricole - Charente Maritime Deux Sevres
Agence bancaire Prahecq;29 rue de Niort, 79230 Prahecq;79230;;;Crédit Agricole - Charente Maritime Deux Sevres
Agence bancaire Puilboreau;Avenue de Belgique - Centre d'Affaires de Beaulieu Ouest 6 - Ilôt 3, 17138 Puilboreau;17138;;;Crédit Agricole - Charente Maritime Deux Sevres
Agence Immobilière Rochefort Square Habitat;125 rue Pierre Loti, 17300 Rochefort;17300;45,9364299;-0,9624138;Crédit Agricole - Charente Maritime Deux Sevres
Agence bancaire Rochefort (Gambetta);35 ter rue Denfert Rochereau, 17300 Rochefort;17300;45,9384652924716;-0,966628993014067;Crédit Agricole - Charente Maritime Deux Sevres
Agence bancaire Rochefort (La Fayette);39 avenue la Fayette, 17300 Rochefort;17300;45,9351845;-0,9626764000000001;Crédit Agricole - Charente Maritime Deux Sevres
Agence bancaire Rochefort (banque privée);35 ter rue Denfert-Rochereau, 17300 Rochefort;17300;45,9384715659989;-0,9666241725660663;Crédit Agricole - Charente Maritime Deux Sevres
Agence bancaire Rochefort (pôle des professionnels);35 ter rue Denfert-Rochereau, 17300 Rochefort;17300;45,93845146073721;-0,9665949750094338;Crédit Agricole - Charente Maritime Deux Sevres
Relais CA Le Chiquito - Rom;1 Grand Rue, 79120 Rom;79120;46,292928;0,115039;Crédit Agricole - Charente Maritime Deux Sevres
Agence Immobilière Royan Square Habitat;41 avenue des Congrès, 17200 Royan;17200;45,6214364;-1,0324929;Crédit Agricole - Charente Maritime Deux Sevres
Agence bancaire Royan (Briand);77 boulevard Aristide Briand, 17200 Royan;17200;45,6271388;-1,0305956;Crédit Agricole - Charente Maritime Deux Sevres
Agence bancaire Royan (République);13 boulevard de la République, 17200 Royan;17200;45,6244044;-1,0275618;Crédit Agricole - Charente Maritime Deux Sevres
Agence bancaire Royan (banque privée);13 boulevard de la République, 17200 Royan;17200;45,6244044;-1,0275618;Crédit Agricole - Charente Maritime Deux Sevres
Agence bancaire Royan (pôle des professionnels);13 boulevard de la République, 17200 Royan;17200;45,6244044;-1,0275618;Crédit Agricole - Charente Maritime Deux Sevres
Relais CA Gamm vert - Saint-Agnant;Les Fontaines, 17620 Saint-Agnant;17620;45,86109559958445;-0,9508539183416085;Crédit Agricole - Charente Maritime Deux Sevres
Agence bancaire Saint-Aigulin;1 avenue Georges Clemenceau, 17360 Saint-Aigulin;17360;;;Crédit Agricole - Charente Maritime Deux Sevres
Relais CA Vival - Saint-Bris-des-Bois;6 rue de la Vallée, 17770 Saint-Bris-des-Bois;17770;45,766715;-0,490139;Crédit Agricole - Charente Maritime Deux Sevres
Relais CA Vival - Saint-Christophe;14 B route d'Aigrefeuille, 17220 Saint-Christophe;17220;46,144126;-0,943758;Crédit Agricole - Charente Maritime Deux Sevres
Relais CA La Boulangerie de Lilie - Saint-Ciers-Champagne;28 route de Port Maubert, 17520 Saint-Ciers-Champagne;17520;45,44347;-0,300111;Crédit Agricole - Charente Maritime Deux Sevres
Relais CA Vival - Saint-Ciers-du-Taillon;1 rue de l'Église, 17240 Saint-Ciers-du-Taillon;17240;45,423129;-0,641206;Crédit Agricole - Charente Maritime Deux Sevres
Relais CA Le Saint-Clément - Saint-Clément-des-Baleines;172 rue du Centre, 17590 Saint-Clément-des-Baleines;17590;46,22838;-1,541701;Crédit Agricole - Charente Maritime Deux Sevres
Relais CA L'escale17 - Saint-Félix;16 rue de Saintonge, 17330 Saint-Félix;17330;46,088739;-0,59805;Crédit Agricole - Charente Maritime Deux Sevres
Relais CA Augustin Véronique - Saint-Fort-sur-Gironde;31 rue du Commerce, 17240 Saint-Fort-sur-Gironde;17240;45,461527;-0,720204;Crédit Agricole - Charente Maritime Deux Sevres
Agence bancaire Saint-Genis-de-Saintonge;64 avenue de Bordeaux, 17240 Saint-Genis-de-Saintonge;17240;;;Crédit Agricole - Charente Maritime Deux Sevres
Relais CA Épicerie Les Sables - Saint-Georges-d'Oléron;453 rue de la Chardonnière - Camping Les Sables Vignier Plage, 17190 Saint-Georges-d'Oléron;17190;45,958417;-1,381914;Crédit Agricole - Charente Maritime Deux Sevres
Agence bancaire Saint-Georges-de-Didonne;1 rue du Maréchal Leclerc, 17110 Saint-Georges-de-Didonne;17110;;;Crédit Agricole - Charente Maritime Deux Sevres
Relais CA Le Saint-Germain - Saint-Germain-de-Lusignan;8 avenue de l'Europe, 17500 Saint-Germain-de-Lusignan;17500;45,449719;-0,460752;Crédit Agricole - Charente Maritime Deux Sevres
Agence bancaire Saint-Hilaire-de-Villefranche;21 avenue de Saint-Jean-d'Angély, 17770 Saint-Hilaire-de-Villefranche;17770;;;Crédit Agricole - Charente Maritime Deux Sevres
Agence bancaire Saint-Jean-d'Angély;14 place de l'Hôtel de ville, 17400 Saint-Jean-d'Angély;17400;45,9444419;-0,5188161;Crédit Agricole - Charente Maritime Deux Sevres
Agence bancaire Saint-Jean-d'Angély (banque privée);14 place de l'Hôtel de ville, 17400 Saint-Jean-d'Angély;17400;45,9444419;-0,5188161;Crédit Agricole - Charente Maritime Deux Sevres
Agence bancaire Saint-Jean-d'Angély (pôle des professionnels);14 place de l'Hôtel de ville, 17400 Saint-Jean-d'Angély;17400;45,9444419;-0,5188161;Crédit Agricole - Charente Maritime Deux Sevres
Relais CA Le Saint-Julien Tabac - Saint-Julien-de-l'Escap;31 Grande Rue, 17400 Saint-Julien-de-l'Escap;17400;45,933026;-0,489694;Crédit Agricole - Charente Maritime Deux Sevres
Relais CA Le Zinc de Saint-Pierre - Saint-Laurent-de-la-Prée;171 route Impériale, 17450 Saint-Laurent-de-la-Prée;17450;45,992834;-1,025084;Crédit Agricole - Charente Maritime Deux Sevres
Relais CA Restaurant Le Montbrun - Saint-Léger-de-Montbrun;2 rue du Général Quetineau, 79100 Saint-Léger-de-Montbrun;79100;46,993828;-0,122329;Crédit Agricole - Charente Maritime Deux Sevres
Relais CA Vival - Saint-Loup-Lamairé;16 rue Théophane Venard, 79600 Saint-Loup-Lamairé;79600;46,788259;-0,166953;Crédit Agricole - Charente Maritime Deux Sevres
Agence bancaire Saint-Maixent-l'Ecole;4 avenue Gambetta, 79400 Saint-Maixent-l'Ecole;79400;;;Crédit Agricole - Charente Maritime Deux Sevres
Agence bancaire Saint-Martin-de-Ré;17 quai Job Foran, 17410 Saint-Martin-de-Ré;17410;;;Crédit Agricole - Charente Maritime Deux Sevres
Relais CA La Tiendita - Saint-Martin-de-Sanzay;11 place Jean-Louis Noël, 79290 Saint-Martin-de-Sanzay;79290;47,081035;-0,199827;Crédit Agricole - Charente Maritime Deux Sevres
Agence bancaire Saint-Palais-sur-Mer;3 rue de l'Arquebuse, 17420 Saint-Palais-sur-Mer;17420;;;Crédit Agricole - Charente Maritime Deux Sevres
Agence bancaire Saint-Pierre-d'Oléron;Place Gambetta, 17310 Saint-Pierre-d'Oléron;17310;45,9425936;-1,3070081;Crédit Agricole - Charente Maritime Deux Sevres
Agence bancaire Saint-Pierre-d'Oléron (banque privée);Place Gambetta, 17310 Saint-Pierre-d'Oléron;17310;45,9425936;-1,3070081;Crédit Agricole - Charente Maritime Deux Sevres
Agence bancaire Saint-Pierre-d'Oléron (pôle des professionnels);Place Gambetta, 17310 Saint-Pierre-d'Oléron;17310;45,9425936;-1,3070081;Crédit Agricole - Charente Maritime Deux Sevres
Agence bancaire Saint-Porchaire;93 rue nationale, 17250 Saint-Porchaire;17250;;;Crédit Agricole - Charente Maritime Deux Sevres
Relais CA Le Saint-Sauveur - Saint-Sauveur-d'Aunis;11 place de la Mairie, 17540 Saint-Sauveur-d'Aunis;17540;46,218037;-0,886663;Crédit Agricole - Charente Maritime Deux Sevres
Agence bancaire Saint-Savinien;4 place de la Victoire, 17350 Saint-Savinien;17350;;;Crédit Agricole - Charente Maritime Deux Sevres
Relais CA Alimentation Générale - Saint-Simon-de-Pellouaill;1 route de Bénigousse, 17260 Saint-Simon-de-Pellouaill;17260;45,613241;-0,697044;Crédit Agricole - Charente Maritime Deux Sevres
Relais CA L'Espérance - Saint-Symphorien;20 place de l'Église, 79270 Saint-Symphorien;79270;46,264375;-0,492288;Crédit Agricole - Charente Maritime Deux Sevres
Relais CA Maison de la Presse - Saint-Trojan-les-Bains;53 rue de la République, 17370 Saint-Trojan-les-Bains;17370;45,841549;-1,207553;Crédit Agricole - Charente Maritime Deux Sevres
Agence bancaire Saint-Varent;13 place du 14 juillet, 79330 Saint-Varent;79330;;;Crédit Agricole - Charente Maritime Deux Sevres
Agence bancaire Saint-Xandre;4 rue de la République, 17138 Saint-Xandre;17138;;;Crédit Agricole - Charente Maritime Deux Sevres
Agence Immobilière Saintes Square Habitat;9 cours National, 17100 Saintes;17100;45,7469367;-0,6311654;Crédit Agricole - Charente Maritime Deux Sevres
Agence bancaire Saintes (Gambetta);31 avenue Gambetta, 17100 Saintes;17100;45,7470159;-0,6268555;Crédit Agricole - Charente Maritime Deux Sevres
Agence bancaire Saintes (Reverseaux);46 bis Cours Reverseaux, 17100 Saintes;17100;45,7450712;-0,6389724999999999;Crédit Agricole - Charente Maritime Deux Sevres
Agence bancaire Saintes (agence entreprises);31 avenue Gambetta, 17100 Saintes;17100;45,7470159;-0,6268555;Crédit Agricole - Charente Maritime Deux Sevres
Agence bancaire Saintes (banque privée);31 avenue Gambetta, 17100 Saintes;17100;45,7470159;-0,6268555;Crédit Agricole - Charente Maritime Deux Sevres
Agence bancaire Saintes (pôle des professionnels);31 avenue Gambetta, 17100 Saintes;17100;45,7470159;-0,6268555;Crédit Agricole - Charente Maritime Deux Sevres
Agence bancaire Saujon;2 cours Victor Hugo, 17600 Saujon;17600;;;Crédit Agricole - Charente Maritime Deux Sevres
Agence bancaire Sauzé-Vaussais;2 place du Grand Puits, 79190 Sauzé-Vaussais;79190;;;Crédit Agricole - Charente Maritime Deux Sevres
Agence bancaire Secondigny;29 rue de l'Anjou, 79130 Secondigny;79130;;;Crédit Agricole - Charente Maritime Deux Sevres
Agence bancaire Surgères;98 rue Audry de Puyravault, 17700 Surgères;17700;46,106893;-0,7504665;Crédit Agricole - Charente Maritime Deux Sevres
Agence bancaire Surgères (banque privée);98 rue Audry de Puyravault, 17700 Surgères;17700;46,106893;-0,7504665;Crédit Agricole - Charente Maritime Deux Sevres
Agence bancaire Surgères (pôle des professionnels);98 rue Audry de Puyravault, 17700 Surgères;17700;46,106893;-0,7504665;Crédit Agricole - Charente Maritime Deux Sevres
Relais CA La Civette de Taillebourg - Taillebourg;12 rue Aliénor d'Aquitaine, 17350 Taillebourg;17350;45,834785;-0,648048;Crédit Agricole - Charente Maritime Deux Sevres
Relais CA La civette de Taillebourg - Taillebourg;12 rue Aliénor d'Aquitaine, 17350 Taillebourg;17350;45,834785;-0,648048;Crédit Agricole - Charente Maritime Deux Sevres
Agence bancaire Thénezay;6 rue Saint-Honoré, 79390 Thénezay;79390;;;Crédit Agricole - Charente Maritime Deux Sevres
Relais CA 1000 Frais - Thouars;7 place Daniel Civrais, 79100 Thouars;79100;46,976229;-0,278615;Crédit Agricole - Charente Maritime Deux Sevres
Relais CA Espace Commercial - Thouars;53 route de Thouars, 79100 Thouars;79100;46,991079;-0,235393;Crédit Agricole - Charente Maritime Deux Sevres
Agence Immobilière Thouars Square Habitat;58 avenue Victor Leclerc, 79100 Thouars;79100;46,98254083877073;-0,2124526535094451;Crédit Agricole - Charente Maritime Deux Sevres
Agence bancaire Thouars (Renan);30 boulevard Ernest Renan, 79100 Thouars;79100;46,9783905;-0,2140564;Crédit Agricole - Charente Maritime Deux Sevres
Agence bancaire Thouars (Zola);97 avenue Emile Zola, 79100 Thouars;79100;46,99195510000001;-0,2093044;Crédit Agricole - Charente Maritime Deux Sevres
Agence bancaire Thouars (banque privée);30 boulevard Ernest Renan, 79100 Thouars;79100;46,9783905;-0,2140564;Crédit Agricole - Charente Maritime Deux Sevres
Agence bancaire Thouars (pôle des professionnels);30 boulevard Ernest Renan, 79100 Thouars;79100;46,9783905;-0,2140564;Crédit Agricole - Charente Maritime Deux Sevres
Agence bancaire Tonnay-Boutonne;3 place de l'Hôtel de ville, 17380 Tonnay-Boutonne;17380;;;Crédit Agricole - Charente Maritime Deux Sevres
Agence bancaire Tonnay-Charente;79 rue Alsace Lorraine, 17430 Tonnay-Charente;17430;;;Crédit Agricole - Charente Maritime Deux Sevres
Relais CA Marché Frais - Val en Vignes;2 rue du Moulin - Cersay, 79290 Val en Vignes;79290;47,045982;-0,353718;Crédit Agricole - Charente Maritime Deux Sevres
Agence bancaire Vasles;3 place du Vingt Cinq Août, 79340 Vasles;79340;;;Crédit Agricole - Charente Maritime Deux Sevres
Agence bancaire Vaux-sur-Mer;14 rue de Verdun, 17640 Vaux-sur-Mer;17640;;;Crédit Agricole - Charente Maritime Deux Sevres
Relais CA L'Épicerie Tabac de Vérines - Vérines;15 rue des Marchands, 17540 Vérines;17540;46,194537;-0,967065;Crédit Agricole - Charente Maritime Deux Sevres
