nom;adresse;code_postal;latitude;longitude;region_source
Agence bancaire AGNEAUX;2 Place Pierre De Gouville, 50180 AGNEAUX;50180;;;Crédit Agricole - Normandie
Agence bancaire AGON-COUTAINVILLE;6 Place du 28 Juillet, 50230 Agon-Coutainville;50230;;;Crédit Agricole - Normandie
Agence bancaire AGENCE EN LIGNE CA EXPERT;52 Boulevard du 1er Chasseurs, 61000 ALENCON;61000;48,43946150000001;0,0851552;Crédit Agricole - Normandie
Agence bancaire ALENCON - CLEMENCEAU;15-17 Cours Clemenceau BP 79, 61000 ALENCON;61000;48,4313511;0,0890027;Crédit Agricole - Normandie
Agence bancaire ALENCON - COURTEILLE;72 rue Pierre Curie-Courteille BP 701, 61000 ALENCON;61000;48,4359085;0,1052078;Crédit Agricole - Normandie
Agence bancaire ALENCON - GENERAL LECLERC;96 avenue du Général Leclerc, 61000 ALENCON;61000;48,4200767;0,0894179;Crédit Agricole - Normandie
Agence bancaire ALENCON - MONTSORT;17 rue des Tisons, 61000 ALENCON;61000;48,4258239;0,0897462;Crédit Agricole - Normandie
Agence bancaire ALENCON AGENCE ENTREPRISES DE L'ORNE;15 cours Clémenceau, 61000 ALENCON;61000;48,4295505;0,0879144;Crédit Agricole - Normandie
Agence bancaire ARGENCES;5 Place du Maréchal Joffre, 14370 ARGENCES;14370;;;Crédit Agricole - Normandie
Agence bancaire ARGENTAN;3 rue Eugène Denis, 61200 ARGENTAN;61200;;;Crédit Agricole - Normandie
Agence bancaire ATHIS DE L ORNE;22 Place Saint Vigor, 61430 ATHIS VAL DE ROUVRE;61430;;;Crédit Agricole - Normandie
Agence bancaire AUNAY SUR ODON;2 rue de Villers, 14260 AUNAY SUR ODON;14260;;;Crédit Agricole - Normandie
Agence bancaire AVRANCHES;2 rue St Gaudens, 50300 AVRANCHES;50300;;;Crédit Agricole - Normandie
Agence bancaire BAGNOLES DE L ORNE;5, rue des Casinos, 61140 BAGNOLES DE L ORNE NORMANDIE;61140;;;Crédit Agricole - Normandie
Agence bancaire BARENTON;153 rue du Président Kennedy, 50720 BARENTON;50720;;;Crédit Agricole - Normandie
Agence bancaire BARFLEUR;Rue Saint Thomas BP 3, 50760 BARFLEUR;50760;;;Crédit Agricole - Normandie
Agence bancaire BARNEVILLE;6 Place du Docteur Auvret, 50270 BARNEVILLE CARTERET;50270;;;Crédit Agricole - Normandie
Agence bancaire BAYEUX;6 Place du Marché, 14400 BAYEUX;14400;;;Crédit Agricole - Normandie
Agence bancaire BEAUMONT-HAGUE;1 rue Millecent BP 129, 50440 BEAUMONT-HAGUE;50440;;;Crédit Agricole - Normandie
Agence bancaire BELLEME;14 Place Boucicaut BP 15, 61130 BELLEME;61130;;;Crédit Agricole - Normandie
Agence bancaire CAEN - LA BIJUDE;Lieu dit la Bijude, 14112 BIEVILLE BEUVILLE;14112;;;Crédit Agricole - Normandie
Agence bancaire BLAINVILLE SUR ORNE;8 bis rue du Général Leclerc, 14550 BLAINVILLE SUR ORNE;14550;;;Crédit Agricole - Normandie
Agence bancaire BRECEY;11 rue du Val de Sée BP 5, 50370 BRECEY;50370;;;Crédit Agricole - Normandie
Agence bancaire BREHAL;10 rue de la Plage, 50290 BREHAL;50290;;;Crédit Agricole - Normandie
Agence bancaire BRETTEVILLE L ORGUEILLEUSE;Rue de Caen, 14740 BRETTEVILLE L ORGUEILLEUSE;14740;;;Crédit Agricole - Normandie
Agence bancaire BRETTEVILLE SUR LAIZE;Place du Marché, 14680 BRETTEVILLE SUR LAIZE;14680;;;Crédit Agricole - Normandie
Agence bancaire BRICQUEBEC;Place Lemarois BP 20, 50260 BRICQUEBEC EN COTENTIN;50260;;;Crédit Agricole - Normandie
Agence bancaire BRIOUZE;Rue d Argentan BP 17, 61220 BRIOUZE;61220;;;Crédit Agricole - Normandie
Agence bancaire CABOURG;8 avenue de la mer, 14390 CABOURG;14390;;;Crédit Agricole - Normandie
Agence bancaire AGENCE PROMOTION IMMOBILIERE;15 Esplanade Brillaud de Laujardière, 14000 Caen;14000;49,1989086;-0,3786039;Crédit Agricole - Normandie
Agence bancaire CAEN - AVENUE DU 6 JUIN;10 Avenue du Six Juin, 14000 Caen;14000;49,1825251;-0,358296;Crédit Agricole - Normandie
Agence bancaire CAEN - CENTRE;10 Avenue du Six Juin, 14000 Caen;14000;49,1825251;-0,358296;Crédit Agricole - Normandie
Agence bancaire CAEN - COTE DE NACRE;21 Avenue Côte de Nacre, 14000 CAEN;14000;49,19889;-0,36084;Crédit Agricole - Normandie
Agence bancaire CAEN - LA FOLIE COUVRECHEF;29 Avenue Jean Monnet, 14000 CAEN;14000;49,2009524;-0,3825882;Crédit Agricole - Normandie
Agence bancaire CAEN - POMPIDOU;81 Boulevard Georges Pompidou, 14000 CAEN;14000;49,187084;-0,4118083;Crédit Agricole - Normandie
Agence bancaire CAEN - RIVES DE L ORNE;8, rue Rosa Parks, 14000 CAEN;14000;49,1786959;-0,3486702;Crédit Agricole - Normandie
Agence bancaire CAEN - RUE DE FALAISE;136 rue de Falaise, 14000 CAEN;14000;49,1677562;-0,3517897;Crédit Agricole - Normandie
Agence bancaire CAEN - SAINT PIERRE;1 Boulevard Maréchal Leclerc, 14000 CAEN;14000;49,1832434;-0,3609258;Crédit Agricole - Normandie
Agence bancaire CAEN - SAINT SAUVEUR;9 rue Saint Sauveur, 14000 CAEN;14000;49,182883;-0,3683576;Crédit Agricole - Normandie
Agence bancaire CAEN - VENOIX;46 Avenue Henry Chéron, 14000 CAEN;14000;49,173476;-0,3929569000000001;Crédit Agricole - Normandie
Agence bancaire CAGNY;2 Rue Edith Piaf, 14630 CAGNY;14630;;;Crédit Agricole - Normandie
Agence bancaire CAMBREMER;Place de L Eglise, 14340 CAMBREMER;14340;;;Crédit Agricole - Normandie
Agence bancaire CANISY;6 rue Jean Follain, 50750 CANISY;50750;;;Crédit Agricole - Normandie
Agence bancaire CARENTAN;13 Rue Sébline BP 118, 50500 CARENTAN LES MARAIS;50500;;;Crédit Agricole - Normandie
Agence bancaire CARROUGES;Avenue du Maréchal Leclerc, 61320 CARROUGES;61320;;;Crédit Agricole - Normandie
Agence bancaire CAUMONT L EVENTE;19 rue Saint Martin, 14240 CAUMONT L EVENTE;14240;;;Crédit Agricole - Normandie
Agence bancaire CERENCES;Rue Principale, 50510 CERENCES;50510;;;Crédit Agricole - Normandie
Agence bancaire CERISY LA FORET;Place du Marché, 50680 CERISY LA FORET;50680;;;Crédit Agricole - Normandie
Agence bancaire CERISY-LA-SALLE;12 Place de la Mairie, 50210 CERISY-LA-SALLE;50210;;;Crédit Agricole - Normandie
Agence bancaire CHERBOURG - CENTRE;10 rue de l Ancien Quai, 50100 CHERBOURG-EN-COTENTIN;50100;49,6377122;-1,6243809;Crédit Agricole - Normandie
Agence bancaire CHERBOURG - VAL DE SAIRE;48 rue du Val de Saire, 50100 CHERBOURG-EN-COTENTIN;50100;49,6394191814104;-1,626343790564218;Crédit Agricole - Normandie
Agence bancaire EQUEURDREVILLE-HAINNEVILLE;1 rue de la Paix EQUEURDREVILLE HAINNEVILLE, 50120 CHERBOURG-EN-COTENTIN;50120;49,6477999;-1,64859;Crédit Agricole - Normandie
Agence bancaire OCTEVILLE;39 rue Roger Salengro OCTEVILLE, 50130 CHERBOURG-EN-COTENTIN;50130;49,627989;-1,6419003;Crédit Agricole - Normandie
Agence bancaire QUERQUEVILLE;24 Rue Roger Glinel QUERQUEVILLE, 50460 CHERBOURG-EN-COTENTIN;50460;49,6650513;-1,6941829;Crédit Agricole - Normandie
Agence bancaire TOURLAVILLE;Rue de la Fonderie -TOURLAVILLE, 50110 CHERBOURG-EN-COTENTIN;50110;49,643869;-1,5835955;Crédit Agricole - Normandie
Agence bancaire COLOMBELLES;11 rue Léon Blum, 14460 COLOMBELLES;14460;;;Crédit Agricole - Normandie
Agence bancaire CONDE SUR NOIREAU;27 rue Saint Martin CONDE SUR NOIREAU, 14110 CONDE EN NORMANDIE;14110;;;Crédit Agricole - Normandie
Agence bancaire CONDE SUR VIRE;Route de Sainte Suzanne BP 4, 50890 CONDE SUR VIRE;50890;;;Crédit Agricole - Normandie
Agence bancaire COURSEULLES;3 Place du Marché, 14470 COURSEULLES;14470;;;Crédit Agricole - Normandie
Agence bancaire COURTOMER;Place du Marché, 61390 COURTOMER;61390;;;Crédit Agricole - Normandie
Agence bancaire COUTANCES - CENTRE;8 rue Saint Dominique BP 326, 50200 COUTANCES;50200;;;Crédit Agricole - Normandie
Agence bancaire CREANCES;124 rue du Haut Chemin, 50710 CREANCES;50710;;;Crédit Agricole - Normandie
Agence bancaire DAMIGNY;2 rue principale, 61250 DAMIGNY;61250;;;Crédit Agricole - Normandie
Agence bancaire DEAUVILLE;64 rue Désiré Le Hoc, 14800 DEAUVILLE;14800;;;Crédit Agricole - Normandie
Agence bancaire DIVES SUR MER;80 rue du Général de Gaulle, 14160 DIVES SUR MER;14160;;;Crédit Agricole - Normandie
Agence bancaire DOMFRONT;6 rue de la République BP 9, 61700 DOMFRONT EN POIRAIE;61700;;;Crédit Agricole - Normandie
Agence bancaire DONVILLE LES BAINS;107 Route de Coutances, 50350 DONVILLE LES BAINS;50350;;;Crédit Agricole - Normandie
Agence bancaire DOUVRES LA DELIVRANDE;80, rue du Général de Gaulle, 14440 DOUVRES LA DELIVRANDE;14440;;;Crédit Agricole - Normandie
Agence bancaire DOZULE;96 Grande Rue, 14430 DOZULE;14430;;;Crédit Agricole - Normandie
Agence bancaire DUCEY;12 rue Grande Rue BP 9, 50220 DUCEY LES CHERIS;50220;;;Crédit Agricole - Normandie
Agence bancaire ECOUCHE;8 rue des 3 Frères Terrier, 61150 ECOUCHE LES VALLEES;61150;;;Crédit Agricole - Normandie
Agence bancaire EVRECY;7, Rue Camille Blaizot, 14210 EVRECY;14210;;;Crédit Agricole - Normandie
Agence bancaire FALAISE;13 rue de la Pelleterie, 14700 FALAISE;14700;;;Crédit Agricole - Normandie
Agence bancaire FLERS - DUPERRON;3 Place C. Duperron BP 139, 61100 FLERS;61100;48,7492026;-0,5652515;Crédit Agricole - Normandie
Agence bancaire FLERS - SAINT GERMAIN;57 rue du 6 juin, 61100 FLERS;61100;48,74844;-0,56887;Crédit Agricole - Normandie
Agence bancaire FLEURY SUR ORNE;Bâtiment Galilée 26 rue du Quadrant, 14123 FLEURY SUR ORNE;14123;;;Crédit Agricole - Normandie
Agence bancaire GACE;35 Grande Rue BP 13, 61230 GACE;61230;;;Crédit Agricole - Normandie
Agence bancaire GAVRAY;1 rue de la Libération BP 3, 50450 GAVRAY;50450;;;Crédit Agricole - Normandie
Agence bancaire GIBERVILLE;2 rue Ambroise Croizat, 14730 GIBERVILLE;14730;;;Crédit Agricole - Normandie
Agence bancaire GOUVILLE SUR MER;Rue des Frères Lacolley, 50560 GOUVILLE SUR MER;50560;;;Crédit Agricole - Normandie
Agence bancaire GRANVILLE;14 rue Couraye BP 327, 50400 GRANVILLE;50400;48,837009;-1,5964556;Crédit Agricole - Normandie
Agence bancaire GRANVILLE - SAINT NICOLAS;781-782 rue des Ecoles, 50400 GRANVILLE;50400;48,8342466;-1,569617;Crédit Agricole - Normandie
Agence bancaire HEROUVILLE SAINT-CLAIR - GRANDE CAVEE;3 Avenue de la Grande Cavée, 14200 HEROUVILLE SAINT-CLAIR;14200;;;Crédit Agricole - Normandie
Agence bancaire HONFLEUR;13 rue de la République, 14600 HONFLEUR;14600;;;Crédit Agricole - Normandie
Agence bancaire IFS;52 Avenue Jean Villar, 14123 IFS;14123;;;Crédit Agricole - Normandie
Agence bancaire ISIGNY LE BUAT;35 rue du Pain d Avaine, 50540 ISIGNY LE BUAT;50540;;;Crédit Agricole - Normandie
Agence bancaire ISIGNY SUR MER;28 Place du Général de Gaulle, 14230 ISIGNY SUR MER;14230;;;Crédit Agricole - Normandie
Agence bancaire L AIGLE;31 rue Saint Jean BP 98, 61303 L AIGLE;61303;;;Crédit Agricole - Normandie
Agence bancaire LA FERTE FRESNEL;6 Route de Moulins la Marche, 61550 LA FERTE EN OUCHE;61550;;;Crédit Agricole - Normandie
Agence bancaire LA FERTE MACE;56 rue d Hautvie BP 127, 61600 LA FERTE MACE;61600;;;Crédit Agricole - Normandie
Agence bancaire LA HAYE DU PUITS;12 rue du Dr Callégari, 50250 LA HAYE DU PUITS;50250;;;Crédit Agricole - Normandie
Agence bancaire LA HAYE PESNEL;5 rue Clamorgan BP 15, 50320 LA HAYE PESNEL;50320;;;Crédit Agricole - Normandie
Agence bancaire THURY HARCOURT;6 Place du Général de Gaulle THURY HARCOURT, 14220 LE HOM;14220;;;Crédit Agricole - Normandie
Agence bancaire LE MELE SUR SARTHE;1 rue du Grenier à Sel BP 18, 61170 LE MELE SUR SARTHE;61170;;;Crédit Agricole - Normandie
Agence bancaire LE MERLERAULT;1 route de Granville BP 4, 61240 LE MERLERAULT;61240;;;Crédit Agricole - Normandie
Agence bancaire LE MOLAY LITTRY;Place du Marché, 14330 LE MOLAY LITTRY;14330;;;Crédit Agricole - Normandie
Agence bancaire LE TEILLEUL;44 rue Beauregard, 50640 LE TEILLEUL;50640;;;Crédit Agricole - Normandie
Agence bancaire LES PIEUX;3 rue Centrale, 50340 LES PIEUX;50340;;;Crédit Agricole - Normandie
Agence bancaire LESSAY;20 Place Saint-Cloud, 50430 LESSAY;50430;;;Crédit Agricole - Normandie
Agence bancaire LISIEUX - CONQUERANT;97, avenue Guillaume le Conquérant, 14100 LISIEUX;14100;49,1445361;0,2600943;Crédit Agricole - Normandie
Agence bancaire LISIEUX - VICTOR HUGO;25 Avenue Victor Hugo, 14100 LISIEUX;14100;49,1449087;0,2279537;Crédit Agricole - Normandie
Agence bancaire LIVAROT;24 rue du Général Leclerc LIVAROT, 14140 LIVAROT PAYS D AUGE;14140;;;Crédit Agricole - Normandie
Agence bancaire LONGNY AU PERCHE;26 rue de l Eglise BP 2, 61290 LONGNY AU PERCHE;61290;;;Crédit Agricole - Normandie
Agence bancaire LOUVIGNY;12 Longue vue des photographes, 14111 LOUVIGNY;14111;;;Crédit Agricole - Normandie
Agence bancaire LUC SUR MER;44 rue de la Mer, 14530 LUC SUR MER;14530;;;Crédit Agricole - Normandie
Agence bancaire MARIGNY;10 place Dr Guillard, 50570 MARIGNY LE LOZON;50570;;;Crédit Agricole - Normandie
Agence bancaire MESSEI;1 Rue Alfred Riégler, 61440 MESSEI;61440;;;Crédit Agricole - Normandie
Agence bancaire MEZIDON-CANON;9 bis rue Jules Ferry, 14270 MEZIDON-CANON;14270;;;Crédit Agricole - Normandie
Agence bancaire MONDEVILLE;46, rue Chapron, 14120 MONDEVILLE;14120;;;Crédit Agricole - Normandie
Agence bancaire MONTEBOURG;36 rue Paul Lecacheux BP 28, 50310 MONTEBOURG;50310;;;Crédit Agricole - Normandie
Agence bancaire MONTMARTIN SUR MER;2 rue Jean-Claude Ménard, 50590 MONTMARTIN SUR MER;50590;;;Crédit Agricole - Normandie
Agence bancaire MORTAGNE AU PERCHE;11 Place Notre Dame BP 6, 61400 MORTAGNE AU PERCHE;61400;;;Crédit Agricole - Normandie
Agence bancaire MORTAIN;6 rue du Rocher, 50140 MORTAIN BOCAGE;50140;;;Crédit Agricole - Normandie
Agence bancaire MORTREE;89 Grande Rue BP 1, 61570 MORTREE;61570;;;Crédit Agricole - Normandie
Agence bancaire MOULINS LA MARCHE;58 Grande Rue, 61380 MOULINS LA MARCHE;61380;;;Crédit Agricole - Normandie
Agence bancaire ORBEC;123 rue Grande, 14290 ORBEC;14290;;;Crédit Agricole - Normandie
Agence bancaire OUISTREHAM;45 Avenue de la Mer, 14150 OUISTREHAM;14150;;;Crédit Agricole - Normandie
Agence bancaire PASSAIS LA CONCEPTION;50 Place Justes, 61350 Passais-Villages;61350;;;Crédit Agricole - Normandie
Agence bancaire PERCY;41 Avenue du Général Bradley, 50410 PERCY EN NORMANDIE;50410;;;Crédit Agricole - Normandie
Agence bancaire PERIERS;2 rue de Bastogne BP 7, 50190 PERIERS;50190;;;Crédit Agricole - Normandie
Agence bancaire PICAUVILLE;rue de la Marne, 50360 PICAUVILLE;50360;;;Crédit Agricole - Normandie
Agence bancaire PONT L EVEQUE;3, rue du Catelet, 14130 PONT L EVEQUE;14130;;;Crédit Agricole - Normandie
Agence bancaire PONT HEBERT;60 Rue du Mesnil Durand, 50880 Pont-Hébert;50880;;;Crédit Agricole - Normandie
Agence bancaire PONTORSON;1 rue Leconte de Lisle BP 21, 50170 PONTORSON;50170;;;Crédit Agricole - Normandie
Agence bancaire PORTBAIL;16-18 Place Edmond Laquaine, 50580 PORTBAIL;50580;;;Crédit Agricole - Normandie
Agence bancaire PUTANGES;Place Notre Dame BP 2, 61210 PUTANGES;61210;;;Crédit Agricole - Normandie
Agence bancaire QUETTEHOU;Place du Général de Gaulle, 50630 QUETTEHOU;50630;;;Crédit Agricole - Normandie
Agence bancaire REMALARD;28 Place du Général de Gaulle, 61110 REMALARD EN PERCHE;61110;;;Crédit Agricole - Normandie
Agence bancaire LA CHAPELLE D ANDAINE;194 Rue d'Alençon, 61140 Rives d'Andaine;61140;;;Crédit Agricole - Normandie
Agence bancaire SAINT CLAIR SUR ELLE;126 rue de la Libération BP 1, 50680 SAINT CLAIR SUR ELLE;50680;;;Crédit Agricole - Normandie
Agence bancaire SAINT GERMAIN DU CORBEIS;32 rue du Général Leclerc, 61000 SAINT GERMAIN DU CORBEIS;61000;;;Crédit Agricole - Normandie
Agence bancaire SAINT HILAIRE DU HARCOUET;107 Place Louis Delaporte BP 3, 50600 SAINT HILAIRE DU HARCOUET;50600;;;Crédit Agricole - Normandie
Agence bancaire SAINT JAMES;2 rue Patton BP 9, 50240 SAINT JAMES;50240;;;Crédit Agricole - Normandie
Agence bancaire SAINT LO - CHAMP DE MARS;7 Place du Champ de Mars, 50000 SAINT LO;50000;49,1171871;-1,0890595;Crédit Agricole - Normandie
Agence bancaire SAINT LO - VAL SAINT JEAN;1 rue des Sycomores, 50000 SAINT LO;50000;49,1108985;-1,067071;Crédit Agricole - Normandie
Agence bancaire SAINT LO AGENCE ENTREPRISES DE LA MANCHE;7, place du Champ de Mars, 50010 SAINT LO;50010;49,1171871;-1,0890595;Crédit Agricole - Normandie
Agence bancaire SAINT MARTIN DE FONTENAY;Centre Commercial Le Coisel, 14320 SAINT MARTIN DE FONTENAY;14320;;;Crédit Agricole - Normandie
Agence bancaire SAINT MARTIN DES CHAMPS;43 boulevard du Luxembourg, 50300 SAINT MARTIN DES CHAMPS;50300;;;Crédit Agricole - Normandie
Agence bancaire SAINT PAIR SUR MER;59 rue de Granville, 50380 SAINT PAIR SUR MER;50380;;;Crédit Agricole - Normandie
Agence bancaire SAINT PIERRE DES NIDS;5 rue du Bourg l Abbé, 53370 SAINT PIERRE DES NIDS;53370;;;Crédit Agricole - Normandie
Agence bancaire SAINT PIERRE EGLISE;Place Abbé Saint Pierre BP 8, 50330 SAINT PIERRE EGLISE;50330;;;Crédit Agricole - Normandie
Agence bancaire SAINT PIERRE SUR DIVES;Place du Marché, 14170 SAINT PIERRE SUR DIVES;14170;;;Crédit Agricole - Normandie
Agence bancaire SAINT SAUVEUR LE VICOMTE;2, rue Aristide BRIAND, 50390 SAINT SAUVEUR LE VICOMTE;50390;;;Crédit Agricole - Normandie
Agence bancaire SAINT SAUVEUR LENDELIN;28 rue du 8 Mai 1945, 50490 SAINT SAUVEUR LENDELIN;50490;;;Crédit Agricole - Normandie
Agence bancaire SAINT SEVER;21 Place Albert Lebrun, 14380 SAINT SEVER CALVADOS;14380;;;Crédit Agricole - Normandie
Agence bancaire SAINT VAAST LA HOUGUE;42 Rue de Verrue, 50550 SAINT VAAST LA HOUGUE;50550;;;Crédit Agricole - Normandie
Agence bancaire SAINTE GAUBURGE-SAINTE COLOMBE;21 Grande Rue BP 2, 61370 SAINTE GAUBURGE - SAINTE COLOMBE;61370;;;Crédit Agricole - Normandie
Agence bancaire SAINTE MERE EGLISE;6 rue de Verdun BP 17, 50480 SAINTE MERE EGLISE;50480;;;Crédit Agricole - Normandie
Agence bancaire LE SAP;Rue du Docteur Mouton, 61470 SAP EN AUGE;61470;;;Crédit Agricole - Normandie
Agence bancaire SARTILLY;14 Grande Rue, 50530 SARTILLY BAIE BOCAGE;50530;;;Crédit Agricole - Normandie
Agence bancaire SEES;90, Rue de la République BP 21, 61500 SEES;61500;;;Crédit Agricole - Normandie
Agence bancaire SAINT MARTIN DES BESACES;3, rue des écoles SAINT MARTIN DES BESACES, 14350 SOULEUVRE EN BOCAGE;14350;;;Crédit Agricole - Normandie
Agence bancaire SOURDEVAL LA BARRE;1 Avenue Bernardin Le Neuf, 50150 SOURDEVAL LA BARRE;50150;;;Crédit Agricole - Normandie
Agence bancaire TESSY SUR VIRE;Place de la Libération BP 3, 50420 TESSY BOCAGE;50420;;;Crédit Agricole - Normandie
Agence bancaire TILLY SUR SEULLES;5 rue de Bayeux, 14250 TILLY SUR SEULLES;14250;;;Crédit Agricole - Normandie
Agence bancaire TINCHEBRAY;26 Grande Rue BP 5, 61800 TINCHEBRAY BOCAGE;61800;;;Crédit Agricole - Normandie
Agence bancaire CHERBOURG - TOLLEVAST;4 Zone d activité Claude Chappe, 50470 TOLLEVAST;50470;;;Crédit Agricole - Normandie
Agence bancaire TORIGNI SUR VIRE;9 rue de la République, 50160 TORIGNY LES VILLES;50160;;;Crédit Agricole - Normandie
Agence bancaire TOUROUVRE;Place du Marché, 61190 TOUROUVRE AU PERCHE;61190;;;Crédit Agricole - Normandie
Agence bancaire TROARN;Place Paul Quellec, 14670 TROARN;14670;;;Crédit Agricole - Normandie
Agence bancaire TROUVILLE SUR MER;22 Quai Fernand Moureaux, 14360 TROUVILLE SUR MER;14360;;;Crédit Agricole - Normandie
Agence bancaire TRUN;Place de la Mairie BP 1, 61160 TRUN;61160;;;Crédit Agricole - Normandie
Agence bancaire LE THEIL SUR HUISNE;11 Place des Teilleuls LE THEIL, 61260 VAL AU PERCHE;61260;;;Crédit Agricole - Normandie
Agence bancaire VASSY;Place Colonel Candau VASSY, 14410 VALDALLIERE;14410;;;Crédit Agricole - Normandie
Agence bancaire VALOGNES;3 rue du Palais de Justice BP 320, 50700 VALOGNES;50700;;;Crédit Agricole - Normandie
Agence bancaire VERSON;70 rue du Général Leclerc, 14790 VERSON;14790;;;Crédit Agricole - Normandie
Agence bancaire VILLEDIEU LES POELES;29 rue du Général de Gaulle BP 3, 50800 VILLEDIEU LES POELES ROUFFIGNY;50800;;;Crédit Agricole - Normandie
Agence bancaire VILLERS BOCAGE;28 rue Pasteur, 14310 VILLERS BOCAGE;14310;;;Crédit Agricole - Normandie
Agence bancaire VILLERS SUR MER;3 Avenue des Belges, 14640 VILLERS SUR MER;14640;;;Crédit Agricole - Normandie
Agence bancaire VIMOUTIERS;27 Rue Roger de Montgommery, 61120 Vimoutiers;61120;;;Crédit Agricole - Normandie
Agence bancaire VIRE;80 Rue André Halbout, 14500 VIRE NORMANDIE;14500;;;Crédit Agricole - Normandie
