nom;adresse;code_postal;latitude;longitude;region_source
Relais CA PROXY - Agonac;38 Avenue de la Beauronne, 24460 Agonac;24460;45,2916085;0,7502198;Crédit Agricole - Charente Perigord
Agence bancaire AIGRE;7 Avenue du huit Mai 1945, 16140 AIGRE;16140;;;Crédit Agricole - Charente Perigord
Agence bancaire ANGOULEME CHAMP DE MARS;27, rue René Goscinny, 16000 ANGOULEME;16000;45,64823925312477;0,1624115422954642;Crédit Agricole - Charente Perigord
Agence bancaire ANGOULEME LOUVEL;9, place Louvel, 16000 ANGOULEME;16000;45,6493411;0,1538525;Crédit Agricole - Charente Perigord
Agence bancaire ANGOULEME MA CAMPAGNE;293, avenue de Navarre, 16000 ANGOULEME;16000;45,633764;0,1539995;Crédit Agricole - Charente Perigord
Agence bancaire ANGOULEME SAINT CYBARD;111 rue de Saintes, 16000 ANGOULEME;16000;45,6585311;0,1443308;Crédit Agricole - Charente Perigord
Agence bancaire ANGOULEME TROIS CHENES;280, rue de Basseau, 16000 ANGOULEME;16000;45,6513815;0,1234164;Crédit Agricole - Charente Perigord
Guichet Automatique de banque AUBETERRE;7 Place Trarieux, 16390 AUBETERRE-SUR-DRONNE;16390;45,2716646;0,170258800000056;Crédit Agricole - Charente Perigord
Relais CA 2LAUD'ANS - Badefols-d'Ans;RUE PRINCIPALE, 24390 Badefols-d'Ans;24390;45,22843403337328;1,198072864743014;Crédit Agricole - Charente Perigord
Agence bancaire BAIGNES;Place des Halles, 16360 Baignes-Sainte-Radegonde;16360;;;Crédit Agricole - Charente Perigord
Agence bancaire BARBEZIEUX;40, Boulevard Chanzy, 16300 BARBEZIEUX;16300;;;Crédit Agricole - Charente Perigord
Agence bancaire BERGERAC AUGUSTE COMTE;Boulevard Auguste Comte, 24100 BERGERAC;24100;44,8485617;0,4924837;Crédit Agricole - Charente Perigord
Agence bancaire BERGERAC MARCHE COUVERT;Place Louis de la Bardonnie, 24100 BERGERAC;24100;44,852299;0,483154;Crédit Agricole - Charente Perigord
Agence bancaire BERGERAC POURPRE;Avenue du Maréchal Leclerc, 24100 BERGERAC;24100;44,8433876;0,477406;Crédit Agricole - Charente Perigord
Relais CA SNC EMERY ARMANDY - Bergerac;3 Rue Berggren, 24100 Bergerac;24100;44,8466692;0,4819806;Crédit Agricole - Charente Perigord
Agence bancaire BOULAZAC;223 Boulevard du Petit Change, 24750 Boulazac Isle Manoire;24750;;;Crédit Agricole - Charente Perigord
Relais CA BOULANGERIE DU CHATEAU - Bourdeilles;1636 Route des Bords de Dronne, 24310 Bourdeilles;24310;45,3243904;0,5850002;Crédit Agricole - Charente Perigord
Relais CA LE FOUR A BOIS - Bourdeilles;1636 Route des Bords de Dronne, 24310 Bourdeilles;24310;45,3243904;0,5850002;Crédit Agricole - Charente Perigord
Agence bancaire BRANTOME;8, place du Marché, 24310 BRANTOME;24310;;;Crédit Agricole - Charente Perigord
Agence bancaire BROSSAC;Place marronniers, 16480 BROSSAC;16480;;;Crédit Agricole - Charente Perigord
Guichet Automatique de banque CENAC;Le Bourg, 24250 CENAC;24250;44,7698805;-0,488931;Crédit Agricole - Charente Perigord
Agence bancaire CHABANAIS;24 Place de la Crx Blanche, 16150 Chabanais;16150;;;Crédit Agricole - Charente Perigord
Agence bancaire CHALAIS;3 rue de Barbezieux, 16210 CHALAIS;16210;;;Crédit Agricole - Charente Perigord
Agence bancaire CHAMPAGNE MOUTON;9 avenue de la Garenne, 16350 CHAMPAGNE MOUTON;16350;;;Crédit Agricole - Charente Perigord
Agence bancaire CHASSENEUIL SUR BONNIEURE;18 Avenue de la République, 16260 CHASSENEUIL SUR BONNIEURE;16260;;;Crédit Agricole - Charente Perigord
Relais CA EURL THIAUDIERE - Chaunay;22 Grande Rue, 86510 Chaunay;86510;46,20668572204253;0,1627671718597412;Crédit Agricole - Charente Perigord
Agence bancaire CHATEAUNEUF-SUR-CHARENTE;1 Boulevard Gambetta, 16120 Châteauneuf-sur-Charente;16120;;;Crédit Agricole - Charente Perigord
Relais CA LE HAVANE - Cherveix-Cubas;463 Avenue du Périgord, 24390 Cherveix-Cubas;24390;45,2940988;1,1262484;Crédit Agricole - Charente Perigord
Relais CA Vival - Cherves-Richemont;1 Rue du Franc Pineau, 16370 Cherves-Richemont;16370;45,7375359;-0,3560775;Crédit Agricole - Charente Perigord
Agence bancaire COGNAC CENTRE;61-65, avenue Victor-Hugo, 16104 COGNAC;16104;45,6912193;-0,3226187;Crédit Agricole - Charente Perigord
Agence bancaire COGNAC Entreprises (Centre d'Affaires);62 Avenue Victor Hugo, 16100 COGNAC;16100;45,6914125;-0,3230043999999452;Crédit Agricole - Charente Perigord
Agence bancaire COGNAC MONTPLAISIR;56 Boulevard de Javrezac, 16100 COGNAC;16100;45,69381749999999;-0,3465412;Crédit Agricole - Charente Perigord
Agence bancaire CONFOLENS;15, avenue de la Libération, 16500 CONFOLENS;16500;;;Crédit Agricole - Charente Perigord
Relais CA CAFE DES SPORTS - Corgnac-sur-l'Isle;8 Place Devaux, 24134 Corgnac-sur-l'Isle;24134;45,3763239;0,949473;Crédit Agricole - Charente Perigord
Agence bancaire BLANZAC;1 Route de Brossac, Blanzac-Porcheresse, 16250 COTEAUX DU BLANZACAIS;16250;;;Crédit Agricole - Charente Perigord
Agence bancaire CHAMIERS;105, avenue du Général De Gaulle, 24660 COULOUNIEIX CHAMIERS;24660;;;Crédit Agricole - Charente Perigord
Relais CA LE BAR DU COUX - Coux et Bigaroque-Mouzens;70 Route de Saint Georges, 24220 Coux et Bigaroque-Mouzens;24220;44,833972;0,9729869999999999;Crédit Agricole - Charente Perigord
Relais CA CHORT SANDRINE - Creysse;67 Grand Rue, 24100 Creysse;24100;44,85560261449176;0,5677163600921631;Crédit Agricole - Charente Perigord
Agence bancaire DAGLAN;Quartier du Pont, 24250 DAGLAN;24250;;;Crédit Agricole - Charente Perigord
Agence bancaire EXCIDEUIL;6, Place du Château, 24160 EXCIDEUIL;24160;;;Crédit Agricole - Charente Perigord
Agence bancaire EYMET;44, boulevard National, 24500 EYMET;24500;;;Crédit Agricole - Charente Perigord
Relais CA L'IMPACT 76 - Échourgnac;L'étang, 24410 Échourgnac;24410;45,12588;0,230227;Crédit Agricole - Charente Perigord
Relais CA Maison Monteil - Boulangerie Fossemagne - Fossemagne;D6089, 24210 Fossemagne;24210;45,1269271;0,9847984;Crédit Agricole - Charente Perigord
Agence bancaire GARDONNE;4, avenue de la République, 24680 GARDONNE;24680;;;Crédit Agricole - Charente Perigord
Relais CA SNC COURTET - Gensac-la-Pallue;2 Route du Cognac, 16130 Gensac-la-Pallue;16130;45,6511437;-0,2523318;Crédit Agricole - Charente Perigord
Agence bancaire LE GOND PONTOUVRE;140 Route de Vars, 16160 Gond-Pontouvre;16160;;;Crédit Agricole - Charente Perigord
Agence bancaire HAUTEFORT;1441 Avenue de l'Europe, 24390 Hautefort;24390;;;Crédit Agricole - Charente Perigord
Agence bancaire HIERSAC;2, rue du Cerisier, 16290 HIERSAC;16290;;;Crédit Agricole - Charente Perigord
Agence bancaire ISSIGEAC;Place du Peyrat, 24560 ISSIGEAC;24560;;;Crédit Agricole - Charente Perigord
Agence bancaire JARNAC;7, rue des Moines, 16200 JARNAC;16200;;;Crédit Agricole - Charente Perigord
Guichet Automatique de banque JUMILHAC;Boulevard Darnet, 24630 JUMILHAC;24630;45,4953937;1,0628256;Crédit Agricole - Charente Perigord
Agence bancaire L'ISLE D'ESPAGNAC;185, avenue de la République, 16340 L'ISLE D'ESPAGNAC;16340;;;Crédit Agricole - Charente Perigord
Relais CA LE MADEL - La Chapelle-Aubareil;17 Place Gervais Juille, 24290 La Chapelle-Aubareil;24290;45,012681;1,1833148;Crédit Agricole - Charente Perigord
Agence bancaire LA COQUILLE;Place Boyer Laveyssière, 24450 LA COQUILLE;24450;;;Crédit Agricole - Charente Perigord
Agence bancaire LA COURONNE;32 bis, rue de la Libération, 16400 LA COURONNE;16400;;;Crédit Agricole - Charente Perigord
Agence bancaire LA FORCE;Avenue des Ducs, 24130 LA FORCE;24130;;;Crédit Agricole - Charente Perigord
Agence bancaire LA ROCHE CHALAIS;Avenue du Périgord, 24490 LA ROCHE CHALAIS;24490;;;Crédit Agricole - Charente Perigord
Agence bancaire LA ROCHEFOUCAULD;Boulevard du 11 Novembre, 16110 La Rochefoucauld-en-Angoumois;16110;;;Crédit Agricole - Charente Perigord
Relais CA Le Latucia - Lalandusse;170 Rue Principale, 47330 Lalandusse;47330;44,6569934;0,5305242;Crédit Agricole - Charente Perigord
Agence bancaire LALINDE;40, rue Gabriel Péri, 24150 LALINDE;24150;;;Crédit Agricole - Charente Perigord
Agence bancaire LAMOTHE MONTRAVEL;Route de Bordeaux, 24230 LAMOTHE-MONTRAVEL;24230;;;Crédit Agricole - Charente Perigord
Agence bancaire LANOUAILLE;10, Rue du Limousin, 24270 LANOUAILLE;24270;;;Crédit Agricole - Charente Perigord
Relais CA BAR DE LA PLAGE PARAD ICE - Laprade;Route de Riberac, 16390 Laprade;16390;45,26800299808007;0,1750357080471066;Crédit Agricole - Charente Perigord
Agence bancaire LE BUGUE;Place Léopold Salme, 24260 LE BUGUE;24260;;;Crédit Agricole - Charente Perigord
Agence bancaire LE BUISSON;Rue de la République, 24480 Le Buisson-de-Cadouin;24480;;;Crédit Agricole - Charente Perigord
Relais CA TABAC SNC ROXALOIS - Le Fleix;50 Rue Henri de Navarre, 24130 Le Fleix;24130;44,875117;0,2436156;Crédit Agricole - Charente Perigord
Agence bancaire LE LARDIN SAINT LAZARE;Place Delas, 24570 LE LARDIN SAINT LAZARE;24570;;;Crédit Agricole - Charente Perigord
Relais CA S.N.C. NEVEU-PLANQUOIS - Le Pizou;18 Place Aristide Briand, 24700 Le Pizou;24700;45,0245055;0,0622129;Crédit Agricole - Charente Perigord
Guichet Automatique de banque LES EYZIES DE TAYAC;2, avenue de la Préhistoire, 24620 LES EYZIES;24620;44,9346392;1,0155461;Crédit Agricole - Charente Perigord
Agence bancaire RUELLE;38 bis, rue Joliot Curie, 16600 MAGNAC SUR TOUVRE;16600;;;Crédit Agricole - Charente Perigord
Agence bancaire MANSLE;29 Rue Grange du Chapitre, 16230 Mansle-les-Fontaines;16230;;;Crédit Agricole - Charente Perigord
Relais CA L'ESTAMINET - Manzac-sur-Vern;145 Avenue des Résistants, 24110 Manzac-sur-Vern;24110;45,0845007;0,5852326999999999;Crédit Agricole - Charente Perigord
Agence bancaire MAREUIL;Place du Marché, 24340 Mareuil en Périgord;24340;;;Crédit Agricole - Charente Perigord
Agence bancaire MONPAZIER;Place du Foirail nord, 24540 MONPAZIER;24540;;;Crédit Agricole - Charente Perigord
Agence bancaire MONTBRON;Place de l'Hôtel de Ville, 16220 MONTBRON;16220;;;Crédit Agricole - Charente Perigord
Agence bancaire MONTEMBOEUF;24, rue Laugérias, 16310 MONTEMBOEUF;16310;;;Crédit Agricole - Charente Perigord
Agence bancaire MONTIGNAC SUR CHARENTE;11 Place du Docteur Feuillet, 16330 Montignac-Charente;16330;;;Crédit Agricole - Charente Perigord
Agence bancaire MONTIGNAC LASCAUX;2 Place Docteur Rafarin, 24290 Montignac-Lascaux;24290;;;Crédit Agricole - Charente Perigord
Agence bancaire MONTMOREAU;Route d'Angoulême, 16190 MONTMOREAU;16190;;;Crédit Agricole - Charente Perigord
Agence bancaire MONTPON;Place Clémenceau, 24700 Montpon-Ménestérol;24700;;;Crédit Agricole - Charente Perigord
Agence bancaire MOULEYDIER;Rue Albert Claveille, 24520 MOULEYDIER;24520;;;Crédit Agricole - Charente Perigord
Guichet Automatique de banque MOUTHIERS;6, place de la gare, 16440 MOUTHIERS;16440;45,5535395;0,1234248;Crédit Agricole - Charente Perigord
Agence bancaire MUSSIDAN;17, rue Jean Jaurès, 24400 MUSSIDAN;24400;;;Crédit Agricole - Charente Perigord
Agence bancaire NEUVIC;Place de l'Eglise, 24190 NEUVIC;24190;;;Crédit Agricole - Charente Perigord
Agence bancaire NONTRON;12, avenue Jules Ferry, 24300 NONTRON;24300;;;Crédit Agricole - Charente Perigord
Agence bancaire PAYZAC;Place du Marché, 24270 Payzac;24270;;;Crédit Agricole - Charente Perigord
Agence bancaire PERIGUEUX (Centre d'Affaires Entreprises);17, cours Montaigne, 24000 PERIGUEUX;24000;45,1855474;0,7203828;Crédit Agricole - Charente Perigord
Agence bancaire PERIGUEUX MONTAIGNE;17, boulevard Montaigne, 24000 PERIGUEUX;24000;45,1859811;0,7202101;Crédit Agricole - Charente Perigord
Agence bancaire PERIGUEUX PRIVILEGE;225, route d'Angoulême, 24000 PERIGUEUX;24000;45,200932;0,693224;Crédit Agricole - Charente Perigord
Agence bancaire PERIGUEUX SAINT GEORGES;15, cours St Georges, 24000 PERIGUEUX;24000;45,1779426;0,7315607;Crédit Agricole - Charente Perigord
Agence bancaire PIEGUT;14 Place de la République, 24360 Piégut-Pluviers;24360;;;Crédit Agricole - Charente Perigord
Agence bancaire PORT SAINTE FOY;8 Rue Eugène Tricoche, 33220 Port-Sainte-Foy-et-Ponchapt;33220;;;Crédit Agricole - Charente Perigord
Agence bancaire PRIGONRIEUX;Place du Groupe Loiseau, 24130 Prigonrieux;24130;;;Crédit Agricole - Charente Perigord
Agence bancaire RIBERAC;5-7, place Nationale, 24600 RIBERAC;24600;;;Crédit Agricole - Charente Perigord
Guichet Automatique de banque ROUFFIGNAC;Place de la Mairie, 24580 ROUFFIGNAC;24580;44,881222;1,617941;Crédit Agricole - Charente Perigord
Agence bancaire ROUILLAC;57, avenue Jean Monnet, 16170 ROUILLAC;16170;;;Crédit Agricole - Charente Perigord
Agence bancaire RUFFEC;28, rue de l'Hôpital, 16700 RUFFEC;16700;;;Crédit Agricole - Charente Perigord
Relais CA De la Terre à l'Assiette - SAINT FRAIGNE;3 Place des Halles, 16140 SAINT FRAIGNE;16140;45,89358499999999;0,010044;Crédit Agricole - Charente Perigord
Guichet Automatique de banque SAINT JULIEN de LAMPON;Le Bourg, 24370 SAINT JULIEN DE LAMPON;24370;45,2472921;1,254591;Crédit Agricole - Charente Perigord
Agence bancaire AUBETERRE SAINT SEVERIN;13 Rue du Périgord, 16390 SAINT SEVERIN;16390;;;Crédit Agricole - Charente Perigord
Agence bancaire SAINT ASTIER;Rue Viviani, 24110 Saint-Astier;24110;;;Crédit Agricole - Charente Perigord
Agence bancaire SAINT-AULAYE;Place Champ de foire, 24410 Saint-Aulaye-Puymangou;24410;;;Crédit Agricole - Charente Perigord
Relais CA TABAC PRESSE LOTO - Saint-Claud;21 Avenue Pasteur, 16450 Saint-Claud;16450;45,8944663;0,4661606999999999;Crédit Agricole - Charente Perigord
Agence bancaire SAINT CYPRIEN;Rue Gambetta, 24220 Saint-Cyprien;24220;;;Crédit Agricole - Charente Perigord
Relais CA CHEZ ELLES - Saint-Genis-d'Hiersac;14 Route des Meulières, 16570 Saint-Genis-d'Hiersac;16570;45,751698;0,030707;Crédit Agricole - Charente Perigord
Relais CA LES PETITS PLATS DE LA VALLEE - Saint-Germain-du-Salembre;Le Bourg, 24190 Saint-Germain-du-Salembre;24190;45,13852192040395;0,4518663883209228;Crédit Agricole - Charente Perigord
Relais CA L'EPICERIE DES SOURIRES - Saint-Germain-et-Mons;8 rue de la Résistance, 24520 Saint-Germain-et-Mons;24520;44,85458476337395;0,5941925575277374;Crédit Agricole - Charente Perigord
Relais CA S.A.R.L. AU P'TIT BONHEUR - Saint-Géraud-de-Corps;29 Pl. du Pigeonnier, 24700 Saint-Géraud-de-Corps;24700;44,95209662707096;0,2262979745864868;Crédit Agricole - Charente Perigord
Relais CA CARPAT EPICERIE - Saint-Jean-de-Côle;Le Bourg, 24800 Saint-Jean-de-Côle;24800;45,4204639;0,8381443;Crédit Agricole - Charente Perigord
Relais CA M. Puraye Johann - Saint-Léon-sur-l'Isle;13 Rue Jean Moulin, 24110 Saint-Léon-sur-l'Isle;24110;45,115555;0,503714;Crédit Agricole - Charente Perigord
Agence bancaire SAINT MICHEL;44 bis Avenue de la République, 16470 Saint-Michel;16470;;;Crédit Agricole - Charente Perigord
Agence bancaire SAINT PARDOUX LA RIVIERE;Rue Alfredo Raynaud, 24470 Saint-Pardoux-la-Rivière;24470;;;Crédit Agricole - Charente Perigord
Agence bancaire SAINT YRIEIX;Route de Saint-Jean d'Angély, 16710 Saint-Yrieix-sur-Charente;16710;;;Crédit Agricole - Charente Perigord
Guichet Automatique de banque SAINTE ALVERE;Route du Bugue, 24510 SAINTE ALVERE;24510;44,880384;1,1969514;Crédit Agricole - Charente Perigord
Agence bancaire SALIGNAC;Place du Champs de Mars, 24590 SALIGNAC;24590;;;Crédit Agricole - Charente Perigord
Relais CA LOU BAOU - Salignac-Eyvigues;11 Avenue de Sarlat, 24590 Salignac-Eyvigues;24590;44,9742851;1,3203006;Crédit Agricole - Charente Perigord
Agence bancaire SARLAT;1050 Avenue Simone Veil, 24200 SARLAT;24200;44,8747178;1,2275114;Crédit Agricole - Charente Perigord
Agence bancaire SARLAT (Centre d'Affaires Entreprises);49, rue des Cordeliers, 24200 SARLAT;24200;44,8915214;1,2157975;Crédit Agricole - Charente Perigord
Relais CA Bar Restaurant des Forges - Savignac-Lédrier;6 Route de Juillac, 24270 Savignac-Lédrier;24270;45,3632996;1,2201006;Crédit Agricole - Charente Perigord
Agence bancaire SEGONZAC;Place Pierre Frapin, 16130 SEGONZAC;16130;;;Crédit Agricole - Charente Perigord
Guichet Automatique de banque SIGOULES;10, Place du relais de Poste, 24240 SIGOULES;24240;44,7597989;0,4101884;Crédit Agricole - Charente Perigord
Agence bancaire SOYAUX;54, Avenue du Général de Gaulle, 16800 SOYAUX;16800;45,6435398;0,1850867;Crédit Agricole - Charente Perigord
Agence bancaire SOYAUX (Centre d'Affaires Entreprises);28-30, rue d'Epagnac, 16800 SOYAUX;16800;45,629998;0,215988;Crédit Agricole - Charente Perigord
Agence bancaire TERRASSON-LAVILLEDIEU;Place Voltaire, 24120 TERRASSON-LAVILLEDIEU;24120;;;Crédit Agricole - Charente Perigord
Agence bancaire ROUMAZIERES;Rue nationale, 16270 Terres-de-Haute-Charente;16270;;;Crédit Agricole - Charente Perigord
Agence bancaire THENON;5 Place Bernard Grand, 24550 Thenon;24550;;;Crédit Agricole - Charente Perigord
Agence bancaire THIVIERS;5, rue Jules Theulier, 24800 THIVIERS;24800;;;Crédit Agricole - Charente Perigord
Agence bancaire TOCANE;Place des Tilleuils, 24350 TOCANE;24350;;;Crédit Agricole - Charente Perigord
Agence bancaire TRELISSAC;18, rue des Sauges, 24750 TRELISSAC;24750;;;Crédit Agricole - Charente Perigord
Relais CA SNC LE SAINT ALVERE - Val de Louyre et Caudeau;2 Rue Sainte-Marthe, 24510 Val de Louyre et Caudeau;24510;44,9472416;0,8098934;Crédit Agricole - Charente Perigord
Relais CA Tabac Presse Loto Vars - Vars;58 Rue Principale, 16330 Vars;16330;45,7625379;0,1228701;Crédit Agricole - Charente Perigord
Agence bancaire VERGT;Grand rue, 24380 VERGT;24380;;;Crédit Agricole - Charente Perigord
Agence bancaire VERTEILLAC;Place de la Mairie, 24320 VERTEILLAC;24320;;;Crédit Agricole - Charente Perigord
Agence bancaire VILLAMBLARD;Rue Edouard Dupuy, 24140 VILLAMBLARD;24140;;;Crédit Agricole - Charente Perigord
Agence bancaire VILLEBOIS LAVALETTE;26, avenue des Maisons blanches, 16320 VILLEBOIS LAVALETTE;16320;;;Crédit Agricole - Charente Perigord
Agence bancaire VILLEFAGNAN;6Bis Rue Puits Gilbert, 16240 Villefagnan, 16240 VILLEFAGNAN;16240;;;Crédit Agricole - Charente Perigord
Guichet Automatique de banque VILLEFRANCHE DE LONCHAT;Rue Montaigne, 24610 VILLEFRANCHE DE LONCHAT;24610;44,947664;0,057822;Crédit Agricole - Charente Perigord
Agence bancaire VILLEFRANCHE DU PERIGORD;Rue Notre-Dame, 24550 VILLEFRANCHE DU PERIGORD;24550;;;Crédit Agricole - Charente Perigord
