nom;adresse;code_postal;latitude;longitude;region_source
Relais CA RELAIS CA - LE FOURNIL DES PALANGES - AGEN D'AVEYRON;2 Place Pierre Cussac, 12630 AGEN D'AVEYRON;12630;44,356375;2,676898400000027;Crédit Agricole - Nord Midi Pyrenees
Agence bancaire ALBAN;9 place de l'Eglise, 81250 ALBAN;81250;;;Crédit Agricole - Nord Midi Pyrenees
Relais CA RELAIS CA  - BRASSERIE - ALBAS;Place de la dime, 46140 ALBAS;46140;44,468444;1,236560999999938;Crédit Agricole - Nord Midi Pyrenees
Relais CA RELAIS CA - BOULANGERIE PATISSERIE - ALBEFEUILLE-LAGARDE;74 Rue Paul Roussel, 82290 ALBEFEUILLE-LAGARDE;82290;44,0678499;1,277706800000033;Crédit Agricole - Nord Midi Pyrenees
Agence bancaire AGENCE COLLECTIVITES PUBLIQUES 81;219 Avenue François Verdier, 81000 ALBI;81000;43,9177144;2,1206998;Crédit Agricole - Nord Midi Pyrenees
Agence bancaire AGENCE PROFESSIONNELS DE L'IMMOBILIER;219 Avenue François Verdier, 81000 ALBI;81000;43,9177144;2,1206998;Crédit Agricole - Nord Midi Pyrenees
Agence bancaire ALBI LESCURE;Larquipeyre, Centre Commercial E. Leclerc, 81380 ALBI;81380;43,956249;2,154836;Crédit Agricole - Nord Midi Pyrenees
Agence bancaire ALBI MADELEINE;9 bd de Strasbourg, 81000 ALBI;81000;43,933874;2,145968;Crédit Agricole - Nord Midi Pyrenees
Agence bancaire ALBI MALADRERIE;72 Rue Angely Cavalie, 81000 ALBI;81000;43,9264587;2,1330306;Crédit Agricole - Nord Midi Pyrenees
Agence bancaire ALBI ROND DE GESSE;249 Avenue Colonel Teyssier, 81000 ALBI;81000;43,922413;2,163084;Crédit Agricole - Nord Midi Pyrenees
Agence bancaire ALBI VERDIER;201 avenue François Verdier, 81000 ALBI;81000;43,9188365;2,1225927;Crédit Agricole - Nord Midi Pyrenees
Agence bancaire ALBI VIGAN;14 Place du Vigan, 81000 ALBI;81000;43,9271028;2,147679;Crédit Agricole - Nord Midi Pyrenees
Agence bancaire BANQUE PRIVEE AGENCE D'ALBI;201 Avenue François Verdier, 81000 ALBI;81000;43,91868660000001;2,1224662;Crédit Agricole - Nord Midi Pyrenees
Agence bancaire CENTRE AFFAIRES AGRI 3 VALLEES;219 Avenue François Verdier, 81000 ALBI;81000;43,9177144;2,1206998;Crédit Agricole - Nord Midi Pyrenees
Agence bancaire CENTRE AFFAIRES AGRI ALBIGEOIS;201 Avenue François Verdier, 81000 ALBI;81000;43,91868660000001;2,1224662;Crédit Agricole - Nord Midi Pyrenees
Agence bancaire CENTRE AFFAIRES AGRI CADURCIEN;219 Avenue François Verdier, 81000 ALBI;81000;43,9177144;2,1206998;Crédit Agricole - Nord Midi Pyrenees
Agence bancaire CENTRE AFFAIRES AGRI CENTRE;219 Avenue François Verdier, 81000 ALBI;81000;43,9177144;2,1206998;Crédit Agricole - Nord Midi Pyrenees
Agence bancaire CENTRE AFFAIRES AGRI FRON.  LAU.;219 Avenue François Verdier, 81000 ALBI;81000;43,9177144;2,1206998;Crédit Agricole - Nord Midi Pyrenees
Agence bancaire CENTRE AFFAIRES AGRI MONTALB.;219 Avenue François Verdier, 81000 ALBI;81000;43,9177144;2,1206998;Crédit Agricole - Nord Midi Pyrenees
Agence bancaire CENTRE AFFAIRES AGRI NA;219 Avenue François Verdier, 81000 ALBI;81000;43,9177144;2,1206998;Crédit Agricole - Nord Midi Pyrenees
Agence bancaire CENTRE AFFAIRES AGRI NORD LOT;219 Avenue François Verdier, 81000 ALBI;81000;43,9177144;2,1206998;Crédit Agricole - Nord Midi Pyrenees
Agence bancaire CENTRE AFFAIRES AGRI OTG;219 Avenue François Verdier, 81000 ALBI;81000;43,9177144;2,1206998;Crédit Agricole - Nord Midi Pyrenees
Agence bancaire CENTRE AFFAIRES AGRI SR;219 Avenue François Verdier, 81000 ALBI;81000;43,9177144;2,1206998;Crédit Agricole - Nord Midi Pyrenees
Agence bancaire CENTRE AFFAIRES AGRI SUD AVEYRON;219 Avenue François Verdier, 81000 ALBI;81000;43,9177144;2,1206998;Crédit Agricole - Nord Midi Pyrenees
Agence bancaire CENTRE AFFAIRES AGRI SUD TARN;219 Avenue François Verdier, 81000 ALBI;81000;43,9177144;2,1206998;Crédit Agricole - Nord Midi Pyrenees
Agence bancaire CENTRE AFFAIRES PRO 3 VALLEES;219 Avenue François Verdier, 81000 ALBI;81000;43,9177144;2,1206998;Crédit Agricole - Nord Midi Pyrenees
Agence bancaire CENTRE AFFAIRES PRO ALBIGEOIS;201 Avenue François Verdier, 81000 ALBI;81000;43,91868660000001;2,1224662;Crédit Agricole - Nord Midi Pyrenees
Agence bancaire CENTRE AFFAIRES PRO CADURCIEN;219 Avenue François Verdier, 81000 ALBI;81000;43,9177144;2,1206998;Crédit Agricole - Nord Midi Pyrenees
Agence bancaire CENTRE AFFAIRES PRO CENTRE;219 Avenue François Verdier, 81000 ALBI;81000;43,9177144;2,1206998;Crédit Agricole - Nord Midi Pyrenees
Agence bancaire CENTRE AFFAIRES PRO FRON.  LAU.;219 Avenue François Verdier, 81000 ALBI;81000;43,9177144;2,1206998;Crédit Agricole - Nord Midi Pyrenees
Agence bancaire CENTRE AFFAIRES PRO MONTALB.;219 Avenue François Verdier, 81000 ALBI;81000;43,9177144;2,1206998;Crédit Agricole - Nord Midi Pyrenees
Agence bancaire CENTRE AFFAIRES PRO NA;219 Avenue François Verdier, 81000 ALBI;81000;43,9177144;2,1206998;Crédit Agricole - Nord Midi Pyrenees
Agence bancaire CENTRE AFFAIRES PRO NORD LOT;219 Avenue François Verdier, 81000 ALBI;81000;43,9177144;2,1206998;Crédit Agricole - Nord Midi Pyrenees
Agence bancaire CENTRE AFFAIRES PRO OTG;219 Avenue François Verdier, 81000 ALBI;81000;43,9177144;2,1206998;Crédit Agricole - Nord Midi Pyrenees
Agence bancaire CENTRE AFFAIRES PRO SR;219 Avenue François Verdier, 81000 ALBI;81000;43,9177144;2,1206998;Crédit Agricole - Nord Midi Pyrenees
Agence bancaire CENTRE AFFAIRES PRO SUD AVEYRON;219 Avenue François Verdier, 81000 ALBI;81000;43,9177144;2,1206998;Crédit Agricole - Nord Midi Pyrenees
Agence bancaire CENTRE AFFAIRES PRO SUD TARN;219 Avenue François Verdier, 81000 ALBI;81000;43,9177144;2,1206998;Crédit Agricole - Nord Midi Pyrenees
Agence bancaire CENTRE D'AFFAIRES ALBI;201 Avenue François Verdier, 81000 ALBI;81000;43,91868660000001;2,1224662;Crédit Agricole - Nord Midi Pyrenees
Agence bancaire ALBIAS;31 Av. De gaulle, 82350 ALBIAS;82350;;;Crédit Agricole - Nord Midi Pyrenees
Relais CA RELAIS CA  - ALIMENTATION TABAC PRESSE - ALBINE;3 Avenue de la Ribaute, 81240 ALBINE;81240;43,4603353;2,539254799999981;Crédit Agricole - Nord Midi Pyrenees
Relais CA RELAIS CA - BOUCHERIE CHARCUTERIE FAURE OLIVIER - ALVIGNAC;Les Eaux FR, Grande rue, 46500 ALVIGNAC;46500;44,826968;1,692098;Crédit Agricole - Nord Midi Pyrenees
Relais CA RELAIS CA - MICHELE FLEURET - AMBEYRAC;Le Bourg, 12260 AMBEYRAC;12260;44,509486;1,944917000000032;Crédit Agricole - Nord Midi Pyrenees
Relais CA RELAIS CA - LES PAINS D'AMBRES - AMBRES;160 Route de Gaillac, 81500 AMBRES;81500;43,7258304;1,823414500000013;Crédit Agricole - Nord Midi Pyrenees
Relais CA RELAIS CA - LE TILLEUL - ANGLES;Place de la Mairie, 81260 ANGLES;81260;43,563586;2,560478999999987;Crédit Agricole - Nord Midi Pyrenees
Relais CA RELAIS CA  - LA VIADENE - ARGENCES EN AUBRAC;Rue des Barrages, 12420 ARGENCES EN AUBRAC;12420;44,802815;2,757212100000061;Crédit Agricole - Nord Midi Pyrenees
Relais CA RELAIS CA - TABAC DU SAUT DU SABOT - ARTHES;Rue Augustin Malroux, 81160 ARTHES;81160;43,94518679999999;2,204649300000028;Crédit Agricole - Nord Midi Pyrenees
Relais CA RELAIS CA - KARINE LAURANDEAU - ASPRIERES;Place de la Porte Haute, 12700 ASPRIERES;12700;44,54658620000001;2,146658800000068;Crédit Agricole - Nord Midi Pyrenees
Relais CA RELAIS CA - EPICERIE DE LA SOURCE - ASSIER;Le Bourg, 46320 ASSIER;46320;44,674942;1,878025999999977;Crédit Agricole - Nord Midi Pyrenees
Agence bancaire AUBIN;8 Rue Barbusse, 12110 AUBIN;12110;;;Crédit Agricole - Nord Midi Pyrenees
Relais CA RELAIS CA - BAR TABAC - AUCAMVILLE;1 Place de la Liberté, 82600 AUCAMVILLE;82600;43,8033397;1,214479100000062;Crédit Agricole - Nord Midi Pyrenees
Agence bancaire AUSSILLON;50 Avenue de Toulouse, 81200 AUSSILLON;81200;;;Crédit Agricole - Nord Midi Pyrenees
Relais CA RELAIS CA - LE RELAIS 1908 - AYNAC;Le Bourg, 46120 AYNAC;46120;44,785073;1,852195;Crédit Agricole - Nord Midi Pyrenees
Relais CA RELAIS CA - PRESSE TABAC - AYNAC;Place de l'église, 46120 AYNAC;46120;44,784233;1,851548;Crédit Agricole - Nord Midi Pyrenees
Agence bancaire BAGNAC SUR CELE;7 Avenue Joseph Canteloube, 46270 BAGNAC SUR CELE;46270;;;Crédit Agricole - Nord Midi Pyrenees
Agence bancaire BARAQUEVILLE;Place François Mitterand, 12160 BARAQUEVILLE;12160;;;Crédit Agricole - Nord Midi Pyrenees
Agence bancaire BEAUMONT DE LOMAGNE;13 Rue Fermat, 82500 BEAUMONT DE LOMAGNE;82500;;;Crédit Agricole - Nord Midi Pyrenees
Relais CA RELAIS CA - LES PALANGES - BERTHOLENE;4 Rue Beauséjour, 12310 BERTHOLENE;12310;44,3938718;2,78377850000004;Crédit Agricole - Nord Midi Pyrenees
Relais CA RELAIS CA - PROXI - BETAILLE;Le Bourg, 46110 BETAILLE;46110;44,941263;1,734328000000005;Crédit Agricole - Nord Midi Pyrenees
Agence bancaire BIARS-BRETENOUX;127 Av de la République, 46130 BIARS;46130;;;Crédit Agricole - Nord Midi Pyrenees
Relais CA RELAIS CA - AUX BERGES DE BIOULES - BIOULE;4 Avenue Hugues IV de Cardaillac, 82800 BIOULE;82800;44,0895661;1,536582500000009;Crédit Agricole - Nord Midi Pyrenees
Relais CA RELAIS CA - LE BRENNUS - BLAYE LES MINES;53 Avenue d'Albi, 81400 BLAYE LES MINES;81400;44,0393478;2,157204399999955;Crédit Agricole - Nord Midi Pyrenees
Relais CA RELAIS CA - CAMPING DE ROQUELONGUE - BOISSE-PENCHOT;7 lieu dit Roquelongue, 12300 BOISSE-PENCHOT;12300;44,590005;2,205469;Crédit Agricole - Nord Midi Pyrenees
Agence bancaire BOZOULS;13 Allée Paul Causse, 12340 BOZOULS;12340;;;Crédit Agricole - Nord Midi Pyrenees
Agence bancaire BRASSAC;17 allées du Chateau, 81260 BRASSAC;81260;;;Crédit Agricole - Nord Midi Pyrenees
Agence bancaire BRESSOLS;23 Place du Centre Commercial, 82710 BRESSOLS;82710;;;Crédit Agricole - Nord Midi Pyrenees
Relais CA RELAIS CA - BAR DU CARREFOUR - BROMMAT;Le Bourg, 12600 BROMMAT;12600;44,83062899999999;2,684099999999944;Crédit Agricole - Nord Midi Pyrenees
Relais CA RELAIS CA  - MULTISERVICE - BROQUIES;3 rue Grande, 12480 BROQUIES;12480;44,005679;2,694864000000052;Crédit Agricole - Nord Midi Pyrenees
Relais CA RELAIS CA - BOULANGERIE GRENIER - BRUSQUE;Place de la poste, 12360 BRUSQUE;12360;43,768961;2,95132799999999;Crédit Agricole - Nord Midi Pyrenees
Relais CA RELAIS CA - LES COFFRETS DU TERROIR - BURLATS;Quai Adélaïde, 81100 BURLATS;81100;43,6359273;2,318659;Crédit Agricole - Nord Midi Pyrenees
Relais CA RELAIS CA - LOU PAOUZADOU - BUZEINS;Rue du Paouzadou, 12150 BUZEINS;12150;44,369633;2,969578;Crédit Agricole - Nord Midi Pyrenees
Relais CA RELAIS CA - DU MOULIN AU FOURNIL - CABRERETS;Le Bourg, 46330 CABRERETS;46330;44,505921;1,653863999999999;Crédit Agricole - Nord Midi Pyrenees
Relais CA RELAIS CA -  SELARL CAZES - CADALEN;25 rue du serment d'Hippocrate, 81600 CADALEN;81600;43,850399;1,980940000000032;Crédit Agricole - Nord Midi Pyrenees
Relais CA RELAIS CA - BUREAU DE TABAC - CAGNAC LES MINES;24 avenue Jean Jaurès, 81130 CAGNAC LES MINES;81130;43,984775;2,141091999999958;Crédit Agricole - Nord Midi Pyrenees
Agence bancaire CAHORS DE GAULLE;Place De Gaulle, 46000 CAHORS;46000;44,4506011;1,43991709;Crédit Agricole - Nord Midi Pyrenees
Agence bancaire CAHORS TERRE ROUGE;1 Allée des Thuyas, 46000 CAHORS;46000;44,4602639;1,4548374;Crédit Agricole - Nord Midi Pyrenees
Agence bancaire CAHORS UNIVERSITE;111 Bd Gambetta, 46000 CAHORS;46000;44,444013;1,441818;Crédit Agricole - Nord Midi Pyrenees
Relais CA RELAIS CA - L'ESCALE - CAHORS;1272 Route de Villefranche, 46000 CAHORS;46000;44,4630423;1,472313999999983;Crédit Agricole - Nord Midi Pyrenees
Relais CA RELAIS CA - VIVAL - CAHUZAC SUR VERE;Rue du Barry, 81140 CAHUZAC SUR VERE;81140;43,9824146;1,910512700000027;Crédit Agricole - Nord Midi Pyrenees
Agence bancaire CAJARC;Place du Foirail, 46160 CAJARC;46160;;;Crédit Agricole - Nord Midi Pyrenees
Relais CA RELAIS CA - AU PARFUM D'AVEYRON - CALMONT;24 Rue des Pensionnaires, 12450 CALMONT;12450;44,2727593;2,522868600000038;Crédit Agricole - Nord Midi Pyrenees
Agence bancaire CAMARES;7 Av. de Saint Affrique, 12360 CAMARES;12360;;;Crédit Agricole - Nord Midi Pyrenees
Relais CA RELAIS CA - EPICERIE - CAMBOUNET SUR LE SOR;5 Rue de l'Église, 81580 CAMBOUNET SUR LE SOR;81580;43,5766978;2,11294769999995;Crédit Agricole - Nord Midi Pyrenees
Relais CA RELAIS CA - LA FOUACE DE CAMPAGNAC - CAMPAGNAC;Le Bourg, 12560 CAMPAGNAC;12560;44,419161;3,088275999999951;Crédit Agricole - Nord Midi Pyrenees
Relais CA RELAIS CA  - TABAC CAFE HOTEL - CAMPOURIEZ;Le Bourg, 12460 CAMPOURIEZ;12460;44,689375;2,607137999999964;Crédit Agricole - Nord Midi Pyrenees
Relais CA RELAIS CA - LA HALLE DE CAMPSAS - CAMPSAS;50 Route de la Cavé, 82370 CAMPSAS;82370;43,8969113;1,325773799999979;Crédit Agricole - Nord Midi Pyrenees
Relais CA RELAIS CA - PROXI - CAMPUAC;Route de Polissal, 12580 CAMPUAC;12580;44,5491769;2,589164799999935;Crédit Agricole - Nord Midi Pyrenees
Relais CA RELAIS CA - L'OUSTAL - CANET DE SALARS;Le Bourg, 12290 CANET DE SALARS;12290;44,235174;2,752384000000006;Crédit Agricole - Nord Midi Pyrenees
Agence bancaire CAPDENAC GARE;26 rue de la République, 12700 CAPDENAC;12700;;;Crédit Agricole - Nord Midi Pyrenees
Agence bancaire CARMAUX;14 place Gambetta, 81400 CARMAUX;81400;;;Crédit Agricole - Nord Midi Pyrenees
Agence bancaire CASSAGNES BEGONHES;4 place Charles De Gaulle, 12120 CASSAGNES BEGONHES;12120;;;Crédit Agricole - Nord Midi Pyrenees
Relais CA RELAIS CA - CHEZ COLETTE - CASSUEJOULS;Le Bourg, 12210 CASSUEJOULS;12210;44,726178;2,818613000000028;Crédit Agricole - Nord Midi Pyrenees
Agence bancaire CASTELNAU MONTRATIER;33 Place Léon Gambetta, 46170 CASTELNAU MONTRATIER - SAINTE ALAUZIE;46170;;;Crédit Agricole - Nord Midi Pyrenees
Relais CA RELAIS CA - EPICERIE DE LA TOUR - CASTELNAU-DE-LEVIS;Rue Sicard Alaman, 81150 CASTELNAU-DE-LEVIS;81150;43,9382637;2,084171400000059;Crédit Agricole - Nord Midi Pyrenees
Relais CA RELAIS CA  - ALIMENTATION GÉNÉRALE TABAC - CASTELSAGRAT;27 place de la liberté, 82400 CASTELSAGRAT;82400;44,182649;0,9435101000000259;Crédit Agricole - Nord Midi Pyrenees
Agence bancaire CASTELSARRASIN;56, 58 Rue de l' Egalité, 82100 CASTELSARRASIN;82100;;;Crédit Agricole - Nord Midi Pyrenees
Agence bancaire CASTRES JAURES;17 place Jean Jaurès, 81100 CASTRES;81100;43,6052587;2,2413951;Crédit Agricole - Nord Midi Pyrenees
Agence bancaire CASTRES LAMEILHE;Rue François Couperin, 81100 CASTRES;81100;43,6039654;2,2470753;Crédit Agricole - Nord Midi Pyrenees
Agence bancaire CASTRES MALROUX;8 avenue Augustin Malroux, 81100 CASTRES;81100;43,6101454;2,23782;Crédit Agricole - Nord Midi Pyrenees
Agence bancaire CASTRES SIALA;12 Rue Jean Bories, 81100 CASTRES;81100;43,59033400000001;2,266032;Crédit Agricole - Nord Midi Pyrenees
Agence bancaire CENTRE D'AFFAIRES CASTRES;12 Rue Jean Bories, 81100 CASTRES;81100;43,5904997;2,2661538;Crédit Agricole - Nord Midi Pyrenees
Relais CA RELAIS CA - TABAC PRESSE LOTO - CASTRES;147 Avenue de Lacaze Basse, 81100 CASTRES;81100;43,5926845;2,23554409999997;Crédit Agricole - Nord Midi Pyrenees
Agence bancaire CAUSSADE;3 Place Léon De Maleville, 82300 CAUSSADE;82300;;;Crédit Agricole - Nord Midi Pyrenees
Agence bancaire CAYLUS;5 Avenue Père Evariste Huc, 82160 CAYLUS;82160;;;Crédit Agricole - Nord Midi Pyrenees
Relais CA RELAIS CA - TABAC PRESSE - CAZALS;Place Hugues Salel, 46250 CAZALS;46250;44,6437732;1,224631799999997;Crédit Agricole - Nord Midi Pyrenees
Relais CA RELAIS CA  - LE PETIT MARCHÉ - CENEVIERES;Le Bourg, 46330 CENEVIERES;46330;44,462189;1,747383000000014;Crédit Agricole - Nord Midi Pyrenees
Relais CA RELAIS CA  - BOULANGERIE PATISSERIE - CLAIRVAUX D'AVEYRON;Le Bourg, 12330 CLAIRVAUX D'AVEYRON;12330;44,427185;2,41090399999996;Crédit Agricole - Nord Midi Pyrenees
Relais CA RELAIS CA -  LA POMMIERE - COEUR DE CAUSSE;Route de Gramat, 46240 COEUR DE CAUSSE;46240;44,649783;1,57043;Crédit Agricole - Nord Midi Pyrenees
Relais CA RELAIS CA - LE ST CLAUDE - COLOMBIES;Le bourg, rue du pré grand, 12240 COLOMBIES;12240;44,345845;2,339983999999958;Crédit Agricole - Nord Midi Pyrenees
Relais CA RELAIS CA - EPICERIE - COMPS LA GRAND VILLE;6 Place du Bourg, 12120 COMPS LA GRAND VILLE;12120;44,2312764;2,566797400000041;Crédit Agricole - Nord Midi Pyrenees
Relais CA RELAIS CA - PROXI - CONCORES;Concores, 46310 CONCORES;46310;44,659077;1,395527000000016;Crédit Agricole - Nord Midi Pyrenees
Relais CA RELAIS CA - EXPLOITANT AGRICOLE - CONDOM D'AUBRAC;Condom, 12470 CONDOM D'AUBRAC;12470;44,605101;2,863611999999989;Crédit Agricole - Nord Midi Pyrenees
Relais CA RELAIS CA - COCCI MARKET - CONQUES EN ROUERGUE;Route de Rodez, 12320 CONQUES EN ROUERGUE;12320;44,545909;2,410291;Crédit Agricole - Nord Midi Pyrenees
Agence bancaire CORDES;14 place Bouteillerie, 81170 CORDES;81170;;;Crédit Agricole - Nord Midi Pyrenees
Relais CA RELAIS CA - HOTEL DU NORD - CORNUS;Avenue Charles Andrieu, 12540 CORNUS;12540;43,9029083;3,178691500000014;Crédit Agricole - Nord Midi Pyrenees
Relais CA RELAIS CA - UTILE - COUPIAC;Place du Centre, 12550 COUPIAC;12550;43,953497;2,581448000000023;Crédit Agricole - Nord Midi Pyrenees
Relais CA RELAIS CA - TABAC PRESSE - CREISSELS;5 avenue des Comptes d'Armagnac, 12100 CREISSELS;12100;44,0851124;3,059349099999963;Crédit Agricole - Nord Midi Pyrenees
Relais CA RELAIS CA - COMMERCE ALIMENTATION GENERALE - CUQ TOULZA;Avenue Jean jaurès, 81470 CUQ TOULZA;81470;43,557758;1,892051000000038;Crédit Agricole - Nord Midi Pyrenees
Relais CA RELAIS CA - LE PETIT CREUX - CURIERES;Le Bourg, 12210 CURIERES;12210;44,6520409;2,865153999999961;Crédit Agricole - Nord Midi Pyrenees
Relais CA RELAIS CA - L IDEE CROUSTI MIAM - CUZAC;Hameau de gours, 46270 CUZAC;46270;44,579899;2,141695000000027;Crédit Agricole - Nord Midi Pyrenees
Agence bancaire DECAZEVILLE;1 Rue Emma Calve, 12300 DECAZEVILLE;12300;;;Crédit Agricole - Nord Midi Pyrenees
Relais CA RELAIS CA - TABAC PRESSE - DONZAC;1510 Avenue du Brulhois, 82340 DONZAC;82340;44,1113781;0,8183301;Crédit Agricole - Nord Midi Pyrenees
Relais CA RELAIS CA - BOULANGERIE - DRULHE;Le Bourg, 12350 DRULHE;12350;44,460111;2,131852999999978;Crédit Agricole - Nord Midi Pyrenees
Relais CA RELAIS CA - GARAGE RENAULT - DUNES;Avenue André Vidalot, 82340 DUNES;82340;44,094403;0,7689811000000191;Crédit Agricole - Nord Midi Pyrenees
Relais CA RELAIS CA - PROXI - DUNES;5 Place des Martyrs, 82340 DUNES;82340;44,0874398;0,770220600000016;Crédit Agricole - Nord Midi Pyrenees
Relais CA RELAIS CA - TABAC PRESSE LOTO - DURAVEL;46 Boulevard Gustave Joubert, 46700 DURAVEL;46700;44,5161144;1,079311100000041;Crédit Agricole - Nord Midi Pyrenees
Agence bancaire ENTRAYGUES SUR TRUYERE;1, avenue de Verdun, 12140 ENTRAYGUES SUR TRUYERE;12140;;;Crédit Agricole - Nord Midi Pyrenees
Agence bancaire ESPALION;9, Bd Joseph Poulenc, 12500 ESPALION;12500;;;Crédit Agricole - Nord Midi Pyrenees
Relais CA RELAIS CA  - LE D'ESTAING - ESTAING;9 Rue François d'Estaing, 12190 ESTAING;12190;44,5540782;2,672028400000045;Crédit Agricole - Nord Midi Pyrenees
Relais CA RELAIS CA - LE RELAIS DES MOUSQUETAIRES - FAYET;Le Plo de Labroue multiservice, 12360 FAYET;12360;43,803112;2,948134999999979;Crédit Agricole - Nord Midi Pyrenees
Agence bancaire FIGEAC;9 Avenue Fernand Pezet, 46101 FIGEAC;46101;;;Crédit Agricole - Nord Midi Pyrenees
Relais CA RELAIS CA - DAUNY ARTISAN - FLAVIN;5 Avenue du Ségala, 12450 FLAVIN;12450;44,28614109999999;2,605746199999999;Crédit Agricole - Nord Midi Pyrenees
Relais CA RELAIS CA - TABAC JOURNAUX - FLAVIN;Avenue du Centre, 12450 FLAVIN;12450;44,289062;2,604786999999988;Crédit Agricole - Nord Midi Pyrenees
Relais CA RELAIS CA - LE FLORENTIN - FLORENTIN LA CAPELLE;Rue principale, 12140 FLORENTIN LA CAPELLE;12140;44,629245;2,630865999999969;Crédit Agricole - Nord Midi Pyrenees
Relais CA RELAIS CA - CAFÉ - FOISSAC;Le Bourg, 12260 FOISSAC;12260;44,5103099;2,003603999999996;Crédit Agricole - Nord Midi Pyrenees
Relais CA RELAIS CA - BOUCHERIE - FONDAMENTE;Le Bourg, 12540 FONDAMENTE;12540;43,876415;3,12410890000001;Crédit Agricole - Nord Midi Pyrenees
Agence bancaire GAILLAC;42 place de la Libération, 81600 GAILLAC;81600;43,8997869;1,8971908;Crédit Agricole - Nord Midi Pyrenees
Agence bancaire GAILLAC SAINT EXUPERY;Avenue Saint Exupery, 81600 GAILLAC;81600;43,8940883;1,8809749;Crédit Agricole - Nord Midi Pyrenees
Agence bancaire GOURDON;40 boulevard Mainiol, 46300 GOURDON;46300;;;Crédit Agricole - Nord Midi Pyrenees
Agence bancaire GRAMAT;17 Place de la République, 46500 GRAMAT;46500;;;Crédit Agricole - Nord Midi Pyrenees
Agence bancaire GRAULHET;3 avenue de la Résistance, 81300 GRAULHET;81300;;;Crédit Agricole - Nord Midi Pyrenees
Relais CA RELAIS CA - AU PETIT BONHEUR - GREALOU;Le Bourg, 46160 GREALOU;46160;44,53590699999999;1,885898999999995;Crédit Agricole - Nord Midi Pyrenees
Agence bancaire GRISOLLES;1 Place du Parvis, 82170 GRISOLLES;82170;;;Crédit Agricole - Nord Midi Pyrenees
Relais CA RELAIS CA - FERNANDES - GUITALENS-L'ALBAREDE;18 Avenue de Cocagne, 81220 GUITALENS-L'ALBAREDE;81220;43,6434921;2,0459201;Crédit Agricole - Nord Midi Pyrenees
Relais CA RELAIS CA - GARAGE BIOULAC - HUPARLAC;Le Bourg, 12460 HUPARLAC;12460;44,71248;2,761406999999963;Crédit Agricole - Nord Midi Pyrenees
Relais CA RELAIS CA - KATHY COIFFURE - L'HONOR DE COS;103 Route de Montauban, 82130 L'HONOR DE COS;82130;44,0908521;1,347732899999983;Crédit Agricole - Nord Midi Pyrenees
Relais CA RELAIS CA - BAR HOTEL RESTAURANT - LA BASTIDE L'EVEQUE;Le Bourg, 12200 LA BASTIDE L'EVEQUE;12200;44,33937217477881;2,122669322627075;Crédit Agricole - Nord Midi Pyrenees
Agence bancaire LA FOUILLADE;13, rue de la Fontaine, 12270 LA FOUILLADE;12270;;;Crédit Agricole - Nord Midi Pyrenees
Relais CA RELAIS CA - BOULANGERIE CHOISIT - LA SELVE;Vayssous, 12170 LA SELVE;12170;44,111207;2,535483999999997;Crédit Agricole - Nord Midi Pyrenees
Relais CA RELAIS CA - LE FOURNIAL - LABASTIDE DU TEMPLE;127 Chemin de la Mondote, 82100 LABASTIDE DU TEMPLE;82100;44,078838;1,202056999999968;Crédit Agricole - Nord Midi Pyrenees
Agence bancaire LABASTIDE SAINT PIERRE;Place de la République, 82370 LABASTIDE SAINT PIERRE;82370;;;Crédit Agricole - Nord Midi Pyrenees
Agence bancaire LABASTIDE-ROUAIROUX;47 bis Bd Carnot, 81270 LABASTIDE-ROUAIROUX;81270;;;Crédit Agricole - Nord Midi Pyrenees
Relais CA RELAIS CA - AU PETIT FOUR TARNAIS - LABOUTARIE;Le Bourg, 81120 LABOUTARIE;81120;43,78363299999999;2,119885999999951;Crédit Agricole - Nord Midi Pyrenees
Agence bancaire LABRUGUIERE;12 bd Gambetta, 81290 LABRUGUIERE;81290;;;Crédit Agricole - Nord Midi Pyrenees
Relais CA RELAIS CA - EPICERIE DU THORE - LACABAREDE;84 B grand rue, 81240 LACABAREDE;81240;43,469586;2,581645999999978;Crédit Agricole - Nord Midi Pyrenees
Agence bancaire LACAPELLE MARIVAL;88 Route de Figeac, 46120 LACAPELLE MARIVAL;46120;;;Crédit Agricole - Nord Midi Pyrenees
Agence bancaire LACAUNE;6 Rue aux Herbes, 81230 LACAUNE;81230;;;Crédit Agricole - Nord Midi Pyrenees
Relais CA RELAIS CA - ÉPICERIE LACAZOISE - Lacaze;28 Avenue du Poids Public, 81330 Lacaze;81330;43,738948;2,5222013;Crédit Agricole - Nord Midi Pyrenees
Relais CA RELAIS CA - BAR TABAC DE LA POSTE - LACROIX BARREZ;Impasse de la Mairie, 12600 LACROIX BARREZ;12600;44,77825199999999;2,636106000000041;Crédit Agricole - Nord Midi Pyrenees
Agence bancaire LACROUZETTE;4 avenue de Castres, 81210 LACROUZETTE;81210;;;Crédit Agricole - Nord Midi Pyrenees
Agence bancaire LAFRANCAISE;21 Rue Pernon, 82130 LAFRANCAISE;82130;;;Crédit Agricole - Nord Midi Pyrenees
Relais CA RELAIS CA - BARASC - LAGUEPIE;Rue de la Liberté, 82250 LAGUEPIE;82250;44,1445936;1,971104999999966;Crédit Agricole - Nord Midi Pyrenees
Agence bancaire LAGUIOLE;36 Place du Foirail, 12210 LAGUIOLE;12210;;;Crédit Agricole - Nord Midi Pyrenees
Agence bancaire LAISSAC;Avenue de Rodez, 12310 LAISSAC;12310;;;Crédit Agricole - Nord Midi Pyrenees
Agence bancaire LALBENQUE;62 place de la bascule, 46230 LALBENQUE;46230;;;Crédit Agricole - Nord Midi Pyrenees
Relais CA RELAIS CA - LE MEILLEUR DE NOS FERMES - LAMAGDELAINE;Route de Figeac, 46090 LAMAGDELAINE;46090;44,468125;1,487386;Crédit Agricole - Nord Midi Pyrenees
Relais CA RELAIS CA - TABAC LOTO PRESSE - LAMAGISTERE;4 Rue de la Libération, 82360 LAMAGISTERE;82360;44,1240482;0,8198022000000265;Crédit Agricole - Nord Midi Pyrenees
Relais CA RELAIS CA - L'HORIZON - LANUEJOULS;56 Avenue du Rouergue, 12350 LANUEJOULS;12350;44,42576649999999;2,163545800000065;Crédit Agricole - Nord Midi Pyrenees
Relais CA RELAIS CA - LE RELAIS DE LASSOUTS - LASSOUTS;Le relais, 12500 LASSOUTS;12500;44,486583;2,864162999999962;Crédit Agricole - Nord Midi Pyrenees
Agence bancaire LAUTREC;Rue Lengouzy, 81440 LAUTREC;81440;;;Crédit Agricole - Nord Midi Pyrenees
Agence bancaire LAUZERTE;15, Place du Faubourg d'Auriac, 82110 LAUZERTE;82110;;;Crédit Agricole - Nord Midi Pyrenees
Relais CA RELAIS CA - ARTISAN BOULANGER ALIMENTATION - LAUZES;Le Bourg, 46360 LAUZES;46360;44,568212;1,581291999999962;Crédit Agricole - Nord Midi Pyrenees
Agence bancaire LAVAUR;Place du Foirail, 81500 LAVAUR;81500;;;Crédit Agricole - Nord Midi Pyrenees
Relais CA RELAIS CA - LE QUERCY BOURIAN - LAVERCANTIERE;Lieu dit le bourg, 46340 LAVERCANTIERE;46340;44,638414;1,321237;Crédit Agricole - Nord Midi Pyrenees
Agence bancaire LAVIT DE LOMAGNE;Bd des Amoureux, 82120 LAVIT;82120;;;Crédit Agricole - Nord Midi Pyrenees
Relais CA RELAIS CA - AUBERGE DU TILLEUL - LE BEZ;Lieu dit Guyor haut, 81260 LE BEZ;81260;43,608073;2,475687999999991;Crédit Agricole - Nord Midi Pyrenees
Relais CA RELAIS CA - CAFE DE ROUSSY - LE NID - Le Fel;557 Chemin de Roussy, 12140 Le Fel;12140;44,6548163;2,5108626;Crédit Agricole - Nord Midi Pyrenees
Relais CA RELAIS CA - CHO PAIN - LE MONASTERE;29 Avenue de Millau, 12000 LE MONASTERE;12000;44,3453806;2,580119700000068;Crédit Agricole - Nord Midi Pyrenees
Relais CA RELAIS CA - BAR TABAC CHEZ CHRISTIANE - LE NAYRAC;Le Bourg, 12190 LE NAYRAC;12190;44,6138;2,663635999999997;Crédit Agricole - Nord Midi Pyrenees
Relais CA RELAIS CA - VIVAL - LE NAYRAC;Le Bourg, 12190 LE NAYRAC;12190;44,6138;2,663635999999997;Crédit Agricole - Nord Midi Pyrenees
Relais CA RELAIS CA - LES PLATANES - LEDERGUES;Place georges boulouys, 12170 LEDERGUES;12170;44,08873500000001;2,439814999999953;Crédit Agricole - Nord Midi Pyrenees
Relais CA RELAIS CA - ÉPICERIE LE CHEMIN DU GOÛT - Lempaut;1 Chemin d'en Goût, 81700 Lempaut;81700;43,5270669;2,0649083;Crédit Agricole - Nord Midi Pyrenees
Relais CA RELAIS CA - MAISON DE LA PRESSE - LIMOGNE EN QUERCY;67 Rue de Lugagnac, 46260 LIMOGNE EN QUERCY;46260;44,397656;1,769462999999973;Crédit Agricole - Nord Midi Pyrenees
Agence bancaire LISLE SUR TARN;Place Paul Saissac, 81310 LISLE SUR TARN;81310;;;Crédit Agricole - Nord Midi Pyrenees
Relais CA RELAIS CA - PROXI - LIVERNON;Le Colombier, 46320 LIVERNON;46320;44,646963;1,842725999999971;Crédit Agricole - Nord Midi Pyrenees
Relais CA RELAIS CA - MAISON GINESTET CROS - LOMBERS;12 rue du Château, 81120 LOMBERS;81120;43,80528899999999;2,149505999999974;Crédit Agricole - Nord Midi Pyrenees
Agence bancaire LA PRIMAUBE;1 Place de l'Étoile, 12450 LUC LA PRIMAUBE;12450;;;Crédit Agricole - Nord Midi Pyrenees
Relais CA RELAIS CA - CAFÉ RESTAURANT - LUNAC;Le Bourg, 12270 LUNAC;12270;44,23590799999999;2,110505999999987;Crédit Agricole - Nord Midi Pyrenees
Relais CA RELAIS CA  - TABAC - LUZECH;59 Place du Canal, 46140 LUZECH;46140;44,4783115;1,2866248;Crédit Agricole - Nord Midi Pyrenees
Relais CA RELAIS CA - TABAC PRESSE - MALAUSE;6 Avenue de Bordeaux, 82200 MALAUSE;82200;44,0916678;0,9717090999999982;Crédit Agricole - Nord Midi Pyrenees
Relais CA RELAIS CA  - ALIMENTATION GENERALE - MARCILHAC-SUR-CELE;Le chantre, 46160 MARCILHAC-SUR-CELE;46160;44,553827;1,771069000000011;Crédit Agricole - Nord Midi Pyrenees
Agence bancaire MARCILLAC;7 Place des Écoles, 12330 MARCILLAC-VALLON;12330;;;Crédit Agricole - Nord Midi Pyrenees
Agence bancaire MARSSAC-SUR-TARN;Avenue de Toulouse, 81150 MARSSAC-SUR-TARN;81150;;;Crédit Agricole - Nord Midi Pyrenees
Agence bancaire MARTEL;30 place de la liberté, 46600 MARTEL;46600;;;Crédit Agricole - Nord Midi Pyrenees
Relais CA RELAIS CA - ALIMENTATION TABAC PRESSE - MARTIEL;Le Bourg, 12200 MARTIEL;12200;44,376779;1,923258000000033;Crédit Agricole - Nord Midi Pyrenees
Relais CA RELAIS CA - LA GRANGE DES TILLEULS - MAYRAN;8 place des Tilleuls, 12390 MAYRAN;12390;44,388035;2,363362000000052;Crédit Agricole - Nord Midi Pyrenees
Agence bancaire MAZAMET;1 Rue Edouard Barbey, 81200 MAZAMET;81200;;;Crédit Agricole - Nord Midi Pyrenees
Relais CA RELAIS CA  - UTILE - MEAUZAC;2 Route de Montech, 82290 MEAUZAC;82290;44,0883456;1,239167199999997;Crédit Agricole - Nord Midi Pyrenees
Agence bancaire MERCUES;303 Rue Grand'rue, 46090 MERCUES;46090;;;Crédit Agricole - Nord Midi Pyrenees
Agence bancaire CENTRE D'AFFAIRES MILLAU;Passage Georgette Julie, 12100 MILLAU;12100;44,1017966;3,076564599999983;Crédit Agricole - Nord Midi Pyrenees
Agence bancaire MILLAU LE CRES;Centre Commercial Cap du Crès, 12100 MILLAU;12100;44,1155676;3,07188034;Crédit Agricole - Nord Midi Pyrenees
Agence bancaire MILLAU MARCHE;5 Place des halles, 12100 MILLAU;12100;44,099998;3,08333;Crédit Agricole - Nord Midi Pyrenees
Agence bancaire MILLAU REPUBLIQUE;35 Av. de la République, 12100 MILLAU;12100;44,10222;3,07698;Crédit Agricole - Nord Midi Pyrenees
Relais CA RELAIS CA - L'AMI TEMPS - MIRABEL;3 Place de l'Église, 82440 MIRABEL;82440;44,1440861;1,419255799999974;Crédit Agricole - Nord Midi Pyrenees
Agence bancaire MOISSAC;2 Place des Récollets, 82200 MOISSAC;82200;;;Crédit Agricole - Nord Midi Pyrenees
Agence bancaire MOLIERES;Rue Principale, 82220 MOLIERES;82220;;;Crédit Agricole - Nord Midi Pyrenees
Agence bancaire MONCLAR DE QUERCY;Av. du Colonel Raynal, 82230 MONCLAR DE QUERCY;82230;;;Crédit Agricole - Nord Midi Pyrenees
Agence bancaire MONTAIGU DE QUERCY;Place Mercadiel, 82150 MONTAIGU DE QUERCY;82150;;;Crédit Agricole - Nord Midi Pyrenees
Agence bancaire AGENCE COLLECTIVITES PUBLIQUES 82;74 Avenue Gambetta, 82000 MONTAUBAN;82000;44,0207864;1,3609535;Crédit Agricole - Nord Midi Pyrenees
Agence bancaire BANQUE PRIVEE AGENCE DE MONTAUBAN;74 Avenue Gambetta, 82000 MONTAUBAN;82000;44,0208003;1,360977800000001;Crédit Agricole - Nord Midi Pyrenees
Agence bancaire CENTRE D'AFFAIRES MONTAUBAN;74 Avenue Gambetta, 82000 MONTAUBAN;82000;44,0208003;1,360977800000001;Crédit Agricole - Nord Midi Pyrenees
Agence bancaire MONTAUBAN BEAUSOLEIL;15 Rue Niépce, 82000 Montauban;82000;44,0066991;1,3753688;Crédit Agricole - Nord Midi Pyrenees
Agence bancaire MONTAUBAN COURS FOUCAULT;1 Avenue du 10' Dragons, 82000 MONTAUBAN;82000;44,0233989;1,34244220000005;Crédit Agricole - Nord Midi Pyrenees
Agence bancaire MONTAUBAN GAMBETTA;74 Avenue Gambetta, 82000 MONTAUBAN;82000;44,0208003;1,360977800000001;Crédit Agricole - Nord Midi Pyrenees
Agence bancaire MONTAUBAN PETIT VERSAILLES;745 Avenue Jean Moulin, 82000 MONTAUBAN;82000;44,0289492;1,36945019999996;Crédit Agricole - Nord Midi Pyrenees
Agence bancaire MONTAUBAN PREFECTURE;13 Allée de l'Empereur, 82000 MONTAUBAN;82000;44,01677460000001;1,35649920000003;Crédit Agricole - Nord Midi Pyrenees
Agence bancaire MONTAUBAN SAPIAC;760 Avenue Henry Dunant, 82000 MONTAUBAN;82000;44,0023432;1,35540119999996;Crédit Agricole - Nord Midi Pyrenees
Agence bancaire MONTAUBAN VILLEBOURBON;93 Avenue Aristide Briand, 82000 MONTAUBAN;82000;44,0168539;1,344005400000015;Crédit Agricole - Nord Midi Pyrenees
Agence bancaire MONTBAZENS;24 Avenue du Ségala, 12220 MONTBAZENS;12220;;;Crédit Agricole - Nord Midi Pyrenees
Agence bancaire MONTBETON;496, route de Montauban CC des Carretals, 82290 MONTBETON;82290;;;Crédit Agricole - Nord Midi Pyrenees
Relais CA RELAIS CA - CAFE BAR - MONTCLAR;Le Bourg, 12550 MONTCLAR;12550;43,967534;2,648045000000025;Crédit Agricole - Nord Midi Pyrenees
Agence bancaire MONTCUQ;8 Faubourg Saint Privat, 46800 MONTCUQ;46800;;;Crédit Agricole - Nord Midi Pyrenees
Agence bancaire MONTECH;24 Avenue de la Mouscane, 82700 MONTECH;82700;;;Crédit Agricole - Nord Midi Pyrenees
Relais CA RELAIS CA - LA SUPERETTE - MONTET ET BOUXAL;Lavitarelle, 46210 MONTET ET BOUXAL;46210;44,740844;2,018903;Crédit Agricole - Nord Midi Pyrenees
Relais CA RELAIS CA - L'ESCALE - MONTEZIC;Le Bourg, 12460 MONTEZIC;12460;44,709426;2,640329000000065;Crédit Agricole - Nord Midi Pyrenees
Relais CA RELAIS CA - GARAGE HUC JOEL - MONTFRANC;Le Bourg- D607, 12380 MONTFRANC;12380;43,84249399999999;2,56819489999998;Crédit Agricole - Nord Midi Pyrenees
Relais CA RELAIS CA - L'EMBUSCADE - MONTFRANC;Le Bourg, 12380 MONTFRANC;12380;43,84249399999999;2,56819489999998;Crédit Agricole - Nord Midi Pyrenees
Relais CA RELAIS CA - LE BIENVENU - MONTGAILLARD;327 Grand Rue, 81630 MONTGAILLARD;81630;43,9095461;1,595665199999985;Crédit Agricole - Nord Midi Pyrenees
Relais CA RELAIS CA - LE CAFÉ MONTLAURAIS - MONTLAUR;Route de Saint-Affrique, 12400 MONTLAUR;12400;43,8796994;2,830503499999963;Crédit Agricole - Nord Midi Pyrenees
Relais CA RELAIS CA - SURNATURAL PARK - MONTLAUR;Zone de Cantapoule et Bélune, 12400 MONTLAUR;12400;43,880798;2,8128;Crédit Agricole - Nord Midi Pyrenees
Relais CA RELAIS CA - CAFE TABAC - MONTPEYROUX;Saint Remy, 12210 MONTPEYROUX;12210;44,641971;2,824516000000017;Crédit Agricole - Nord Midi Pyrenees
Relais CA RELAIS CA - HUIT A HUIT - MONTPEZAT DE QUERCY;19 Avenue du 2 Mai 1944, 82270 MONTPEZAT DE QUERCY;82270;44,2381643;1,473145700000032;Crédit Agricole - Nord Midi Pyrenees
Agence bancaire MONTREDON-LABESSONNIE;2 Place St Jean, 81360 MONTREDON-LABESSONIE;81360;;;Crédit Agricole - Nord Midi Pyrenees
Relais CA RELAIS CA - SPAR - MONTRICOUX;Grand Rue, 82800 MONTRICOUX;82800;44,075319;1,618678999999929;Crédit Agricole - Nord Midi Pyrenees
Relais CA RELAIS CA - VIVAL - MOYRAZES;Avenue du Ségala, 12160 MOYRAZES;12160;44,340684;2,438265999999999;Crédit Agricole - Nord Midi Pyrenees
Agence bancaire MUR DE BARREZ;1 Av. du Cardinal Verdier, 12600 MUR DE BARREZ;12600;;;Crédit Agricole - Nord Midi Pyrenees
Agence bancaire NAUCELLE;Av. de la gare, 12800 NAUCELLE;12800;;;Crédit Agricole - Nord Midi Pyrenees
Agence bancaire NEGREPELISSE;45 Rue Marcelin Viguié, 82800 NEGREPELISSE;82800;;;Crédit Agricole - Nord Midi Pyrenees
Relais CA RELAIS CA - FONTORBES - NOHIC;213 Rue de la République, 82370 NOHIC;82370;43,8907449;1,437447399999996;Crédit Agricole - Nord Midi Pyrenees
Relais CA RELAIS CA - L'OLYMPE - OLEMPS;Centre urbain, 12510 OLEMPS;12510;44,342526;2,55513099999996;Crédit Agricole - Nord Midi Pyrenees
Relais CA RELAIS CA -  TABAC - ONET LE CHATEAU;15 Rue des Fauvettes, 12850 ONET LE CHATEAU;12850;44,3761657;2,5711171;Crédit Agricole - Nord Midi Pyrenees
Agence bancaire RODEZ ESTRENIOL;Centre Commercial de l'Estreniol, 12850 ONET LE CHATEAU;12850;44,393668;2,603996;Crédit Agricole - Nord Midi Pyrenees
Agence bancaire RODEZ QUATRE SAISONS;Bd des balquières, 12850 ONET LE CHATEAU;12850;44,3701932;2,58990347;Crédit Agricole - Nord Midi Pyrenees
Relais CA RELAIS CA - COMMERCE - PALMAS D'AVEYRON;Route de Laissac, 12340 PALMAS D'AVEYRON;12340;44,373659;2,640972599999941;Crédit Agricole - Nord Midi Pyrenees
Relais CA RELAIS CA - PROXI - PAMPELONNE;25 Avenue du Viaur, 81190 PAMPELONNE;81190;44,1240205;2,245419200000015;Crédit Agricole - Nord Midi Pyrenees
Relais CA RELAIS CA - EPICERIE TABAC - PARISOT;4 Rue de la Mairie, 82160 PARISOT;82160;44,2653111;1,8574572;Crédit Agricole - Nord Midi Pyrenees
Relais CA RELAIS CA - LA MAISON CAFÉ BAR - PARISOT;Place du Foirail, 82160 PARISOT;82160;44,2658152;1,856359300000008;Crédit Agricole - Nord Midi Pyrenees
Relais CA RELAIS CA - ÉPICERIE PRIMEUR - PARISOT;30 Route du Pastel, 81310 PARISOT;81310;43,7988212;1,831952399999977;Crédit Agricole - Nord Midi Pyrenees
Relais CA RELAIS CA - TABAC PRESSE - PAYRIN AUGMONTEL;Avenue de Caucalières, 81660 PAYRIN AUGMONTEL;81660;43,5205755;2,349310899999978;Crédit Agricole - Nord Midi Pyrenees
Relais CA RELAIS CA - LA TERRASSE - PENNE;Le Bourg, 81140 PENNE;81140;44,077154;1,73112;Crédit Agricole - Nord Midi Pyrenees
Relais CA RELAIS CA - VIVAL - PENNE;5 Rue Edouard Minart, 81140 PENNE;81140;44,0764115;1,7312677;Crédit Agricole - Nord Midi Pyrenees
Relais CA RELAIS CA - LA LEGENDE - PLAISANCE;Le Bourg, 12550 PLAISANCE;12550;43,92864;2,547382;Crédit Agricole - Nord Midi Pyrenees
Agence bancaire PONT DE SALARS;484 avenue de Rodez, 12290 Pont-de-Salars;12290;;;Crédit Agricole - Nord Midi Pyrenees
Agence bancaire AGENCE COLLECTIVITES PUBLIQUES 46;Côte du Pape, 46090 PRADINES;46090;44,4633275;1,414147;Crédit Agricole - Nord Midi Pyrenees
Agence bancaire BANQUE PRIVEE AGENCE DE CAHORS;22 Boulevard Léon Gambetta, 46090 PRADINES;46090;44,4471192;1,4402615;Crédit Agricole - Nord Midi Pyrenees
Agence bancaire CENTRE D'AFFAIRES CAHORS;Côte du Pape, 46090 PRADINES;46090;44,4633275;1,414146999999957;Crédit Agricole - Nord Midi Pyrenees
Agence bancaire PRADINES;Côte du Pape, 46090 PRADINES;46090;44,4633275;1,414146999999957;Crédit Agricole - Nord Midi Pyrenees
Agence bancaire PRAYSSAC;10 Place Dutours, 46220 PRAYSSAC;46220;;;Crédit Agricole - Nord Midi Pyrenees
Agence bancaire PUY L'EVEQUE;Place de la Truffière, 46700 PUY L'EVEQUE;46700;;;Crédit Agricole - Nord Midi Pyrenees
Relais CA RELAIS CA  - STATION SERVICE - PUYCORNET;Lieu dit Saint romain, 82220 PUYCORNET;82220;44,15495670000001;1,318004200000018;Crédit Agricole - Nord Midi Pyrenees
Agence bancaire PUYGOUZON;4 Avenue de Garban, 81990 PUYGOUZON;81990;;;Crédit Agricole - Nord Midi Pyrenees
Relais CA RELAIS CA - LES MARRONNIERS - PUYLAROQUE;10 Boulevard Gambetta, 82240 PUYLAROQUE;82240;44,2527369;1,610575199999971;Crédit Agricole - Nord Midi Pyrenees
Agence bancaire PUYLAURENS;Avenue de Castres, 81700 PUYLAURENS;81700;;;Crédit Agricole - Nord Midi Pyrenees
Agence bancaire RABASTENS;23 Place Saint-Michel, 81800 RABASTENS;81800;;;Crédit Agricole - Nord Midi Pyrenees
Agence bancaire REALMONT;Place du 8 Mai 1945, 81120 REALMONT;81120;;;Crédit Agricole - Nord Midi Pyrenees
Relais CA RELAIS CA - TERRE DES GRANDS CAUSSES - RECOULES PREVINQUIERES;Z.A. le Plâ d'Aveyron, N88, 12150 RECOULES PREVINQUIERES;12150;44,354182;2,971093;Crédit Agricole - Nord Midi Pyrenees
Agence bancaire REQUISTA;1 Place des anciens combattants, 12170 REQUISTA;12170;;;Crédit Agricole - Nord Midi Pyrenees
Relais CA RELAIS CA - CAFE TABAC - REYNIES;5 Rue Georges Clemenceau, 82370 REYNIES;82370;43,9168312;1,397587700000031;Crédit Agricole - Nord Midi Pyrenees
Relais CA RELAIS CA - LA FIGUE ET L'OLIVIER - REYNIES;3 Rue Georges Clemenceau, 82370 REYNIES;82370;43,9175788;1,398330499999929;Crédit Agricole - Nord Midi Pyrenees
Agence bancaire RIEUPEYROUX;Tour de ville, 12240 RIEUPEYROUX;12240;;;Crédit Agricole - Nord Midi Pyrenees
Agence bancaire RIGNAC;168 Avenue de Rodez, 12390 RIGNAC;12390;;;Crédit Agricole - Nord Midi Pyrenees
Relais CA RELAIS CA - PROXI - ROCAMADOUR;L'hospitalet, 46500 ROCAMADOUR;46500;44,79938300000001;1,617900999999961;Crédit Agricole - Nord Midi Pyrenees
Agence bancaire AGENCE COLLECTIVITES PUBLIQUES 12;6 Boulevard du 122 Régiment d'Infanterie, 12000 RODEZ;12000;44,3531579;2,5691595;Crédit Agricole - Nord Midi Pyrenees
Agence bancaire BANQUE PRIVEE AGENCE DE RODEZ;6 Boulevard du 122ème Régiment d'Infanterie, 12000 RODEZ;12000;44,353147;2,569161;Crédit Agricole - Nord Midi Pyrenees
Agence bancaire CENTRE D'AFFAIRES RODEZ;6 Boulevard du 122 Régiment d'Infanterie, 12000 RODEZ;12000;44,3531579;2,569159500000069;Crédit Agricole - Nord Midi Pyrenees
Agence bancaire RODEZ AMPHI;6, Bd du 122ème R.I., 12000 RODEZ;12000;44,353194;2,56921;Crédit Agricole - Nord Midi Pyrenees
Agence bancaire RODEZ BOURRAN;18 avenue de Bourran, 12000 RODEZ;12000;44,36104;2,556584;Crédit Agricole - Nord Midi Pyrenees
Guichet Automatique de banque RODEZ CITE;30, Place de la cité, 12000 RODEZ;12000;44,3508008;2,575699;Crédit Agricole - Nord Midi Pyrenees
Agence bancaire RODEZ FAUBOURG;11 Av. de Tarayre, 12000 RODEZ;12000;44,3559213;2,5769055;Crédit Agricole - Nord Midi Pyrenees
Agence bancaire RODEZ PREFECTURE;Carrefour St Etienne, 12000 RODEZ;12000;44,3493863;2,57582188;Crédit Agricole - Nord Midi Pyrenees
Relais CA RELAIS CA  - VIVAL - ROQUECOR;Place du Marché, 82150 ROQUECOR;82150;44,322009;0,944811800000025;Crédit Agricole - Nord Midi Pyrenees
Relais CA RELAIS CA - LA FRINGALE - ROQUEFORT SUR SOULZON;26 Bis avenue de Lauras, 12250 ROQUEFORT SUR SOULZON;12250;43,974566;2,99202200000002;Crédit Agricole - Nord Midi Pyrenees
Relais CA RELAIS CA - LE PARGOU - ROUSSENNAC;12220 ROUSSENNAC;12220;44,453609;2,253326;Crédit Agricole - Nord Midi Pyrenees
Agence bancaire SAINT AFFRIQUE REPUBLIQUE;28 Bd de la République, 12400 SAINT AFFRIQUE;12400;;;Crédit Agricole - Nord Midi Pyrenees
Relais CA RELAIS CA  -  BOUCHERIE CHARCUTERIE - SAINT AMANS DES COTS;Route de Laguiole, 12460 SAINT AMANS DES COTS;12460;44,690233;2,660529099999962;Crédit Agricole - Nord Midi Pyrenees
Agence bancaire SAINT AMANS SOULT;50 bis Avenue de la Méditerranée, 81240 SAINT AMANS SOULT;81240;;;Crédit Agricole - Nord Midi Pyrenees
Agence bancaire SAINT ANTONIN NOBLE VAL;38 Av. du Docteur Paul Benet, 82140 SAINT ANTONIN NOBLE VAL;82140;;;Crédit Agricole - Nord Midi Pyrenees
Relais CA RELAIS CA  - LES COUDERCOUS - SAINT CHELY D'AUBRAC;Le Bourg, 12470 SAINT CHELY D'AUBRAC;12470;44,590311;2,92144600000006;Crédit Agricole - Nord Midi Pyrenees
Relais CA RELAIS CA  - LE SANTANA - SAINT CHRISTOPHE VALLON;2 Route de Rodez, 12330 SAINT CHRISTOPHE VALLON;12330;44,470346;2,411926600000015;Crédit Agricole - Nord Midi Pyrenees
Relais CA RELAIS CA - SUPERETTE - SAINT CHRISTOPHE VALLON;4 Route de Decazeville, 12330 SAINT CHRISTOPHE VALLON;12330;44,4712773;2,41160919999993;Crédit Agricole - Nord Midi Pyrenees
Relais CA RELAIS CA - TABAC PRESSE - SAINT COME D'OLT;1 Avenue d'Aubrac, 12500 SAINT COME D'OLT;12500;44,5158529;2,814279299999953;Crédit Agricole - Nord Midi Pyrenees
Relais CA RELAIS CA - FLORIPAIN - SAINT FELIX DE LUNEL;Lieu dit Lunel, 12320 SAINT FELIX DE LUNEL;12320;44,561834;2,536106000000018;Crédit Agricole - Nord Midi Pyrenees
Agence bancaire SAINT GENIEZ D'OLT;Route nationale, 12130 SAINT GENIEZ D'OLT;12130;;;Crédit Agricole - Nord Midi Pyrenees
Relais CA RELAIS CA - EPICERIE TABAC - SAINT GERY VERS;Rue Montois, 46090 SAINT GERY VERS;46090;44,486067;1,553376000000071;Crédit Agricole - Nord Midi Pyrenees
Relais CA RELAIS CA - STATION DU DOURDOU - SAINT IZAIRE;Route de Sainte Affrique, 12480 SAINT IZAIRE;12480;43,9748393;2,719711500000017;Crédit Agricole - Nord Midi Pyrenees
Agence bancaire SAINT JUERY;10, 12 rue Jean Jaurès, 81160 SAINT JUERY;81160;;;Crédit Agricole - Nord Midi Pyrenees
Relais CA RELAIS CA - BOULANGERIE PATISSERIE - SAINT LIEUX LES LAVAUR;2 rue d'en boyer, 81500 SAINT LIEUX LES LAVAUR;81500;43,764816;1,758288;Crédit Agricole - Nord Midi Pyrenees
Relais CA RELAIS CA - PANIER SYMPA - SAINT PATHERM;Port d'Agrès, 12300 SAINT PATHERM;12300;44,625802;2,315832;Crédit Agricole - Nord Midi Pyrenees
Relais CA RELAIS CA - MINI MARCHÉ - SAINT PIERRE DE TRIVISY;Roc des Gors, 81330 SAINT PIERRE DE TRIVISY;81330;43,75857;2,447305000000028;Crédit Agricole - Nord Midi Pyrenees
Relais CA RELAIS CA - UTILE - SAINT PIERRE DE TRIVISY;Le Bourg, 81330 SAINT PIERRE DE TRIVISY;81330;43,761305;2,437625000000026;Crédit Agricole - Nord Midi Pyrenees
Relais CA RELAIS CA - HOTEL RESTAURANT DE LA GARE - SAINT ROME DE CERNON;Avenue de la Gare, 12490 SAINT ROME DE CERNON;12490;44,012172;2,963316999999961;Crédit Agricole - Nord Midi Pyrenees
Relais CA RELAIS CA - LE MARONNIER - SAINT SANTIN;Le Combal, 12300 SAINT SANTIN;12300;44,648908;2,218167999999992;Crédit Agricole - Nord Midi Pyrenees
Relais CA RELAIS CA - COMMERCE - SAINT SATURNIN DE LENNE;Le Bourg, 12560 SAINT SATURNIN DE LENNE;12560;44,42215299999999;3,018558999999982;Crédit Agricole - Nord Midi Pyrenees
Relais CA RELAIS CA - SPAR - SAINT SOZY;5, lieu dit les Jardins, 46200 SAINT SOZY;46200;44,880639;1,56549;Crédit Agricole - Nord Midi Pyrenees
Agence bancaire SAINT SULPICE;14 place Jean Jaurès, 81370 SAINT SULPICE;81370;;;Crédit Agricole - Nord Midi Pyrenees
Relais CA RELAIS CA - CHEZ VAL ET LUDO - SAINT VICTOR;Le Bourg, 12400 SAINT VICTOR;12400;44,04725;2,812846300000046;Crédit Agricole - Nord Midi Pyrenees
Relais CA RELAIS CA - TABAC DE LA MINE - SAINT-BENOIT-DE-CARMAUX;29 Avenue Jean Jaurès, 81400 SAINT-BENOIT-DE-CARMAUX;81400;44,0524542;2,1297383;Crédit Agricole - Nord Midi Pyrenees
Agence bancaire SAINT-CERE;1 Boulevard Jean Lurçat, 46400 SAINT-CERE;46400;;;Crédit Agricole - Nord Midi Pyrenees
Agence bancaire SAINT-ETIENNE DE TULMONT;11 Rue du Tulmonenc, 82410 SAINT-ETIENNE DE TULMONT;82410;;;Crédit Agricole - Nord Midi Pyrenees
Agence bancaire SAINT-NICOLAS DE LA GRAVE;4 Rue Gambetta, 82210 SAINT-NICOLAS DE LA GRAVE;82210;;;Crédit Agricole - Nord Midi Pyrenees
Agence bancaire SAINTE GENEVIEVE SUR ARGENCE;Rue du Riols, 12420 SAINTE GENEVIEVE SUR ARGENCE;12420;;;Crédit Agricole - Nord Midi Pyrenees
Agence bancaire SAIX;349 Allée de Boussac, 81710 SAIX;81710;;;Crédit Agricole - Nord Midi Pyrenees
Relais CA RELAIS CA - ISABELLE GAUBERT - SALLES CURAN;Saint-Martin des Faux, 12410 SALLES CURAN;12410;44,1746738;2,736761900000033;Crédit Agricole - Nord Midi Pyrenees
Relais CA RELAIS CA - TABAC LIBRAIRIE - SALLES CURAN;Rue de la Confrérie, 12410 SALLES CURAN;12410;44,1822253;2,786858499999994;Crédit Agricole - Nord Midi Pyrenees
Relais CA RELAIS CA  - AL MIECH - SALMIECH;Place de la mairie, 12120 SALMIECH;12120;44,18044099999999;2,571161999999958;Crédit Agricole - Nord Midi Pyrenees
Relais CA RELAIS CA - VIVRE A LA CAMPAGNE - SALVAGNAC;Avenue Chantilly, 81630 SALVAGNAC;81630;43,9080339;1,682719600000041;Crédit Agricole - Nord Midi Pyrenees
Agence bancaire SALVIAC;8 boulevard Hugon, 46340 SALVIAC;46340;;;Crédit Agricole - Nord Midi Pyrenees
Relais CA RELAIS CA - BOULANGERIE PATISSERIE - SAUVETERRE DE ROUERGUE;Le Bourg, 12800 SAUVETERRE DE ROUERGUE;12800;44,220081;2,317746899999975;Crédit Agricole - Nord Midi Pyrenees
Guichet Automatique de banque SEBAZAC VILLAGE;Carrefour peyre stebe, 12740 SEBAZAC;12740;44,395392;2,597571;Crédit Agricole - Nord Midi Pyrenees
Agence bancaire CA DIRECT;79 Avenue Tabardel, 12740 SEBAZAC-CONCOURES;12740;;;Crédit Agricole - Nord Midi Pyrenees
Relais CA RELAIS CA - VOTRE MARCHE - SEGUR;Route de Rodez, 12290 SEGUR;12290;44,291329;2,834599000000026;Crédit Agricole - Nord Midi Pyrenees
Relais CA RELAIS CA - TABAC PRESSE LOTO - SEMALENS;4 place du centre, 81570 SEMALENS;81570;43,592529;2,111129000000005;Crédit Agricole - Nord Midi Pyrenees
Relais CA RELAIS CA - SPAR - SENERGUES;Le Bourg, 12320 SENERGUES;12320;44,6044089;2,484957000000008;Crédit Agricole - Nord Midi Pyrenees
Relais CA RELAIS CA - LA BOULANGERIE DE LOONA - SENOUILLAC;17 Avenue des Vignes, 81600 SENOUILLAC;81600;43,9442494;1,946763099999998;Crédit Agricole - Nord Midi Pyrenees
Relais CA RELAIS CA - LA GRANGE - SERENAC;3 rue de la Méridienne, 81350 SERENAC;81350;43,963536;2,334115999999994;Crédit Agricole - Nord Midi Pyrenees
Agence bancaire SEVERAC;4 Place de la Gare, 12150 SEVERAC D AVEYRON;12150;;;Crédit Agricole - Nord Midi Pyrenees
Agence bancaire SOREZE;17 Allées de Ravelin, 81540 SOREZE;81540;;;Crédit Agricole - Nord Midi Pyrenees
Agence bancaire SOUAL;10 Place d'Occitanie, 81580 SOUAL;81580;;;Crédit Agricole - Nord Midi Pyrenees
Agence bancaire SOUILLAC;Bd Louis Jean Malvy, 46200 SOUILLAC;46200;;;Crédit Agricole - Nord Midi Pyrenees
Relais CA RELAIS CA - PROXI - SOUSCEYRAC;Le Bourg, 46190 SOUSCEYRAC;46190;44,872481;2,036327000000028;Crédit Agricole - Nord Midi Pyrenees
Agence bancaire TANUS;10 Avenue Paul Bodin, 81190 TANUS;81190;;;Crédit Agricole - Nord Midi Pyrenees
Relais CA RELAIS CA - CAFÉ DE LA TERASSE - TEILLET;1 place de l'église, 81120 TEILLET;81120;43,834397;2,339760999999953;Crédit Agricole - Nord Midi Pyrenees
Relais CA RELAIS CA - BOULANGERIE - TOUR-DE-FAURE;Lieu-dit Bourg, 46330 TOUR-DE-FAURE;46330;44,468782;1,690069999999992;Crédit Agricole - Nord Midi Pyrenees
Relais CA RELAIS CA - ALIMENTATION - TREMOUILLES;Le Bourg, 12290 TREMOUILLES;12290;44,244649;2,644465999999966;Crédit Agricole - Nord Midi Pyrenees
Relais CA RELAIS CA - AU PANIER D'HÉLÈNE - VABRE;Place de la Mairie, 81330 VABRE;81330;43,6931255;2,4260319;Crédit Agricole - Nord Midi Pyrenees
Relais CA RELAIS CA - BAR TABAC - VALADY;D840, 12330 VALADY;12330;44,4437863;2,438676600000008;Crédit Agricole - Nord Midi Pyrenees
Agence bancaire VALENCE D'AGEN;5 Bd V Guilhem, 82400 VALENCE D'AGEN;82400;;;Crédit Agricole - Nord Midi Pyrenees
Agence bancaire VALENCE D'ALBIGEOIS;Place du Coq, 81340 VALENCE D'ALBIGEOIS;81340;;;Crédit Agricole - Nord Midi Pyrenees
Relais CA RELAIS CA - PANIER SYMPA - VARAIRE;Le Bourg, 46260 VARAIRE;46260;44,357473;1,723885999999993;Crédit Agricole - Nord Midi Pyrenees
Agence bancaire VAYRAC;Place des Cadurques, 46110 VAYRAC;46110;;;Crédit Agricole - Nord Midi Pyrenees
Agence bancaire VERDUN SUR GARONNE;36 Rue Joliot-Curie, 82600 VERDUN;82600;;;Crédit Agricole - Nord Midi Pyrenees
Relais CA RELAIS CA - BOULANGERIE PATISSERIE - VERFEIL SUR VEYRE;Lieu dit Le Bourg, 82330 VERFEIL SUR VEYRE;82330;44,1871099;1,876262999999994;Crédit Agricole - Nord Midi Pyrenees
Relais CA RELAIS CA - ÉPICERIE TABAC MULTI-COMMERCE - VERLHAC-TESCOU;11 PLACE ABBE CRUZEL, 82230 VERLHAC-TESCOU;82230;43,92877259999999;1,5388911;Crédit Agricole - Nord Midi Pyrenees
Relais CA RELAIS CA - AU BON PAIN DU LEVEZOU - VEZINS DE LEVEZOU;10 route du claux, 12780 VEZINS DE LEVEZOU;12780;44,27864599999999;2,95196599999997;Crédit Agricole - Nord Midi Pyrenees
Relais CA RELAIS CA - AUX SOURCES DU VIAUR - VEZINS DE LEVEZOU;La Clau, 12780 VEZINS DE LEVEZOU;12780;44,262311;2,9882738;Crédit Agricole - Nord Midi Pyrenees
Relais CA RELAIS CA - EXPRESSION DU PAIN - VIELMUR-SUR-AGOUT;1 Rue Neuve, 81570 VIELMUR-SUR-AGOUT;81570;43,620216;2,090077;Crédit Agricole - Nord Midi Pyrenees
Agence bancaire VILLEBRUMIER;Place de la Croix, 82370 VILLEBRUMIER;82370;;;Crédit Agricole - Nord Midi Pyrenees
Relais CA RELAIS CA - VIVAL - VILLECOMTAL;21 Avenue Joseph Vidal, 12580 VILLECOMTAL;12580;44,53868809999999;2,5643192;Crédit Agricole - Nord Midi Pyrenees
Agence bancaire CENTRE D'AFFAIRES VILLEFRANCHE;4T Rue Sainte-Emilie de Rodat, 12200 VILLEFRANCHE DE ROUERGUE;12200;;;Crédit Agricole - Nord Midi Pyrenees
Agence bancaire VILLENEUVE D'AVEYRON;7 Boulevard Cardalhac, 12260 VILLENEUVE;12260;;;Crédit Agricole - Nord Midi Pyrenees
Relais CA RELAIS CA - RESTAURANT LES BERGERS - VIMENET;Le Bourg, 12310 VIMENET;12310;44,398491;2,928802000000019;Crédit Agricole - Nord Midi Pyrenees
Relais CA RELAIS CA - UTILE - Viviers-lès-Montagnes;6 Route de Saix, 81290 Viviers-lès-Montagnes;81290;43,5537256;2,1755084;Crédit Agricole - Nord Midi Pyrenees
