nom;adresse;code_postal;latitude;longitude;region_source
Agence bancaire AGEN CARNOT;108-110 Boulevard Carnot, 47000 AGEN;47000;44,206465;0,620878;Crédit Agricole - Aquitaine
Distributeur automatique de billets AGEN CASINO (distributeur);ROUTE DE CAHORS, 47000 AGEN;47000;44,44466850407969;1,441154282842767;Crédit Agricole - Aquitaine
Distributeur automatique de billets AGEN JASMIN (distributeur);18 BOULEVARD DE LA REPUBLIQUE, 47000 AGEN;47000;44,2043272667626;0,6134513289016797;Crédit Agricole - Aquitaine
Agence bancaire AGEN LE PIN;204, Avenue Jean Jaurès, 47000 AGEN;47000;44,204168;0,627294;Crédit Agricole - Aquitaine
Agence bancaire AGEN PAYROL;4, Rue Pierre Mendès France, 47000 AGEN;47000;44,188014;0,630898;Crédit Agricole - Aquitaine
"Nos agencesà AGEN";;;44,204432;0,61408;Crédit Agricole - Aquitaine
Agence bancaire Espace Entreprises du Lot-et-Garonne;RUE PIERRE MENDES FRANCE BOE CEDEX, 47000 AGEN;47000;44,188168;0,632183;Crédit Agricole - Aquitaine
Agence bancaire Espace Pro et Banque Privée de l'Agenais;4, rue Pierre Mendes France, 47000 AGEN;47000;44,187846;0,632956;Crédit Agricole - Aquitaine
Relais CA RELAIS CA (LE FLOREAL) - Agen;Impasse Jean Jaurès, 47000 Agen;47000;44,195213;0,64334;Crédit Agricole - Aquitaine
Relais CA RELAIS CA (TABAC LE PLANO) - Agen;96 Rue de Sevin, 47000 Agen;47000;44,1950344;0,6171042;Crédit Agricole - Aquitaine
Agence bancaire AIGUILLON;9 Place du 14 Juillet, 47190 Aiguillon;47190;;;Crédit Agricole - Aquitaine
Relais CA RELAIS CA (L'EPICOLETTE) - Aillas;24 Aillas le Grand, 33124 Aillas;33124;44,4742249;-0,0745599;Crédit Agricole - Aquitaine
Agence bancaire AIRE SUR ADOUR;39, Rue Gambetta, 40800 AIRE SUR L'ADOUR;40800;43,701647;-0,262441;Crédit Agricole - Aquitaine
Agence bancaire Espace Grandes Entreprises Agricoles;Le Mas, CS60169, 40800 AIRE SUR L'ADOUR;40800;43,6819345;-0,2766057000000046;Crédit Agricole - Aquitaine
Agence bancaire Espace Pro et Banque Privée Sud Gascogne;39, Rue Gambetta, 40800 AIRE SUR L'ADOUR;40800;43,701645;-0,2646308;Crédit Agricole - Aquitaine
Relais CA RELAIS CA (TABAC SNC MIELO) - Allemans-du-Dropt;11 Place de la Liberté, 47800 Allemans-du-Dropt;47800;44,6278112;0,2898285;Crédit Agricole - Aquitaine
Relais CA RELAIS CA (RESTAURANT COLETTE DUBOUILH) - Allons;AU BOURG, 47420 Allons;47420;44,20187;-0,05472399999999999;Crédit Agricole - Aquitaine
Agence bancaire AMBARES;Rue Edouard Herriot, 33440 AMBARES;33440;;;Crédit Agricole - Aquitaine
Relais CA RELAIS CA (EASY MARKET) - Ambarès-et-Lagrave;17 Chemin du Moulin, 33440 Ambarès-et-Lagrave;33440;44,9327471;-0,4709958;Crédit Agricole - Aquitaine
Agence bancaire AMOU;Avenue De L'Océan, 40330 AMOU;40330;;;Crédit Agricole - Aquitaine
Agence bancaire ANDERNOS;19, Avenue De Bordeaux, 33510 ANDERNOS;33510;;;Crédit Agricole - Aquitaine
Relais CA RELAIS CA (FLORENT ROUGIER) - Anglade;32 Résidence de l'Estuaire, 33390 Anglade;33390;45,21167330129368;-0,6361985206604004;Crédit Agricole - Aquitaine
Relais CA RELAIS CA (AUBERGE DES PLATANES) - Angresse;255 Avenue de la Mairie, 40150 Angresse;40150;43,65889430000001;-1,3699562;Crédit Agricole - Aquitaine
Relais CA RELAIS CA (LE RELAIS 113) - Arbanats;85 Cours du Général de Gaulle, 33640 Arbanats;33640;44,6732633;-0,3970211;Crédit Agricole - Aquitaine
Agence bancaire ARCACHON;252, Boulevard De La Plage, 33120 ARCACHON;33120;;;Crédit Agricole - Aquitaine
Relais CA RELAIS CA (L'EPICERIE DU COIN) - Arengosse;290 Route de Mont de Marsan, 40110 Arengosse;40110;44,0039591;-0,7873553;Crédit Agricole - Aquitaine
Agence bancaire ARES;74, Route De Bordeaux, 33740 ARES;33740;;;Crédit Agricole - Aquitaine
Agence bancaire Espace Banque Privée Bordeaux Rive Droite;3, Avenue Du Moulinat Bât A, 33370 ARTIGUES PRES BORDEAUX;33370;44,8679854;-0,5004039;Crédit Agricole - Aquitaine
Agence bancaire Espace Pro Bordeaux Rive Droite;3, Avenue Du Moulinat Bât A, 33370 ARTIGUES PRES BORDEAUX;33370;44,8679854;-0,5004039;Crédit Agricole - Aquitaine
Relais CA RELAIS CA (BAR TABAC BRASSERIE LE 40) - Arveyres;40 Route de Bordeaux, 33500 Arveyres;33500;44,8830841;-0,2886217;Crédit Agricole - Aquitaine
Agence bancaire ASTAFFORT;Place De La Nation, 47220 ASTAFFORT;47220;;;Crédit Agricole - Aquitaine
Relais CA RELAIS CA (LE RELAIS DES 4 CANTONS) - Aubagnan;AU BOURG, 40700 Aubagnan;40700;43,6671110516795;-0,4888486862182617;Crédit Agricole - Aquitaine
Agence bancaire AUDENGE;22, Allée Ernest Boissière, 33980 AUDENGE;33980;;;Crédit Agricole - Aquitaine
Relais CA RELAIS CA (LE FOURNIL DE 1903) - Auros;9 Rue Castelnau d'Auros, 33124 Auros;33124;44,4955257637245;-0,1458907127380371;Crédit Agricole - Aquitaine
Relais CA RELAIS CA (L'AUTHENTIQUE) - Avensan;5 Route de Castelnau, 33480 Avensan;33480;45,034751;-0,7586860999999999;Crédit Agricole - Aquitaine
Relais CA RELAIS CA (LE CARRE DAS) - Barbaste;5 Rue de la République, 47230 Barbaste;47230;44,1699802;0,286243;Crédit Agricole - Aquitaine
Relais CA RELAIS CA (BOULANGERIE GOURGUES) - Bascons;Rue du Docteur Dupouy, 40090 Bascons;40090;43,821383;-0,4183496;Crédit Agricole - Aquitaine
Agence bancaire BASSENS;5, Rue Henri Dunant, 33530 BASSENS;33530;;;Crédit Agricole - Aquitaine
Relais CA RELAIS CA (LA PLAINE DE GAURIAC) - Bayon-sur-Gironde;20 Moulin Dechamps, 33710 Bayon-sur-Gironde;33710;45,0573303;-0,6085314;Crédit Agricole - Aquitaine
Agence bancaire BAZAS;10, Cours Du Général De Gaulle, 33430 BAZAS;33430;;;Crédit Agricole - Aquitaine
Relais CA RELAIS CA (A LA CROISEE DES CHEMINS) - Bazens;Place des Abeaux, 47130 Bazens;47130;44,263547;0,42262;Crédit Agricole - Aquitaine
Agence bancaire BEGLES;30, Cours Victor Hugo, 33130 BEGLES;33130;44,811842;-0,564297;Crédit Agricole - Aquitaine
Agence bancaire BEGLES MAIRIE;23, Rue Calixte Camelle, 33130 BEGLES;33130;44,807694;-0,547342;Crédit Agricole - Aquitaine
Relais CA RELAIS CA (TABAC LOTO PRESSE) - Belin-Béliet;109 Avenue Aliénor, 33830 Belin-Béliet;33830;44,5069468;-0,7885538;Crédit Agricole - Aquitaine
Relais CA RELAIS CA (L'EPICERIE LA RENAISSANCE) - Belus;au bourg, 40300 Belus;40300;43,589153;-1,114072;Crédit Agricole - Aquitaine
Relais CA RELAIS CA (PROXI) - Berson;12 Avenue du Bourg, 33390 Berson;33390;45,107198;-0,5869586999999999;Crédit Agricole - Aquitaine
Relais CA RELAIS CA (COMMERCE JOELLE WALLET) - Bégadan;7 place Ferdinand Lartigue, 33340 Bégadan;33340;45,35652562041663;-0,8926928043365479;Crédit Agricole - Aquitaine
Relais CA RELAIS CA (STATION PEJEAN) - Bias;Avenue de Bordeaux, 47300 Bias;47300;44,4028829;0,6697531;Crédit Agricole - Aquitaine
Relais CA RELAIS CA (boulangerie Bidache) - Bidache;3 Place du Foirail, 64520 Bidache;64520;43,48414289999999;-1,1397597;Crédit Agricole - Aquitaine
Agence bancaire BIGANOS - FACTURE;20, Avenue De La Libération, 33380 BIGANOS;33380;;;Crédit Agricole - Aquitaine
Agence bancaire BISCARROSSE;82, Rue Jules Ferry, 40600 BISCARROSSE;40600;;;Crédit Agricole - Aquitaine
Agence bancaire BLANQUEFORT;8, Place De L'Eglise, 33290 BLANQUEFORT;33290;;;Crédit Agricole - Aquitaine
Relais CA RELAIS CA (AUBERGE DES MOULINS) - Blanquefort-sur-Briolance;LE BOURG, 47500 Blanquefort-sur-Briolance;47500;44,60013156462269;0,9702515602111816;Crédit Agricole - Aquitaine
Relais CA RELAIS CA (PROXI) - Blasimon;8 Rue Eugène Lescourt, 33540 Blasimon;33540;44,7490533;-0,0743665;Crédit Agricole - Aquitaine
Agence bancaire BLAYE;12, Avenue Paul Tardy, 33390 BLAYE;33390;;;Crédit Agricole - Aquitaine
Distributeur automatique de billets BOE CARREFOUR (distributeur);ZAC AGEN SUD BOUTIQUE, 47550 BOE;47550;44,17706548663244;0,6914716162817528;Crédit Agricole - Aquitaine
Distributeur automatique de billets BOE GEANT CASINO (distributeur);ROUTE D'AUCH, 47550 BOE;47550;44,1776846207652;0,6334084081052489;Crédit Agricole - Aquitaine
Agence bancaire BON ENCONTRE;Avenue Du Docteur Nogues, 47240 BON ENCONTRE;47240;;;Crédit Agricole - Aquitaine
Agence bancaire BANQUE PRIVEE BOURSE MARITIME;1, Place Laine, 33000 BORDEAUX;33000;44,8484382;-0,5732507;Crédit Agricole - Aquitaine
Agence bancaire BORDEAUX BASSINS A FLOT;62 Rue Lucien Faure, 33300 BORDEAUX;33300;44,86244929999999;-0,5567727999999761;Crédit Agricole - Aquitaine
Agence bancaire BORDEAUX BASTIDE;133, Avenue Thiers, 33100 BORDEAUX;33100;44,844586;-0,552401;Crédit Agricole - Aquitaine
Agence bancaire BORDEAUX BELCIER;5 Rue des Gamins, 33800 BORDEAUX;33800;44,8215862;-0,5534162;Crédit Agricole - Aquitaine
Agence bancaire BORDEAUX CAUDERAN;150, Avenue Louis Barthou, 33200 BORDEAUX;33200;44,8524038;-0,6170068;Crédit Agricole - Aquitaine
Agence bancaire BORDEAUX GRAND THEATRE;8, Cours De L'Intendance, 33000 BORDEAUX;33000;44,842041;-0,575415;Crédit Agricole - Aquitaine
Agence bancaire BORDEAUX JUDAIQUE-MONDESIR;289, Avenue D'Arès, 33200 BORDEAUX;33200;44,838443;-0,614791;Crédit Agricole - Aquitaine
Agence bancaire BORDEAUX NANSOUTY;259, Cours De La Somme, 33800 BORDEAUX;33800;44,820434;-0,5725;Crédit Agricole - Aquitaine
Agence bancaire BORDEAUX PALAIS DE JUSTICE;56, Cours D' Albret, 33000 BORDEAUX;33000;44,836529;-0,580916;Crédit Agricole - Aquitaine
Agence bancaire BORDEAUX PAUL DOUMER;19, Place Paul Doumer, 33000 BORDEAUX;33000;44,852251;-0,573629;Crédit Agricole - Aquitaine
Agence bancaire BORDEAUX SAINT-AUGUSTIN;15, Place De L'Eglise St Augustin, 33000 BORDEAUX;33000;44,832482;-0,611023;Crédit Agricole - Aquitaine
Agence bancaire BORDEAUX SAINT-GENES;2, Rue St Genès, 33000 BORDEAUX;33000;44,830883;-0,578297;Crédit Agricole - Aquitaine
Agence bancaire BORDEAUX VERDUN;11, Cours De Verdun, 33000 BORDEAUX;33000;44,846099;-0,577502;Crédit Agricole - Aquitaine
Agence bancaire BORDEAUX VICTOIRE;25, Place De La Victoire, 33000 BORDEAUX;33000;44,831345;-0,573559;Crédit Agricole - Aquitaine
Agence bancaire BORDEAUX VICTOR HUGO;135, Cours Victor Hugo, 33000 BORDEAUX;33000;44,835059;-0,574375;Crédit Agricole - Aquitaine
Agence bancaire BORDEAUX WILSON;43 Rue de Bel Orme, 33000 BORDEAUX;33000;44,8489981;-0,5949734999999999;Crédit Agricole - Aquitaine
Agence bancaire Centre de Relation Client Grand Bordeaux;353 Boulevard du Président Wilson, 33200 Bordeaux;33200;44,8518751;-0,5952569999999999;Crédit Agricole - Aquitaine
Agence bancaire Espace Banque Privée Grand Bordeaux;353 Boulevard du Président Wilson, 33200 Bordeaux;33200;44,8518751;-0,5952569999999999;Crédit Agricole - Aquitaine
Agence bancaire Espace Professionnel Grand Bordeaux;353 Boulevard du Président Wilson, 33200 Bordeaux;33200;44,8518751;-0,5952569999999999;Crédit Agricole - Aquitaine
Agence bancaire Espace des Grandes Entreprises du Vin Rive Gauche;106 Quai de Bacalan, 33300 BORDEAUX;33300;44,8613168;-0,5526462000000265;Crédit Agricole - Aquitaine
Relais CA RELAIS CA (BAR TABAC PAS A PAS) - Bordeaux;248 Rue de Bègles, 33800 Bordeaux;33800;44,8188697;-0,5660468000000001;Crédit Agricole - Aquitaine
Relais CA RELAIS CA (LA CHOCOLATINE) - Bordeaux;195 Rue Georges Bonnac, 33000 Bordeaux;33000;44,8384002;-0,5906747;Crédit Agricole - Aquitaine
Relais CA RELAIS CA (LE PETIT CASINO DACLODIS) - Bordeaux;78 Rue Lagrange, 33000 Bordeaux;33000;44,8522359;-0,581021;Crédit Agricole - Aquitaine
Relais CA RELAIS CA (LE PETIT MARCHE D'ORNANO) - Bordeaux;306 Rue d'Ornano, 33000 Bordeaux;33000;44,8314902;-0,5978373;Crédit Agricole - Aquitaine
Relais CA RELAIS CA (LE TABAC DES CAPUS) - Bordeaux;5 Place des Capucins, 33800 Bordeaux;33800;44,8309804;-0,5673060999999999;Crédit Agricole - Aquitaine
Relais CA RELAIS CA (TABAC - PRESSE) - Bordeaux;23 Quai de la Monnaie, 33800 Bordeaux;33800;44,8334701;-0,5624079;Crédit Agricole - Aquitaine
Relais CA RELAIS CA (TABAC LE VOLTIGEUR) - Bordeaux;100 Avenue de Labarde, 33300 Bordeaux;33300;44,8798891;-0,5522462;Crédit Agricole - Aquitaine
Relais CA RELAIS CA (TABAC PRESSE DU PARC BORDELAIS) - Bordeaux;76 Avenue Charles de Gaulle, 33200 Bordeaux;33200;44,8493556;-0,6013052;Crédit Agricole - Aquitaine
Relais CA RELAIS CA (TABAC PRESSE LE NEW YORK) - Bordeaux;157 Rue Achard, 33300 Bordeaux;33300;44,8710082;-0,5475078;Crédit Agricole - Aquitaine
Agence bancaire Siège Social CA Aquitaine;106 Quai de Bacalan, 33300 BORDEAUX;33300;44,8613168;-0,5526462000000265;Crédit Agricole - Aquitaine
Agence bancaire BOUGLON;Le Clavier, 47250 BOUGLON;47250;;;Crédit Agricole - Aquitaine
Relais CA RELAIS CA (LE PETIT MARSAN) - Bougue;116 Route de Mont de Marsan, 40090 Bougue;40090;43,88931789999999;-0,4033655;Crédit Agricole - Aquitaine
Relais CA RELAIS CA (TABAC DES HALLES) - Bourg;Place de la Libération, 33710 Bourg;33710;45,0393565;-0,5588253;Crédit Agricole - Aquitaine
Agence bancaire BOURG SUR GIRONDE;Allées François Dalleau, 33710 BOURG SUR GIRONDE;33710;;;Crédit Agricole - Aquitaine
Relais CA RELAIS CA (STATION SERVICE LE RELAIS DU PESQUIER) - Bourran;LD PESQUIER, 47320 Bourran;47320;44,33241322755661;0,3811526298522949;Crédit Agricole - Aquitaine
Relais CA RELAIS CA (EPICERIE DU ROND POINT) - Brach;25 Route de Carcans, 33480 Brach;33480;45,04102210000001;-0,9394882;Crédit Agricole - Aquitaine
Agence bancaire BRANNE;15, Rue Fort Bayard, 33420 BRANNE;33420;;;Crédit Agricole - Aquitaine
Relais CA RELAIS CA (PROXI BRAUD ET ST LOUIS) - Braud-et-Saint-Louis;13 Avenue du Général de Gaulle, 33820 Braud-et-Saint-Louis;33820;45,2482552;-0,6269547;Crédit Agricole - Aquitaine
Relais CA RELAIS CA (LE FOURNIL DE BRAX) - BRAX;Centre commercial du Verger, 47310 BRAX;47310;44,2034228;0,5445549;Crédit Agricole - Aquitaine
Relais CA RELAIS CA (BOUCHERIE DUCASSE) - Brocas;463 Rue des Forgerons, 40420 Brocas;40420;44,0436537;-0,5356863;Crédit Agricole - Aquitaine
Relais CA RELAIS CA (LE RELAIS DES AUVIGNONS) - Bruch;Allée de l'Albret, 47130 Bruch;47130;44,2046078;0,4104817;Crédit Agricole - Aquitaine
Agence bancaire BRUGES;6, Avenue D' Aquitaine, 33520 BRUGES;33520;;;Crédit Agricole - Aquitaine
Distributeur automatique de billets BUZET (distributeur);RUE GAMBETTA, 47160 BUZET SUR BAISE;47160;44,258057;0,298135;Crédit Agricole - Aquitaine
Relais CA RELAIS CA (LE COURLIS) - Cadaujac;411 Avenue du Général de Gaulle, 33140 Cadaujac;33140;44,7525146;-0,5320116;Crédit Agricole - Aquitaine
Agence bancaire CADILLAC-SUR-GARONNE;78, Route De Branne, 33410 Cadillac-sur-Garonne;33410;;;Crédit Agricole - Aquitaine
Relais CA RELAIS CA - Cagnotte;21 Route de Dax, 40300 Cagnotte;40300;43,5955193;-1,0687344;Crédit Agricole - Aquitaine
Relais CA RELAIS CA (LA CAROTTE CALONGEAISE) - Calonges;70 Route de damazan, 47430 Calonges;47430;44,373327;0,240702;Crédit Agricole - Aquitaine
Relais CA RELAIS CA (CAFE DE LA POSTE) - Cambes;1 Route de Langoiran, 33880 Cambes;33880;44,76814520000001;-0,3594985;Crédit Agricole - Aquitaine
Relais CA RELAIS CA (TABAC PRESSE DE CAMBLANES) - Camblanes-et-Meynac;5 Place de Verdun, 33360 Camblanes-et-Meynac;33360;44,76511711802456;-0,4882907867431641;Crédit Agricole - Aquitaine
Relais CA RELAIS CA (LA BAGUETTE CAMPAGNE) - Campagne;50 Route de Saint-Martin d'Oney, 40090 Campagne;40090;43,86575999999999;-0,639759;Crédit Agricole - Aquitaine
Relais CA RELAIS CA (L ECHASSIER) - Campet-et-Lamolère;40 Avenue du Marsan, 40090 Campet-et-Lamolère;40090;43,91773500000001;-0,606016;Crédit Agricole - Aquitaine
Agence bancaire CANCON;Route De Paris, 47290 CANCON;47290;;;Crédit Agricole - Aquitaine
Relais CA RELAIS CA (TABAC PRESSE LOTO CAFE LE COLIBRI) - Canéjan;9 Chemin de Barbicadge, 33610 Canéjan;33610;44,7638532;-0,6542952;Crédit Agricole - Aquitaine
Agence bancaire CAPBRETON;12 Rue du Général de Gaulle, 40130 Capbreton;40130;;;Crédit Agricole - Aquitaine
Relais CA RELAIS CA (LE BOUCHER DES LANDES) - Captieux;Place de l'Église, 33840 Captieux;33840;44,2919429;-0,2609255;Crédit Agricole - Aquitaine
Agence bancaire CARBON BLANC;28, Rue Austin Conte, 33560 CARBON BLANC;33560;;;Crédit Agricole - Aquitaine
Relais CA RELAIS CA (LA TABATIERE FLEURIE) - Carcans;16 Route de Bordeaux, 33121 Carcans;33121;45,07862069999999;-1,0429985;Crédit Agricole - Aquitaine
Relais CA RELAIS CA (SP TIREL VIVAL) - Carcans;3 Place Marcel Prévôt, 33121 Carcans;33121;45,0831306;-1,1874876;Crédit Agricole - Aquitaine
Relais CA RELAIS CA (COMMERCE TABAC - PRESSE) - Carignan-de-Bordeaux;48 Rue de l'Artigotte, 33360 Carignan-de-Bordeaux;33360;44,81118730000001;-0,4770498;Crédit Agricole - Aquitaine
Relais CA RELAIS CA (PASCAL BERNAUDEAU) - Carsac-Aillac;1865 Route de Malevergne, 24200 Carsac-Aillac;24200;44,864443;1,280075;Crédit Agricole - Aquitaine
Relais CA RELAIS CA (PROXI SERVICE) - Cartelègue;1 Place Henri Renaud, 33390 Cartelègue;33390;45,18484993987994;-0,5802154541015625;Crédit Agricole - Aquitaine
Relais CA RELAIS CA (MAË PIZZA) - Cassen;87 Route de Laouga, 40380 Cassen;40380;43,7609188;-0,859439;Crédit Agricole - Aquitaine
Relais CA RELAIS CA (LES RIVES DU LOT) - Casseneuil;1 Place Saint-Jean, 47440 Casseneuil;47440;44,4435766;0,6203983;Crédit Agricole - Aquitaine
Distributeur automatique de billets CASTELCULIER (distributeur);LE BOURG, 47240 CASTELCULIER;47240;44,174997;0,690362;Crédit Agricole - Aquitaine
Agence bancaire CASTELJALOUX;Place De L'Eglise, 47700 CASTELJALOUX;47700;;;Crédit Agricole - Aquitaine
Agence bancaire CASTELMORON;20 Rue Du 11 Novembre 1918, 47260 CASTELMORON;47260;;;Crédit Agricole - Aquitaine
Relais CA RELAIS CA (EPICERIE DU LOT) - Castelmoron-sur-Lot;4 Rue Gabriel Bonnet, 47260 Castelmoron-sur-Lot;47260;44,3970565;0,4950301999999999;Crédit Agricole - Aquitaine
Relais CA RELAIS CA (LA PRESSE DE LA HALLE) - Castelmoron-sur-Lot;14 Rue du 11 Novembre 1918, 47260 Castelmoron-sur-Lot;47260;44,3976474;0,4952541;Crédit Agricole - Aquitaine
Agence bancaire CASTELNAU DE MEDOC;15, Place Aristide Briand, 33480 CASTELNAU;33480;;;Crédit Agricole - Aquitaine
Relais CA RELAIS CA (VIVAL) - Castelnau-Chalosse;30 Place de la Chalosse, 40360 Castelnau-Chalosse;40360;43,6653677;-0,8448466;Crédit Agricole - Aquitaine
Relais CA RELAIS CA (LE PASCALOUP) - Castelnau-sur-Gupie;Chemin du Bourg, 47180 Castelnau-sur-Gupie;47180;44,55872;0,1331389;Crédit Agricole - Aquitaine
Relais CA RELAIS CA (VIVAL) - Castelnaud-de-Gratecambe;40 Rue de la Forge, 47290 Castelnaud-de-Gratecambe;47290;44,49704879999999;0,6685667;Crédit Agricole - Aquitaine
Agence bancaire CASTETS;266 Rue Sainte-Hélène, 40260 Castets;40260;;;Crédit Agricole - Aquitaine
Relais CA RELAIS CA (VIVAL) - Castets et Castillon;29 Route de Langon, 33210 Castets et Castillon;33210;44,5600337;-0,157673;Crédit Agricole - Aquitaine
Agence bancaire CASTILLON LA BATAILLE;46, Rue Victor Hugo, 33350 CASTILLON LA BATAILLE;33350;;;Crédit Agricole - Aquitaine
Agence bancaire CASTILLONNES;Place Jasmin, 47330 CASTILLONNES;47330;;;Crédit Agricole - Aquitaine
Relais CA RELAIS CA (SARL MAISON CHENU) - Caudecoste;Place Raoul Rogale, 47220 Caudecoste;47220;44,1154214;0,737374;Crédit Agricole - Aquitaine
Relais CA RELAIS CA (LES CHEMINS DU PAIN) - Cauneille;50 Chemin de la Briqueterie, 40300 Cauneille;40300;43,5478429;-1,0532828;Crédit Agricole - Aquitaine
Agence bancaire CAVIGNAC;65, Avenue De Paris, 33620 CAVIGNAC;33620;45,100209;-0,389574;Crédit Agricole - Aquitaine
Agence bancaire Espace Pro & Banque Privée Hauts de Gironde;65, Avenue De Paris, 33620 CAVIGNAC;33620;45,1003247;-0,3918332;Crédit Agricole - Aquitaine
Relais CA RELAIS CA (L'INATTENDU) - Cavignac;98 Avenue de Paris, 33620 Cavignac;33620;45,1031167;-0,3875857;Crédit Agricole - Aquitaine
Agence bancaire CAZAUBON (Point Conseil);25, RUE DE GASCOGNE, 32150 CAZAUBON;32150;;;Crédit Agricole - Aquitaine
Relais CA RELAIS CA (Le Relais de l'Impératrice) - Cazères-sur-l'Adour;6 Place de l'Ancienne Bastide, 40270 Cazères-sur-l'Adour;40270;43,7607827;-0,3164877;Crédit Agricole - Aquitaine
Agence bancaire CENON;26 , Avenue René Cassagne, 33150 CENON;33150;;;Crédit Agricole - Aquitaine
Relais CA RELAIS CA (CHEZ THOMAS) - Cercoux;7 D145, 17270 Cercoux;17270;45,1294952;-0,2068377;Crédit Agricole - Aquitaine
Agence bancaire CESTAS;9 Chemin des Boutiques-Centre Commercial SuperU, 33610 CESTAS;33610;44,739815;-0,679837;Crédit Agricole - Aquitaine
Agence bancaire CESTAS GAZINET;8 - 10 Avenue De Verdun, 33610 CESTAS;33610;44,779796;-0,690728;Crédit Agricole - Aquitaine
Relais CA RELAIS CA (COURAGE ET CO) - Cestas;59 Avenue Saint-Jacques de Compostelle, 33610 Cestas;33610;44,7380629;-0,6571937999999999;Crédit Agricole - Aquitaine
Relais CA RELAIS CA (FERMIERS TOQUES) - Cissac-Médoc;Chemin de Beauchêne, 33250 Cissac-Médoc;33250;45,22010024131408;-0,8695721626281738;Crédit Agricole - Aquitaine
Relais CA RELAIS CA (PROXI DUQUESNE) - Cissac-Médoc;5 Rue de l'Église, 33250 Cissac-Médoc;33250;45,2266531;-0,8309378000000001;Crédit Agricole - Aquitaine
Agence bancaire CLAIRAC;9, Rue Jean Jaurès, 47320 CLAIRAC;47320;;;Crédit Agricole - Aquitaine
Relais CA RELAIS CA (LE FOURNIL DU COUCOU) - Cocumont;12 Place de l'Église, 47250 Cocumont;47250;44,44726989999999;0,0260547;Crédit Agricole - Aquitaine
Distributeur automatique de billets COLAYRAC (distributeur);643 AVENUE DE LA LIBERATION, 47450 COLAYRAC;47450;44,21965308383034;0,552572681963505;Crédit Agricole - Aquitaine
Relais CA RELAIS CA (STATION SERVICE FERLAND) - Colayrac-Saint-Cirq;Rte De Bordeaux, 47450 Colayrac-Saint-Cirq;47450;44,2213073;0,5568936;Crédit Agricole - Aquitaine
Relais CA RELAIS CA (BAR TABAC LE PETIT TROQUET) - Couthures-sur-Garonne;2 Rue Sablée, 47180 Couthures-sur-Garonne;47180;44,5137191;0,07838149999999999;Crédit Agricole - Aquitaine
Agence bancaire COUTRAS;33, Rue Victor Hugo, 33230 COUTRAS;33230;;;Crédit Agricole - Aquitaine
Agence bancaire CREON;4, Route De Libourne, 33670 CREON;33670;;;Crédit Agricole - Aquitaine
Relais CA RELAIS CA (BOULANGERIE PATISSERIEPATRICE LARTIGUE) - Créon-d'Armagnac;AU BOURG, 40240 Créon-d'Armagnac;40240;43,99363266787027;-0,1027178764343262;Crédit Agricole - Aquitaine
Relais CA RELAIS CA (LABONNE SNC) - Cubnezais;20 Route Napoléon, 33620 Cubnezais;33620;45,0621838;-0,399664;Crédit Agricole - Aquitaine
Relais CA RELAIS CA (BOULANGERIE LA MIE DE VAUBAN) - Cussac-Fort-Médoc;2 Place du Général de Gaulle, 33460 Cussac-Fort-Médoc;33460;45,11282809999999;-0,7303113999999999;Crédit Agricole - Aquitaine
Agence bancaire DAMAZAN;Boulevard Du Midi, 47160 DAMAZAN;47160;;;Crédit Agricole - Aquitaine
Relais CA RELAIS CA (PROXI PATRICIA GALET) - Dausse;Avenue André Testut, 47140 Dausse;47140;44,3840028;0,8909262;Crédit Agricole - Aquitaine
Distributeur automatique de billets DAX CARREFOUR (distributeur);BOULEVARD DES SPORTS, 40100 DAX;40100;43,71146387780652;-1,045960833072366;Crédit Agricole - Aquitaine
Agence bancaire DAX CENTRE;9, Avenue Milliès Lacroix, 40100 DAX;40100;43,71068;-1,056807;Crédit Agricole - Aquitaine
Agence bancaire DAX DU MANOIR;Boulevard Yves Du Manoir, 40100 DAX;40100;43,713567;-1,048516;Crédit Agricole - Aquitaine
Agence bancaire Espace Pro & Banque Privée Pays Dacquois;40 rue Cazade, 40100 DAX;40100;43,7093772;-1,0548132;Crédit Agricole - Aquitaine
Relais CA RELAIS CA (BOULANGERIE DE L'OCEAN) - Dax;30 Rue Joseph de Laurens, 40100 Dax;40100;43,6949414;-1,0514686;Crédit Agricole - Aquitaine
Relais CA RELAIS CA (LA GRANGE) - Dieulivol;11 Pistolet, 33580 Dieulivol;33580;44,67555777267793;0,1104962825775146;Crédit Agricole - Aquitaine
Relais CA RELAIS CA (SALON DE COIFFURE ET BOUTIQUE KARINE) - Doazit;48 Place Poste, 40700 Doazit;40700;43,69011755991468;-0,6446957588195801;Crédit Agricole - Aquitaine
Relais CA RELAIS CA (BOUCHERIE DU PAYS GABAYE) - Donnezac;17 Arsonneau, 33860 Donnezac;33860;45,2513754;-0,4606007;Crédit Agricole - Aquitaine
Agence bancaire DURAS;2, Rue Des Droits De L'Homme, 47120 DURAS;47120;;;Crédit Agricole - Aquitaine
Relais CA RELAIS CA (LES 4 VALLEE) - Escource;12 Place de la Mairie, 40210 Escource;40210;44,16448399999999;-1,034146;Crédit Agricole - Aquitaine
Relais CA RELAIS CA (TABAC LE VIEUX VILLAGE) - Estillac;15 Chemin d'Esclavissat, 47310 Estillac;47310;44,1656522;0,5897467;Crédit Agricole - Aquitaine
Distributeur automatique de billets EUGENIE LES BAINS (distributeur);OFFICE DE TOURISME 147 VIEILLE VILLE, 40320 EUGENIE LES BAINS;40320;43,696546;-0,377325;Crédit Agricole - Aquitaine
Relais CA RELAIS CA (SAILLAN CASSIER VERONIQUE) - Eynesse;Lieu Dit la Bastidote, 33220 Eynesse;33220;44,824906;0,154051;Crédit Agricole - Aquitaine
Relais CA RELAIS CA (MAISON LAURENT) - Eyrans;Route de Royan, 33390 Eyrans;33390;45,19002961779796;-0,601726770401001;Crédit Agricole - Aquitaine
Agence bancaire LE VIGEAN;29, Avenue Du Médoc, 33320 EYSINES;33320;;;Crédit Agricole - Aquitaine
Agence bancaire FARGUES SAINT-HILAIRE;70, Avenue De L'Entre Deux Mers, 33370 FARGUES SAINT-HILAIRE;33370;;;Crédit Agricole - Aquitaine
Relais CA RELAIS CA (SUPERETTE JOCELYNE GASCOIN) - Fargues-sur-Ourbise;AU BOURG, 47700 Fargues-sur-Ourbise;47700;44,241014;0,152088;Crédit Agricole - Aquitaine
Relais CA RELAI CA (CAFE DE L'UNION) - Fauguerolles;25 Avenue Arago, 47400 Fauguerolles;47400;44,441122;0,248432;Crédit Agricole - Aquitaine
Relais CA RELAIS CA (MULTISERVICES HYPACH) - Feugarolles;AU BOURG, 47230 Feugarolles;47230;44,223097;0,347584;Crédit Agricole - Aquitaine
Agence bancaire FLOIRAC;13-15 Rue Jules Guesde, 33270 FLOIRAC;33270;;;Crédit Agricole - Aquitaine
Agence bancaire FOULAYRONNES;Rue Marcel Pagnol, 47510 FOULAYRONNES;47510;;;Crédit Agricole - Aquitaine
Agence bancaire FRANCESCAS;7, Rue Porte Du Puits, 47600 FRANCESCAS;47600;;;Crédit Agricole - Aquitaine
Relais CA RELAIS CA (SUPERETTE GERARD BAY) - Frégimont;LE BOURG, 47360 Frégimont;47360;44,277287;0,458277;Crédit Agricole - Aquitaine
Relais CA RELAIS CA (TABAC PRESSE LOTO) - Fronsac;25 Rue du Général de Gaulle, 33126 Fronsac;33126;44,9239448;-0,272229;Crédit Agricole - Aquitaine
Relais CA RELAIS CA (L'ARCHANGE) - Frontenac;4 Place du 19 Mars 1962, 33760 Frontenac;33760;44,73798499999999;-0,162695;Crédit Agricole - Aquitaine
Relais CA RELAIS CA (EDOUIDI ABDELJALIL) - Fumel;9 Rue de la République, 47500 Fumel;47500;44,4979934;0,9686783000000001;Crédit Agricole - Aquitaine
Agence bancaire GABARRET;Rue Des Fossés, 40310 GABARRET;40310;;;Crédit Agricole - Aquitaine
Relais CA RELAIS CA (TABAC PRESSE LE GAILLAN) - Gaillan-en-Médoc;7 Route de Lesparre, 33340 Gaillan-en-Médoc;33340;45,3205099;-0,9555456;Crédit Agricole - Aquitaine
Relais CA RELAIS CA (AU COEUR DES LANDES) - Gaillères;26 Route du Marsan, 40090 Gaillères;40090;43,9411832;-0,3726172;Crédit Agricole - Aquitaine
Agence bancaire GALGON;2, Place St Seurin, 33133 GALGON;33133;;;Crédit Agricole - Aquitaine
Relais CA RELAIS CA (BOULANGERIE LESPIAUC) - Gamarde-les-Bains;423 Rue Abbé Bordes, 40380 Gamarde-les-Bains;40380;43,7326786;-0,8740863999999999;Crédit Agricole - Aquitaine
Relais CA RELAIS CA (BOULANGERIE-PATISSERIE) - Garein;bourg, 40420 Garein;40420;44,04684333330144;-0,6524661183357239;Crédit Agricole - Aquitaine
Relais CA RELAIS CA (CAMPING LES PRES VERT) - Gastes;Avenue du Lac, 40160 Gastes;40160;44,327695;-1,147012;Crédit Agricole - Aquitaine
Relais CA RELAIS CA (SUPERETTE DES GRANDS LACS) - Gastes;73 Place des Commerces, 40160 Gastes;40160;44,3263217;-1,1472412;Crédit Agricole - Aquitaine
Agence bancaire GEAUNE;Place De l'Hôtel De Ville, 40320 GEAUNE;40320;;;Crédit Agricole - Aquitaine
Relais CA RELAIS CA (L'OUSTAOU) - Geloux;25 Route du Rond, 40090 Geloux;40090;43,9810603;-0,6384419;Crédit Agricole - Aquitaine
Relais CA RELAIS CA (BOUCHERIE CASTEGNARO) - Gironde-sur-Dropt;2 Rue Pierre Gemin, 33190 Gironde-sur-Dropt;33190;44,5841141;-0,09083079999999999;Crédit Agricole - Aquitaine
Relais CA RELAIS CA (TABAC KNOBELSPIESS) - Gontaud-de-Nogaret;10 Rue de Bantzenheim, 47400 Gontaud-de-Nogaret;47400;44,457011;0,2950449;Crédit Agricole - Aquitaine
Agence bancaire GORNAC;Lamothe 5,Route De Cadillac, 33540 GORNAC;33540;;;Crédit Agricole - Aquitaine
Agence bancaire Espace Banque Privée Bordeaux Sud;2 Chemin du Solarium, 33170 Gradignan;33170;44,7736663;-0,6347001;Crédit Agricole - Aquitaine
Agence bancaire Espace Pro Bordeaux Sud;2 Chemin du Solarium, 33170 Gradignan;33170;44,7736663;-0,6347001;Crédit Agricole - Aquitaine
Agence bancaire GRADIGNAN;139, Cours Du Général De Gaulle, 33170 GRADIGNAN;33170;44,774121;-0,613145;Crédit Agricole - Aquitaine
Relais CA RELAIS CA (SNC LACLOTTE) - Gradignan;58 Cours du Général de Gaulle, 33170 Gradignan;33170;44,78008070000001;-0,6086098;Crédit Agricole - Aquitaine
Agence bancaire GRENADE SUR L ADOUR;Place Des Tilleuls, 40270 GRENADE SUR L'ADOUR;40270;;;Crédit Agricole - Aquitaine
Relais CA RELAIS CA (TABAC PRESSE DIDIER PETIOT) - Grignols;14 Place du Marché, 33690 Grignols;33690;44,3875818;-0,0437017;Crédit Agricole - Aquitaine
Relais CA RELAIS CA (SARL VCLD) - Guérin;LE BOURG, 47250 Guérin;47250;44,4083396806919;0,07042407989501953;Crédit Agricole - Aquitaine
Agence bancaire GUJAN MESTRAS;63, Cours De La République, 33470 GUJAN MESTRAS;33470;;;Crédit Agricole - Aquitaine
Agence bancaire HABAS;Boulevard Des Pyrénées, 40290 HABAS;40290;;;Crédit Agricole - Aquitaine
Agence bancaire HAGETMAU (agence);3, Place De La République, 40700 HAGETMAU;40700;;;Crédit Agricole - Aquitaine
Relais CA RELAIS CA (L'EMBUSCADE) - Haut-Mauco;AU BOURG, 40280 Haut-Mauco;40280;43,825243;-0,5538879999999999;Crédit Agricole - Aquitaine
Relais CA RELAIS CA (VIVAL MARIA CASTETS) - Heugas;31 Route de Bénesse, 40180 Heugas;40180;43,64450720345837;-1,078140735626221;Crédit Agricole - Aquitaine
Agence bancaire HINX (point conseil);33 rte Dax, 40180 HINX;40180;;;Crédit Agricole - Aquitaine
Agence bancaire HOSSEGOR;Rue De La Paix, 40150 HOSSEGOR;40150;;;Crédit Agricole - Aquitaine
Relais CA RELAIS CA (AS DE TREFLE) - Hostens;19 Route d'Arcachon, 33125 Hostens;33125;44,4932057;-0,6413563;Crédit Agricole - Aquitaine
Relais CA RELAIS CA (TABAC PRESSE L'AS DE TREFLE) - Hostens;19 Route d'Arcachon, 33125 Hostens;33125;44,4932057;-0,6413563;Crédit Agricole - Aquitaine
Relais CA RELAIS CA (LYDIE BERNADET) - Houeillès;Avenue Adrien Lamothe, 47420 Houeillès;47420;44,19527451123217;0,0331413745880127;Crédit Agricole - Aquitaine
Relais CA RELAI CA (SAS ARDILLA AND CO) - Hourtin;15 Avenue de la Marine, 33990 Hourtin;33990;45,2014665;-1,1215466;Crédit Agricole - Aquitaine
Relais CA RELAI CA (SNC LE COMPTOIR DU MARAIS) - Hourtin;15 Avenue de la Marine, 33990 Hourtin;33990;45,2014665;-1,1215466;Crédit Agricole - Aquitaine
Relais CA RELAIS CA (LA BENARDERIE) - Hourtin;1260 Louley, 33990 Hourtin;33990;45,22110534451797;-1,080522537231445;Crédit Agricole - Aquitaine
Relais CA RELAIS CA (LES SAVEURS DU MEDOC) - Hourtin;12 Avenue du Lac, 33990 Hourtin;33990;45,1853354;-1,059734;Crédit Agricole - Aquitaine
Relais CA RELAIS CA (CHEZ LULU) - Hure;30 Le Bourg, 33190 Hure;33190;44,5454431;5,3E-4;Crédit Agricole - Aquitaine
Relais CA RELAIS CA (AU RENDEZ-VOUS LILAIS BY PEGGY) - Isle-Saint-Georges;3 Route de Saint-Médard, 33640 Isle-Saint-Georges;33640;44,72452460707409;-0,4721546173095703;Crédit Agricole - Aquitaine
Relais CA RELAI CA (LE CRUCIBLANCHAIS) - La Croix-Blanche;956 Avenue des Pyrénees, 47340 La Croix-Blanche;47340;44,2945949;0,6923364;Crédit Agricole - Aquitaine
Relais CA RELAIS CA (TABAC DE LA LANDE) - La Lande-de-Fronsac;7 Farideuil, 33240 La Lande-de-Fronsac;33240;44,974281;-0,3868886;Crédit Agricole - Aquitaine
Agence bancaire LA REOLE;18 Rue Du Rempart, 33190 LA REOLE;33190;;;Crédit Agricole - Aquitaine
Relais CA RELAIS CA (CHEZ NADIA) - La Sauve;43 Rue Saint Jean, 33670 La Sauve;33670;44,7701152;-0,3103547;Crédit Agricole - Aquitaine
Relais CA RELAIS CA (SUPERETTE CORINNE MERLE) - La Sauvetat-de-Savères;AU BOURG, 47270 La Sauvetat-de-Savères;47270;44,226437;0,7984599;Crédit Agricole - Aquitaine
Relais CA RELAIS CA (LES FEES GOURMANDISES) - La Sauvetat-du-Dropt;34 Avenue Grammont, 47800 La Sauvetat-du-Dropt;47800;44,64732641592323;0,3378134965896606;Crédit Agricole - Aquitaine
Relais CA RELAIS CA (LE PETIT VALADIER) - La Sauvetat-sur-Lède;16 Route du 31 Janvier 1852, 47150 La Sauvetat-sur-Lède;47150;44,4694367;0,7300981999999999;Crédit Agricole - Aquitaine
Agence bancaire Espace Pro et Banque Privée du Bassin;Immeuble Le Roof 960,Av De L'Europe, 33260 LA TESTE;33260;44,6162901;-1,117433;Crédit Agricole - Aquitaine
Agence bancaire LA TESTE;Place Jean Hameau, 33260 LA TESTE;33260;44,632742;-1,145338;Crédit Agricole - Aquitaine
Agence bancaire Labastide d'armagnac (Point conseil);Le Bourg, 40240 Labastide d'armagnac;40240;;;Crédit Agricole - Aquitaine
Relais CA RELAIS CA (ALIMENTATION TABAC PRESSE LOUVIN - Labatut;Route de Habas, 40300 Labatut;40300;43,563696;-0,964993;Crédit Agricole - Aquitaine
Agence bancaire LABENNE;Résidence Thalassa NII - RN10, 40530 LABENNE;40530;;;Crédit Agricole - Aquitaine
Agence bancaire LABOUHEYRE;79 , Rue François Albor, 40210 LABOUHEYRE;40210;;;Crédit Agricole - Aquitaine
Agence bancaire LA BREDE;9, Rue De Latapie, 33650 LABREDE;33650;;;Crédit Agricole - Aquitaine
Agence bancaire LABRIT (Point Conseil);39 rte Mont de Marsan, 40420 LABRIT;40420;;;Crédit Agricole - Aquitaine
Agence bancaire LACANAU VILLE;Avenue De La Côte d'Argent, 33680 LACANAU;33680;;;Crédit Agricole - Aquitaine
Relais CA RELAIS CA (BOULANGERIE BARDIN) - Lafitte-sur-Lot;24 Rue PRINCIPALE, 47320 Lafitte-sur-Lot;47320;44,3522403;0,4243428;Crédit Agricole - Aquitaine
Relais CA RELAIS CA (TABAC PRESSE LE CHURCHILL) - Lafox;au peintre, Lieu dit, 47240 Lafox;47240;44,17019791696836;0,6968282920913582;Crédit Agricole - Aquitaine
Relais CA RELAIS CA (BOULANGERIE LA GUIRANDE) - Lagorce;LA GUIRANDE, 33230 Lagorce;33230;45,070304;-0,138679;Crédit Agricole - Aquitaine
Relais CA RELAIS CA (COMMERCE) - Lagorce;4 Bel Air, 33230 Lagorce;33230;45,063271;-0,178378;Crédit Agricole - Aquitaine
Relais CA RELAIS CA (EPICERIE INACIO) - Laluque;64 Rue du Stade, 40465 Laluque;40465;43,851873;-0,994099;Crédit Agricole - Aquitaine
Relais CA RELAIS CA (AUX MILY et UN ONGLES) - Lamarque;85 Rue Principale, 33460 Lamarque;33460;45,0960347;-0,7198736;Crédit Agricole - Aquitaine
Relais CA RELAIS CA (SUPERETTE MULTISERVICES) - Lamontjoie;AU BOURG, 47310 Lamontjoie;47310;44,07571;0,521162;Crédit Agricole - Aquitaine
Relais CA RELAIS CA (FERBUS BRUNO) - Lamothe-Landerron;69 Impasse des Bertrands, 33190 Lamothe-Landerron;33190;44,559507;0,0587666;Crédit Agricole - Aquitaine
Relais CA RELAIS CA (VIVAL) - Lamothe-Landerron;39B Chemin des Chailloux, 33190 Lamothe-Landerron;33190;44,559105;0,0617127;Crédit Agricole - Aquitaine
Agence bancaire LANGOIRAN;Lieu Dit Pont De Rose Rte De Créon, 33550 LANGOIRAN;33550;;;Crédit Agricole - Aquitaine
Agence bancaire Espace Pro & Banque Privée Graves Entre Deux Mers;Bat Commercial MOLEON PARK1 MOLEON ET PETITEAU, 33210 LANGON;33210;44,5355518;-0,2771819;Crédit Agricole - Aquitaine
Agence bancaire LANGON;78 Cours Général Leclerc, 33210 LANGON;33210;44,553629;-0,248563;Crédit Agricole - Aquitaine
Relais CA RELAIS CA (BAR TABAC LE COULOUMEY) - Langon;9 Rond-Point du Languedoc, 33210 Langon;33210;44,5491933;-0,2581071;Crédit Agricole - Aquitaine
Relais CA RELAIS CA (TABAC MAISON DE LA PRESSE LA DETENTE) - Lanton;14 Avenue de la République, 33138 Lanton;33138;44,7115594;-1,0548358;Crédit Agricole - Aquitaine
Relais CA RELAIS CA (TABAC PRESSE DE TAUSSAT - LE REVIVRE) - Lanton;20 Avenue Guy Célérier, 33138 Lanton;33138;44,7203956;-1,0720218;Crédit Agricole - Aquitaine
Agence bancaire LAROQUE TIMBAUT;Place du Foirail, 47340 Laroque-Timbaut;47340;;;Crédit Agricole - Aquitaine
Relais CA RELAIS CA (CAFE DE LA PAIX) - Laruscade;Le Bourg, 33620 Laruscade;33620;45,1073594;-0,3390157;Crédit Agricole - Aquitaine
Agence bancaire LATRESNE;19, Avenue De La Libération, 33360 LATRESNE;33360;;;Crédit Agricole - Aquitaine
Relais CA RELAIS CA (L'AUBERGE DE LAURES) - Laussou;LAURES, 47150 Laussou;47150;44,583157;0,807327;Crédit Agricole - Aquitaine
Agence bancaire LAUZUN;Place De La Liberté, 47410 LAUZUN;47410;;;Crédit Agricole - Aquitaine
Agence bancaire LAVARDAC;8, Allées Des Alliés, 47230 LAVARDAC;47230;;;Crédit Agricole - Aquitaine
Agence bancaire LAYRAC;23 avenue Massenet, 47390 LAYRAC;47390;;;Crédit Agricole - Aquitaine
Agence bancaire LE BARP;7, Place Val De l'Eyre, 33114 LE BARP;33114;;;Crédit Agricole - Aquitaine
Agence bancaire LE BOUSCAT CENTRE;35, Rue Emile Zola, 33110 LE BOUSCAT;33110;44,86358;-0,599812;Crédit Agricole - Aquitaine
Agence bancaire LE BOUSCAT RAVEZIES;180 Avenue Jules Guesde, 33110 Le Bouscat;33110;44,8658934;-0,5767007;Crédit Agricole - Aquitaine
Agence bancaire LE HAILLAN;188, Avenue Pasteur, 33185 LE HAILLAN;33185;;;Crédit Agricole - Aquitaine
Agence bancaire LE MAS D'AGENAIS;Rue Du Bois, 47430 LE MAS D'AGENAIS;47430;;;Crédit Agricole - Aquitaine
Agence bancaire LE PASSAGE;18, Avenue De La Marne, 47520 LE PASSAGE;47520;;;Crédit Agricole - Aquitaine
Agence bancaire LE PIAN MEDOC;ZC Les Portes Du Médoc, 274, Route De Pauillac, 33290 LE PIAN MEDOC;33290;;;Crédit Agricole - Aquitaine
Relais CA RELAIS CA (TABAC LACOURTY) - Le Porge;8 Place Saint-Seurin, 33680 Le Porge;33680;44,8732239;-1,093643;Crédit Agricole - Aquitaine
Agence bancaire LE TAILLAN;2, Place Du Général De Gaulle, 33320 LE TAILLAN-MEDOC;33320;;;Crédit Agricole - Aquitaine
Relais CA RELAIS CA (FARDAMOR LE TEICH) - Le Teich;51 Avenue de la Côte d'Argent, 33470 Le Teich;33470;44,6343099;-1,0211542;Crédit Agricole - Aquitaine
Relais CA RELAIS CA (VIVAL) - Le Temple-sur-Lot;Place de la Mairie, 47110 Le Temple-sur-Lot;47110;44,37962191353071;0,5248332023620605;Crédit Agricole - Aquitaine
Relais CA RELAIS CA (AU BON COIN) - Le Verdon-sur-Mer;3 RUE ANCIEN HOTEL DE VILLE, 33123 Le Verdon-sur-Mer;33123;45,5447112690856;-1,062026023864746;Crédit Agricole - Aquitaine
Distributeur automatique de billets LEGE CAP FERRET (Distributeur);26, BOULEVARD DE LA PLAGE, 33970 LEGE CAP FERRET;33970;44,65245;-1,242734;Crédit Agricole - Aquitaine
Relais CA RELAIS CA (LE CERCLE) - Lencouacq;23 Route de Roquefort, 40120 Lencouacq;40120;44,0989722;-0,4058121;Crédit Agricole - Aquitaine
Agence bancaire LEOGNAN;51, Cours Maréchal Leclerc, 33850 LEOGNAN;33850;;;Crédit Agricole - Aquitaine
Agence bancaire LEON;Le Bourg, 40550 LEON;40550;;;Crédit Agricole - Aquitaine
Relais CA RELAIS CA (LE COMMERCE DE BV) - Lerm-et-Musset;116 AVENUE DU 25 JUIN 1944, 33840 Lerm-et-Musset;33840;44,3278708;-0,1609473;Crédit Agricole - Aquitaine
Relais CA RELAIS CA (AU TABAC BLOND) - Les Églisottes-et-Chalaures;50 Avenue Victor Hugo, 33230 Les Églisottes-et-Chalaures;33230;45,0970838;-0,0414533;Crédit Agricole - Aquitaine
Relais CA RELAIS CA (LE RELAIS LEVOIS) - Les Lèves-et-Thoumeyragues;Le Bourg, 33220 Les Lèves-et-Thoumeyragues;33220;44,7942859;0,1766733;Crédit Agricole - Aquitaine
Relais CA RELAIS CA (CERCLE DE LESGOR LOU CARRIOU) - Lesgor;au bourg, 40400 Lesgor;40400;43,85354663222292;-0,9002566337585449;Crédit Agricole - Aquitaine
Agence bancaire LESPARRE;65,Cours Du Général De Gaulle, 33340 LESPARRE;33340;;;Crédit Agricole - Aquitaine
Relais CA RELAIS CA (EPICERIE LES COUSINES) - Lesperon;72 Route de Tireveste, 40260 Lesperon;40260;43,9711595;-1,0916661;Crédit Agricole - Aquitaine
Relais CA RELAIS CA (CAP OU PAS CAP) - Lège-Cap-Ferret;27 Rue des Goélands, 33970 Lège-Cap-Ferret;33970;44,64805536146822;-1,249866485595703;Crédit Agricole - Aquitaine
Relais CA RELAIS CA (MAISON DE LA PRESSE) - Lège-Cap-Ferret;21 Boulevard de la Plage, 33950 Lège-Cap-Ferret;33950;44,6877232;-1,2344454;Crédit Agricole - Aquitaine
Agence bancaire LIBOS;Place Du Marché, 47500 LIBOS;47500;;;Crédit Agricole - Aquitaine
Agence bancaire Espace Pro et Banque Privée du Libournais;189 Avenue du Maréchal Foch, 33500 LIBOURNE;33500;44,928512;-0,2408113000000185;Crédit Agricole - Aquitaine
Agence bancaire Espace des Grandes Entreprises du Vin Rive Droite;52, avenue Georges Pompidou, 33500 LIBOURNE;33500;44,931667;-0,23814;Crédit Agricole - Aquitaine
Distributeur automatique de billets LIBOURNE CARREFOUR (distributeur);102 AVENUE GENERAL DE GAULLE, 33500 LIBOURNE;33500;44,90190666297188;-0,2198283449894478;Crédit Agricole - Aquitaine
Agence bancaire LIBOURNE DECAZES;15-17 Place Decazes - BP 66, 33500 LIBOURNE;33500;44,915947;-0,240135;Crédit Agricole - Aquitaine
Agence bancaire LIBOURNE LA MARNE;157, Rue De La Marne, 33500 LIBOURNE;33500;44,921313;-0,226794;Crédit Agricole - Aquitaine
Agence bancaire LIBOURNE PEYRONNEAU;87, Avenue Du Général De Gaulle - BP 81, 33500 LIBOURNE;33500;44,904568;-0,22493;Crédit Agricole - Aquitaine
Agence bancaire LIBOURNE POMEROL;52, Avenue Georges Pompidou, 33500 LIBOURNE;33500;44,931667;-0,23814;Crédit Agricole - Aquitaine
Relais CA RELAIS CA (BAR LE ROTELLA - PRESSE) - Libourne;132 Avenue Georges Clemenceau, 33500 Libourne;33500;44,92209709999999;-0,236585;Crédit Agricole - Aquitaine
Relais CA RELAIS CA (BOULANGERIE LAUSSU) - Linxe;135 Route de l'Océan, 40260 Linxe;40260;43,9210019;-1,2474245;Crédit Agricole - Aquitaine
Agence bancaire LIT ET MIXE;41 Avenue de la Côté d'Argent, 40170 Lit-et-Mixe;40170;;;Crédit Agricole - Aquitaine
Relais CA RELAIS CA (BOULANGERIE L'EPI DE BLE) - Lormont;34 Avenue de Paris, 33310 Lormont;33310;44,8702694;-0,5119298999999999;Crédit Agricole - Aquitaine
Relais CA RELAIS CA (SARL DOUTI) - Lormont;34 Avenue de Paris, 33310 Lormont;33310;44,8702694;-0,5119298999999999;Crédit Agricole - Aquitaine
Relais CA RELAIS CA (EIRL FAGETTE) - Loubès-Bernac;Bourg, 47120 Loubès-Bernac;47120;44,730745;0,293858;Crédit Agricole - Aquitaine
Relais CA RELAIS CA (CHEZ GIBUS) - LOUGRATTE;38 route de Villeneuve, 47290 LOUGRATTE;47290;44,58353686733208;0,6230878829956055;Crédit Agricole - Aquitaine
Relais CA RELAIS CA (LA PETITE EPICERIE) - Loupiac-de-la-Réole;46 Le Bourg Nord, 33190 Loupiac-de-la-Réole;33190;44,54720606689408;-0,04454612731933594;Crédit Agricole - Aquitaine
Relais CA RELAIS CA (LEVAIN ET TRADITION) - Ludon-Médoc;23 Rue du Général de Gaulle, 33290 Ludon-Médoc;33290;44,98248599999999;-0,6040983000000001;Crédit Agricole - Aquitaine
Relais CA RELAIS CA (LE FOURNIL DE LUGOS) - Lugos;6 Rue de la Mairie, 33830 Lugos;33830;44,4820242;-0,8834728;Crédit Agricole - Aquitaine
Agence bancaire LUSSAC;5, Rue Gambetta, 33570 LUSSAC;33570;;;Crédit Agricole - Aquitaine
Relais CA RELAIS CA (TABAC PRESSE ALIMENTATION VIVAL) - Luxey;16 Rue de l'Ahountique, 40430 Luxey;40430;44,2666541;-0,5232494999999999;Crédit Agricole - Aquitaine
Agence bancaire MACAU;32, Avenue Du Général De Gaulle, 33460 MACAU;33460;;;Crédit Agricole - Aquitaine
Relais CA RELAIS CA (SPAR MAGESCQ) - Magescq;6 Rue Marie Curie, 40140 Magescq;40140;43,77966809999999;-1,216017;Crédit Agricole - Aquitaine
Relais CA RELAIS CA (AU PAIN NOUVEAU) - Marcheprime;2 Bis Avenue de la Côté d'Argent, 33380 Marcheprime;33380;44,6924901;-0,85532;Crédit Agricole - Aquitaine
Agence bancaire MARGAUX;26, Rue De La Trémoille, 33460 MARGAUX;33460;;;Crédit Agricole - Aquitaine
Agence bancaire Espace Pro et Banque Privée du Marmandais;Route De Bordeaux - Thivras BP 49, 47201 MARMANDE;47201;44,5015731;0,1338615;Crédit Agricole - Aquitaine
Agence bancaire MARMANDE FOURCADE;55, Boulevard Du Dr Fourcade, 47201 MARMANDE;47201;44,50061;0,1687;Crédit Agricole - Aquitaine
Agence bancaire MARMANDE THIVRAS;Route De Bordeaux - Thivras BP 49, 47201 MARMANDE;47201;44,508599;0,142886;Crédit Agricole - Aquitaine
Relais CA RELAIS CA (BAR TABAC PRESSE LE LIBERTE) - Marmande;1 Boulevard de la Liberté, 47200 Marmande;47200;44,50900867496688;0,1604604721069336;Crédit Agricole - Aquitaine
Relais CA RELAIS CA (STATION SERVICE GHILARDI) - Marmande;La Grande Route, 47200 Marmande;47200;44,467666;0,139152;Crédit Agricole - Aquitaine
Relais CA RELAIS CA (STANMIRA) - Marsas;83 Colabrard, 33620 Marsas;33620;45,0453423;-0,3701507;Crédit Agricole - Aquitaine
Agence bancaire MARTIGNAS;1, Avenue Du 18 Juin 1940, 33127 MARTIGNAS SUR JALLE;33127;;;Crédit Agricole - Aquitaine
Relais CA RELAIS CA (COMMERCE M2D) - Martillac;2 Rue de la Canave, 33650 Martillac;33650;44,7217248;-0,5310811;Crédit Agricole - Aquitaine
Relais CA RELAIS CA (LE BISTRO) - Meilhan;196 Rue Felix Robert, 40400 Meilhan;40400;43,8634687;-0,706187;Crédit Agricole - Aquitaine
Agence bancaire MEILHAN;Place De l'Hôtel De Ville, 47180 MEILHAN - GARONNE;47180;;;Crédit Agricole - Aquitaine
Agence bancaire AEROPORT BORDEAUX 1ER ETAGE;AEROPORT DE BORDEAUX MERIGNAC, 33700 MERIGNAC;33700;0,0;0,0;Crédit Agricole - Aquitaine
Distributeur automatique de billets AEROPORT BORDEAUX RDC (Distributeur);AEROPORT DE BORDEAUX MERIGNAC, 33700 MERIGNAC;33700;44,82968898521012;-0,7128731026653045;Crédit Agricole - Aquitaine
Agence bancaire Espace Collectivités Publiques;16A, avenue de Pythagore, 33700 MERIGNAC;33700;44,831275;-0,683911;Crédit Agricole - Aquitaine
Agence bancaire Espace Entreprises Bordeaux-Métropole;16A, Avenue de Pythagore, 33700 MERIGNAC;33700;44,830987;-0,685024;Crédit Agricole - Aquitaine
Agence bancaire Espace Entreprises de la Gironde;16A, avenue de Pythagore, 33700 MERIGNAC;33700;44,8309866;-0,6850244;Crédit Agricole - Aquitaine
Agence bancaire Espace Institutionnels et Logement Social;16A, Avenue de Pythagore, 33700 MERIGNAC;33700;44,831275;-0,683911;Crédit Agricole - Aquitaine
Agence bancaire Espace Pro et Banque Privée Bordeaux Rive Gauche;16 A AVENUE PYTHAGORE, 33700 MERIGNAC;33700;44,831283;-0,685035;Crédit Agricole - Aquitaine
Agence bancaire Espace des Grandes Entreprises;16A, avenue de Pythagore, 33700 MERIGNAC;33700;44,8309866;-0,6850244;Crédit Agricole - Aquitaine
Agence bancaire MERIGNAC;56, Avenue De L'Yser, 33700 MERIGNAC;33700;44,841154;-0,653118;Crédit Agricole - Aquitaine
Agence bancaire MERIGNAC CAPEYRON;82, Avenue De La Libération, 33700 MERIGNAC;33700;44,850364;-0,644513;Crédit Agricole - Aquitaine
Relais CA RELAIS CA (BAR RESTAURANT TABAC MAMASE) - Messanges;5 Route de la côte d'Argent, 40660 Messanges;40660;43,8156969;-1,3785414;Crédit Agricole - Aquitaine
Agence bancaire MEZIN;Avenue G. Cassagnabère, 47170 MEZIN;47170;;;Crédit Agricole - Aquitaine
Relais CA RELAIS CA (SUPERETTE DENISA) - Mézos;Avenue des Écoles, 40170 Mézos;40170;44,0762731;-1,1661106;Crédit Agricole - Aquitaine
Agence bancaire MIMIZAN;17, Avenue De Bordeaux, 40200 MIMIZAN;40200;;;Crédit Agricole - Aquitaine
Agence bancaire MIOS;1, Rue De Canet, 33380 MIOS;33380;;;Crédit Agricole - Aquitaine
Agence bancaire MIRAMONT;28, Place Martignac, 47800 MIRAMONT DE GUYENNE;47800;;;Crédit Agricole - Aquitaine
Agence bancaire MOLIETS PLAGE (distributeur saisonnier);PARKING DE LA PLAGE, 40660 MOLIETS;40660;;;Crédit Agricole - Aquitaine
Relais CA RELAIS CA (BOUCHERIE CHARCUTERIE DU TERROIR) - Moliets-et-Maa;Avenue des Lacs, 40660 Moliets-et-Maa;40660;43,8476989;-1,3582756;Crédit Agricole - Aquitaine
Relais CA RELAIS CA (BOULANGERIE LE FOURNIL DE L'OLIVIER) - Moliets-et-Maa;13 Avenue des Lacs, 40660 Moliets-et-Maa;40660;43,850236;-1,3560794;Crédit Agricole - Aquitaine
Relais CA RELAIS CA (VIVAL) - Monbahus;2 Rue de l'Ancienne Poste, 47290 Monbahus;47290;44,5490255;0,5356211;Crédit Agricole - Aquitaine
Agence bancaire MONCLAR (Point Conseil);11, Place De La Mairie, 47380 MONCLAR;47380;;;Crédit Agricole - Aquitaine
Relais CA RELAIS CA (LE PHARE DE JEANNE) - Moncrabeau;Place Dubarry en face de la mairie, 47600 Moncrabeau;47600;44,0345729341786;0,3707993030548096;Crédit Agricole - Aquitaine
Agence bancaire MONFLANQUIN;Clos Des Pères, 47150 MONFLANQUIN;47150;;;Crédit Agricole - Aquitaine
Relais CA RELAIS CA (COMMERCE CHAN YIN KUENG) - Mongauzy;9 le Bourg, 33190 Mongauzy;33190;44,56714214400498;0,03442916513821004;Crédit Agricole - Aquitaine
Agence bancaire MONSEGUR;11, Rue Robert Descornes, 33580 MONSEGUR;33580;;;Crédit Agricole - Aquitaine
Relais CA RELAIS CA - Monsempron-Libos;3 Place Centrale, 47500 Monsempron-Libos;47500;44,4826744;0,9450966;Crédit Agricole - Aquitaine
Distributeur automatique de billets MONT DE MARSAN CARREFOUR (distributeur);ROUTE DE ROQUEFORT, 40000 MONT DE MARSAN;40000;43,94503220066174;-0,405714488884845;Crédit Agricole - Aquitaine
Relais CA RELAIS CA (LE PETIT MONTAGNACAIS) - Montagnac-sur-Auvignon;8 Place Joseph Teulère, 47600 Montagnac-sur-Auvignon;47600;44,161581;0,458967;Crédit Agricole - Aquitaine
Relais CA RELAIS CA (BOULANGERIE LA FEE PRALINE) - Montagne;38 Grand Rue, 33570 Montagne;33570;44,92995880000001;-0,1303319;Crédit Agricole - Aquitaine
Distributeur automatique de billets MONTALIVET (Distributeur);37, AVENUE DE L'OCEAN, 33930 MONTALIVET;33930;45,378304;-1,154131;Crédit Agricole - Aquitaine
Agence bancaire MONTAYRAL;Zone Artisanal les Portes du Quercy, 47500 MONTAYRAL;47500;;;Crédit Agricole - Aquitaine
Agence bancaire MONTFORT;Avenue Jean Jaurès, 40380 MONTFORT EN CHALOSSE;40380;;;Crédit Agricole - Aquitaine
Agence bancaire MORCENX;Avenue Foch, 40110 MORCENX;40110;;;Crédit Agricole - Aquitaine
Relais CA RELAIS CA (TABAC - ALIMENTATION - PRESSE) - Moulis-en-Médoc;188 Avenue de la Gironde, 33480 Moulis-en-Médoc;33480;45,0596153;-0,7705322;Crédit Agricole - Aquitaine
Relais CA RELAIS CA (CHEZ CHRISTO) - Mourens;Le Bourg, 33410 Mourens;33410;44,64862782536944;-0,2091479301452637;Crédit Agricole - Aquitaine
Relais CA RELAIS CA (EPICERIE SAMIRA HASSOUF) - Moustey;Avenue Cousseau de Labarthe, 40410 Moustey;40410;44,3595104;-0,7617109;Crédit Agricole - Aquitaine
Agence bancaire MUGRON;2 , Rue Frédéric Bastiat, 40250 MUGRON;40250;;;Crédit Agricole - Aquitaine
Relais CA RELAIS CA (BAR TABAC PRESSE LA CIVETTE) - Narrosse;130 Route des Pyrénées, 40180 Narrosse;40180;43,69605204017712;-1,018917560577393;Crédit Agricole - Aquitaine
Agence bancaire NERAC;69, Allées D'Albret, 47600 NERAC;47600;;;Crédit Agricole - Aquitaine
Relais CA RELAIS CA (LE NOVALIA) - Noaillan;3 Place Général Leclerc, 33730 Noaillan;33730;44,4797443;-0,3671639;Crédit Agricole - Aquitaine
Agence bancaire NOGARO;86 rue de la République, 32110 NOGARO;32110;;;Crédit Agricole - Aquitaine
Distributeur automatique de billets ONDRES BOULANGERIE (Distributeur);NATIONALE 10, 40440 ONDRES;40440;43,5625650438643;-1,447703015280219;Crédit Agricole - Aquitaine
Relais CA RELAIS CA (SEGUIN DIDIER) - Onesse-Laharie;99 Route de Mimizan, 40110 Onesse-Laharie;40110;44,0619682;-1,0708438;Crédit Agricole - Aquitaine
Relais CA RELAIS CA (URUEN JULIEN) - Ossages;30 ALLEE VILLA MARIE, 40290 Ossages;40290;-0,8815206;43,557837;Crédit Agricole - Aquitaine
Agence bancaire PAREMPUYRE;Avenue Philippe Durand-Dassier, 33290 PAREMPUYRE;33290;;;Crédit Agricole - Aquitaine
Agence bancaire PARENTIS;97, Avenue Du 11 Novembre, 40160 PARENTIS EN BORN;40160;;;Crédit Agricole - Aquitaine
Agence bancaire Espace Pro & Banque Privée du Médocain;26,Rue Ferdinand Buisson, 33250 PAUILLAC;33250;45,1999213;-0,7509657;Crédit Agricole - Aquitaine
Agence bancaire PAUILLAC;26,Rue Ferdinand Buisson, 33250 PAUILLAC;33250;45,200002;-0,748866;Crédit Agricole - Aquitaine
Agence bancaire PELLEGRUE;6, Route De Sauveterre, 33790 PELLEGRUE;33790;;;Crédit Agricole - Aquitaine
Relais CA RELAIS CA (TABAC PRESSE LOTO PMU L'AXELINE) - Penne-d'Agenais;2 Avenue de la Libération, 47140 Penne-d'Agenais;47140;44,3938303;0,8066759;Crédit Agricole - Aquitaine
Agence bancaire PESSAC CENTRE;23-25 Avenue Pasteur, 33600 PESSAC;33600;44,805613;-0,632449;Crédit Agricole - Aquitaine
Agence bancaire PESSAC FRANCE;30, Bis Avenue Du Général Leclerc, 33600 PESSAC;33600;44,796079;-0,667229;Crédit Agricole - Aquitaine
Relais CA RELAIS CA (HALL DE LA PRESSE) - Pessac;Rue de l'Horloge, 33600 Pessac;33600;44,791125;-0,630084;Crédit Agricole - Aquitaine
Relais CA RELAIS CA (TABAC PRESSE LE MADRAN) - Pessac;62 Avenue de Madran, 33600 Pessac;33600;44,804849;-0,6562399999999999;Crédit Agricole - Aquitaine
Relais CA RELAIS CA (TABAC PRESSE LOTO CAFE DU HAUT LIVRAC) - Pessac;5 Boulevard du Haut Livrac, 33600 Pessac;33600;44,7989092;-0,6711712;Crédit Agricole - Aquitaine
Relais CA RELAIS CA (TABAC-PRESSE-EPICERIE SAILLAN) - Pessac-sur-Dordogne;LE BOURG, 33890 Pessac-sur-Dordogne;33890;44,820349;0,07871399999999999;Crédit Agricole - Aquitaine
Agence bancaire PETIT PIQUEY;Petit Piquey Route De Bordeaux, 33950 PETIT PIQUEY;33950;;;Crédit Agricole - Aquitaine
Agence bancaire PEYREHORADE;Place Aristide Briand, 40300 PEYREHORADE;40300;;;Crédit Agricole - Aquitaine
Agence bancaire PISSOS (Permanence);165 rte de Bordeaux, 40410 PISSOS;40410;;;Crédit Agricole - Aquitaine
Relais CA RELAIS CA (LEPICERIE DE PLASSAC) - Plassac;20 Petite Roque, 33390 Plassac;33390;45,10166599999999;-0,6148954999999999;Crédit Agricole - Aquitaine
Agence bancaire PODENSAC;77, Bis Cours Du Maréchal Foch, 33720 PODENSAC;33720;;;Crédit Agricole - Aquitaine
Agence bancaire POMAREZ (Permanence - SUR RDV UNIQUEMENT);12, Rue Du Commerce, 40360 POMAREZ;40360;;;Crédit Agricole - Aquitaine
Relais CA RELAIS CA (SPAR SOPODIA) - Pompignac;5 Avenue de l'Entre-Deux-Mers, 33370 Pompignac;33370;44,8499796;-0,4399625;Crédit Agricole - Aquitaine
Relais CA RELAIS CA (GABANO) - Pont-du-Casse;50 Avenue de Cahors, 47480 Pont-du-Casse;47480;44,23156297956272;0,6812703609466553;Crédit Agricole - Aquitaine
Relais CA RELAIS CA (VIVAL) - Pontenx-les-Forges;1165 Avenue Gustave Caliot, 40200 Pontenx-les-Forges;40200;44,2371603;-1,1112889;Crédit Agricole - Aquitaine
Agence bancaire PONTONX (Point Conseil);415 Avenue Robert labeyrie, 40465 PONTONX SUR L'ADOUR;40465;;;Crédit Agricole - Aquitaine
Agence bancaire PORT STE MARIE;1, Avenue Du 11 Novembre 1918, 47130 PORT STE MARIE;47130;;;Crédit Agricole - Aquitaine
Relais CA RELAIS CA (A PETITS PAINS) - Port-de-Lanne;2572 Route Nationale 117, 40300 Port-de-Lanne;40300;43,5638535;-1,1777821;Crédit Agricole - Aquitaine
Relais CA RELAIS CA (MAISON DE LA PRESSE SAINT-GEORGES) - Port-Sainte-Marie;2 Rue Pasteur, 47130 Port-Sainte-Marie;47130;44,2501743;0,3976017000000001;Crédit Agricole - Aquitaine
Relais CA RELAIS CA (AU P'TIT MARCHE) - Porte-de-Benauge;367 Le Bourg Nord, 33760 Porte-de-Benauge;33760;44,679045;-0,2449537;Crédit Agricole - Aquitaine
Agence bancaire POUILLON;508, Avenue de la Liberté, 40350 POUILLON;40350;;;Crédit Agricole - Aquitaine
Relais CA RELAIS CA (BAR TABAC PRESSE CHEZ CATHY) - Pouydesseaux;81 Place de Bousquet, 40120 Pouydesseaux;40120;43,9687872;-0,3247521;Crédit Agricole - Aquitaine
Relais CA RELAIS CA (LES JASMINS) - Poyanne;164 Rue Adour et Chalosse, 40380 Poyanne;40380;43,7561233;-0,8161495999999999;Crédit Agricole - Aquitaine
Agence bancaire PRAYSSAS;14 Avenue Jean Jaurès, 47360 Prayssas;47360;;;Crédit Agricole - Aquitaine
Relais CA RELAIS CA (MICHEL LENISA) - Preignac;6 Rue de la République, 33210 Preignac;33210;44,5851476;-0,2954303;Crédit Agricole - Aquitaine
Relais CA RELAIS CA (LE FOURNIL PRIGNACAIS) - Prignac-et-Marcamps;69 Avenue des Côtes de Bourg, 33710 Prignac-et-Marcamps;33710;45,0333815;-0,493928;Crédit Agricole - Aquitaine
Relais CA RELAIS CA (CHARCUTERIE BERNARD) - Pugnac;388 Rue de l'Hôtel de Ville, 33710 Pugnac;33710;45,08116497735856;-0,4975175857543945;Crédit Agricole - Aquitaine
Agence bancaire PUJOLS;5, Rue Du Stade, 33350 PUJOLS;33350;;;Crédit Agricole - Aquitaine
Relais CA RELAIS CA (EPICERIE PROXI KAREN) - Puymiclan;2 place de l'église, 47350 Puymiclan;47350;44,51214745688942;0,316115903995513;Crédit Agricole - Aquitaine
Distributeur automatique de billets PUYMIROL (distributeur);46, RUE ROYALE, 47270 PUYMIROL;47270;44,186947;0,796767;Crédit Agricole - Aquitaine
Relais CA RELAIS CA (LE BASTIDE) - Puymirol;7 Place du Maréchal Leclerc, 47270 Puymirol;47270;44,187188;0,7958017;Crédit Agricole - Aquitaine
Relais CA RELAIS CA (BOULANGERIE FCM SARL) - PUYNORMAND;21 LE BOURG SUD, 33570 PUYNORMAND;33570;44,9827503;-0,0012215;Crédit Agricole - Aquitaine
Relais CA RELAIS CA (TABAC BORIE) - Queyrac;2 Route des Chardonnerets, 33340 Queyrac;33340;45,361757;-0,978439;Crédit Agricole - Aquitaine
Agence bancaire RAUZAN;1, Grand Rue BP 5, 33420 RAUZAN;33420;;;Crédit Agricole - Aquitaine
Relais CA RELAIS CA (TABAC DE REIGNAC) - Reignac;5 Les Bertrands-Nord, 33860 Reignac;33860;45,24316899999999;-0,525238;Crédit Agricole - Aquitaine
Agence bancaire RION;Place Des Droits De l'Homme, 40370 RION-DES-LANDES;40370;;;Crédit Agricole - Aquitaine
Relais CA RELAIS CA (LE PETIT FLORIAN) - Rions;20 Rue du Lhyan, 33410 Rions;33410;44,6635453;-0,3517108;Crédit Agricole - Aquitaine
Agence bancaire RISCLE;Place De La Mairie, 32400 RISCLE;32400;;;Crédit Agricole - Aquitaine
Agence bancaire ROQUEFORT;Place Du Pijorin, 40120 ROQUEFORT;40120;;;Crédit Agricole - Aquitaine
Relais CA RELAIS CA (TOTAL CONTACT) - Sabres;Route de Mont de Marsan, 40630 Sabres;40630;44,14720153773865;-0,7374143600463867;Crédit Agricole - Aquitaine
Relais CA RELAIS CA (TABAC PRESSE DE SADIRAC) - Sadirac;74 Route Departementale 14, 33670 Sadirac;33670;44,77027409999999;-0,4307014;Crédit Agricole - Aquitaine
Agence bancaire SAINT AUBIN;11, Route De St Médard, 33160 Saint Aubin du Médoc;33160;;;Crédit Agricole - Aquitaine
Relais CA RELAIS CA (LYDIA SESSOLO) - SAINT MAURIN;rue principale, 47270 SAINT MAURIN;47270;44,20570820939872;0,8907268979180527;Crédit Agricole - Aquitaine
Agence bancaire SAINT-PAUL-LES-DAX;29, Avenue De La Liberté, 40990 SAINT-PAUL-LES-DAX;40990;;;Crédit Agricole - Aquitaine
Agence bancaire ST PIERRE DU MONT GRAND MOUN;Centre Commercial 15, Avenue Reine Sabate, 40280 SAINT PIERRE DU MONT;40280;;;Crédit Agricole - Aquitaine
Relais CA RELAIS CA(Nathalie DEHAUMONT) - SAINT SERNIN DE DURAS;au du Bourg, 47120 SAINT SERNIN DE DURAS;47120;44,7104614;0,2377904;Crédit Agricole - Aquitaine
Distributeur automatique de billets SAINT SEURIN SUPER U (distributeur);RUE DE LA REPUBLIQUE, 33660 SAINT SEURIN;33660;45,01647175424876;-0,01372660233577482;Crédit Agricole - Aquitaine
Distributeur automatique de billets SAINT SEVER INTERMARCHE (Distributeur);ROUTE DE MONT DE MARSAN, 40500 SAINT SEVER;40500;43,77496273938578;-0,5677080735486424;Crédit Agricole - Aquitaine
Agence bancaire SAINT-ANDRE DE CUBZAC;64, Rue Emile Dantagnan, 33240 SAINT-ANDRE DE CUBZAC;33240;;;Crédit Agricole - Aquitaine
Relais CA RELAIS CA (Y et L BARTHOUIL) - Saint-André-de-Seignanx;Chemin Andriou, 40390 Saint-André-de-Seignanx;40390;43,5576419;-1,3526124;Crédit Agricole - Aquitaine
Relais CA RELAIS CA (CHEZ CHRISTELLE) - Saint-Antoine-sur-l'Isle;1211 Avenue de la Libération, 33660 Saint-Antoine-sur-l'Isle;33660;45,0276101585024;0,04070520401000977;Crédit Agricole - Aquitaine
Relais CA RELAIS CA (AUBERGE CHEZ TONTON) - Saint-Aubin;Le Bourg Saint Aubin 47150, 47150 Saint-Aubin;47150;44,47568598406142;0,8527493476867676;Crédit Agricole - Aquitaine
Relais CA RELAIS CA (BOULANGERIE LAGRAULET) - Saint-Aubin;486 D18, 40250 Saint-Aubin;40250;43,7127671;-0,6969898;Crédit Agricole - Aquitaine
Relais CA RELAIS CA (PAIN DELICES) - Saint-Aubin-de-Blaye;656 Avenue de la Liberté, 33820 Saint-Aubin-de-Blaye;33820;45,2682132;-0,5612157;Crédit Agricole - Aquitaine
Relais CA RELAIS CA (TABAC BOUILLAND) - Saint-Christoly-de-Blaye;4 Place de l'Église, 33920 Saint-Christoly-de-Blaye;33920;45,1304705;-0,5090492999999999;Crédit Agricole - Aquitaine
Relais CA RELAIS CA (L'EPI S'RIT) - Saint-Christophe-des-Bardes;Le Bourg, 33330 Saint-Christophe-des-Bardes;33330;44,896156211227;-0,123145580291748;Crédit Agricole - Aquitaine
Agence bancaire SAINT-CIERS;2, Avenue De La Gare, 33820 SAINT-CIERS SUR GIRONDE;33820;;;Crédit Agricole - Aquitaine
Relais CA RELAIS CA (LE CHAT NOIR) - Saint-Ciers-d'Abzac;1 Rue Montaigne, 33910 Saint-Ciers-d'Abzac;33910;45,03094859999999;-0,2771817;Crédit Agricole - Aquitaine
Agence bancaire SAINT-DENIS DE PILE;42, Route De Paris BP 15, 33910 SAINT-DENIS DE PILE;33910;;;Crédit Agricole - Aquitaine
Agence bancaire SAINT-EMILION;6, Rue Madame Bouquey, 33330 SAINT-EMILION;33330;;;Crédit Agricole - Aquitaine
Relais CA RELAIS CA (STATION SERVICE TABAC PRESSE) - Saint-Étienne-de-Fougères;LD CAUSSINES, 47380 Saint-Étienne-de-Fougères;47380;44,418942;0,5560910000000001;Crédit Agricole - Aquitaine
Relais CA RELAIS CA (LE CONVIVIAL) - Saint-Georges;14 Avenue des Saint-Georges de France, 47370 Saint-Georges;47370;44,441454;0,9376690000000001;Crédit Agricole - Aquitaine
Relais CA RELAIS CA (SAINT-GEOURS-DE-MAREMNE) - Saint-Geours-de-Maremne;145 Route de Lelanne, 40230 Saint-Geours-de-Maremne;40230;43,6879572;-1,2251405;Crédit Agricole - Aquitaine
Agence bancaire SAINT-GERMAIN DU PUCH;12, Route De Libourne, 33750 SAINT-GERMAIN DU PUCH;33750;;;Crédit Agricole - Aquitaine
Relais CA RELAIS CA (LES SEPT COULEURS) - Saint-Germé;4 Place de l'église, 32400 Saint-Germé;32400;43,6800037;-0,1451441;Crédit Agricole - Aquitaine
Relais CA RELAIS CA (LE COMPTOIR DE ST GENES) - Saint-Gènes-de-Castillon;5 La Croix, 33350 Saint-Gènes-de-Castillon;33350;44,898989;-0,0631801;Crédit Agricole - Aquitaine
Relais CA RELAIS CA (SARL POM D AQUI) - Saint-Hilaire-de-Lusignan;804 D813, 47450 Saint-Hilaire-de-Lusignan;47450;44,2294815;0,5087646;Crédit Agricole - Aquitaine
Agence bancaire SAINT-JEAN D ILLAC;304, Avenue Du Las, 33127 SAINT-JEAN D'ILLAC;33127;;;Crédit Agricole - Aquitaine
Relais CA RELAIS CA (MAISON DE LA PRESSE) - Saint-Julien-en-Born;Route d'Uza, 40170 Saint-Julien-en-Born;40170;44,0615621;-1,2203323;Crédit Agricole - Aquitaine
Relais CA RELAIS CA (CARREFOUR CONTACT) - Saint-Justin;15 Avenue Guillaume de Villaret, 40240 Saint-Justin;40240;43,97646422565111;-0,239478349685669;Crédit Agricole - Aquitaine
Relais CA RELAIS CA (LE BISTROT DE GARONNE) - Saint-Laurent;27 Avenue Robert Philippot, 47130 Saint-Laurent;47130;44,2471572;0,3973708;Crédit Agricole - Aquitaine
Agence bancaire SAINT-LAURENT;3,Rue Marc Bourguedieu, 33112 SAINT-LAURENT MEDOC;33112;;;Crédit Agricole - Aquitaine
Agence bancaire SAINT-LOUBES;58, Avenue De La République, 33450 SAINT-LOUBES;33450;;;Crédit Agricole - Aquitaine
Relais CA RELAIS CA (VIVAL) - Saint-Macaire;26 Allée de Tourny, 33490 Saint-Macaire;33490;44,5644741;-0,2285518;Crédit Agricole - Aquitaine
Relais CA RELAIS CA (BOUCHERIE) - Saint-Mariens;BOURG, 33620 Saint-Mariens;33620;45,11667628965802;-0,4023206233978272;Crédit Agricole - Aquitaine
Relais CA RELAIS CA (LA BAGUETTE CAMPAGNE) - Saint-Martin-d'Oney;1050 Route de Mont de Marsan, 40090 Saint-Martin-d'Oney;40090;43,9283644;-0,6405922000000001;Crédit Agricole - Aquitaine
Agence bancaire SAINT-MARTIN-DE-SEIGNANX;Route Nationale 117, 40390 SAINT-MARTIN-DE -SEIGNANX;40390;;;Crédit Agricole - Aquitaine
Relais CA RELAIS CA (COMMERCE BRUN) - Saint-Martin-de-Seignanx;4 Place Jean Rameau, 40390 Saint-Martin-de-Seignanx;40390;43,5446985;-1,3863124;Crédit Agricole - Aquitaine
Relais CA RELAIS CA (LE GRAIN DE SEL) - Saint-Martin-de-Seignanx;AU BOURG, 40390 Saint-Martin-de-Seignanx;40390;43,544854;-1,386248;Crédit Agricole - Aquitaine
Agence bancaire SAINT-MEDARD EN JALLES;74, Avenue Montesquieu, 33160 SAINT-MEDARD EN JALLES;33160;;;Crédit Agricole - Aquitaine
Relais CA RELAIS CA (HOTEL SAINT CLEMENT) - Saint-Médard-de-Guizières;5 Rue de la République, 33230 Saint-Médard-de-Guizières;33230;45,014891;-0,0487602;Crédit Agricole - Aquitaine
Relais CA RELAIS CA (TABAC SHOP 89) - Saint-Médard-de-Guizières;112 Rue de la République, 33230 Saint-Médard-de-Guizières;33230;45,01596120000001;-0,0589271;Crédit Agricole - Aquitaine
Relais CA RELAIS CA (LE PETIT SAINT MICHEL) - Saint-Michel-de-Rieufret;2 Route de la Brède, 33720 Saint-Michel-de-Rieufret;33720;44,62227336570593;-0,4330050945281982;Crédit Agricole - Aquitaine
Relais CA RELAIS CA (CHEZ ANGELIQUE) - Saint-Pastour;AU BOURG, 47290 Saint-Pastour;47290;44,489783;0,602467;Crédit Agricole - Aquitaine
Relais CA RELAIS CA (LA PASTOURAISE) - Saint-Pastour;4 Rue du Château, 47290 Saint-Pastour;47290;44,48921199999999;0,6018407;Crédit Agricole - Aquitaine
Relais CA RELAIS CA (O SAINT PAUL) - Saint-Paul;42 le bourg, 33390 Saint-Paul;33390;45,148595;-0,602494;Crédit Agricole - Aquitaine
Relais CA RELAIS CA (AU PETIT MARCHE) - Saint-Paul-en-Born;157 Route de Mimizan, 40200 Saint-Paul-en-Born;40200;44,2231619;-1,1540947;Crédit Agricole - Aquitaine
Relais CA RELAIS CA (SPAR SAINT PERDON) - Saint-Perdon;111 Avenue du Marsan, 40090 Saint-Perdon;40090;43,8647983;-0,5897467;Crédit Agricole - Aquitaine
Relais CA RELAIS CA (MATHIEU CHENU) - Saint-Philippe-d'Aiguille;20 Le Bourg Est, 33350 Saint-Philippe-d'Aiguille;33350;44,9132707;-0,0308485;Crédit Agricole - Aquitaine
Relais CA RELAIS CA (SUPERETTE ERIC ROUZEAU) - Saint-Quentin-de-Baron;LE PRIEUR, 33750 Saint-Quentin-de-Baron;33750;44,8187349;-0,286936;Crédit Agricole - Aquitaine
Relais CA RELAIS CA (TABAC PRESSE VIVAL) - Saint-Sauveur;3 Place du 19 Mars 1962, 33250 Saint-Sauveur;33250;45,203162;-0,834367;Crédit Agricole - Aquitaine
Agence bancaire SAINT-SAVIN;1,Rue Alphonse Micheau, 33920 SAINT-SAVIN;33920;;;Crédit Agricole - Aquitaine
Relais CA RELAIS CA (TABAC LA CLE DES CHAMPS) - Saint-Sernin;69 Rue du Bourg, 47120 Saint-Sernin;47120;44,7102094;0,2384599;Crédit Agricole - Aquitaine
Agence bancaire SAINT-SEURIN SUR L'ISLE;1, Espace Charles De Gaulle, 33660 SAINT-SEURIN SUR L'ISLE;33660;;;Crédit Agricole - Aquitaine
Relais CA RELAIS CA (MAISON LAURENT) - Saint-Seurin-de-Cursac;60 Route de Saint-Malo, 33390 Saint-Seurin-de-Cursac;33390;45,1599996;-0,6233696;Crédit Agricole - Aquitaine
Relais CA RELAIS CA (BOULANGERIE WARINGHEM) - Saint-Sulpice-de-Faleyrens;36 Avenue du Général de Gaulle, 33330 Saint-Sulpice-de-Faleyrens;33330;44,873527;-0,19024;Crédit Agricole - Aquitaine
Relais CA RELAIS CA (MAISON DE LA PRESSE) - Saint-Sulpice-et-Cameyrac;Place Maucaillou, 33450 Saint-Sulpice-et-Cameyrac;33450;44,9124957;-0,3924055;Crédit Agricole - Aquitaine
Agence bancaire SAINT-SYLVESTRE;17, Rue De La République, 47140 SAINT-SYLVESTRE SUR LOT;47140;;;Crédit Agricole - Aquitaine
Relais CA RELAIS CA (TABAC PRESSE GINESTET) - Saint-Symphorien;21 Cours Gambetta, 33113 Saint-Symphorien;33113;44,4293407;-0,4895777;Crédit Agricole - Aquitaine
Relais CA RELAIS CA (SUPERETTE CATHERINE BONNIN) - Saint-Trojan;Le Télégraphe, 33710 Saint-Trojan;33710;45,081453;-0,5799529999999999;Crédit Agricole - Aquitaine
Relais CA RELAIS CA (SAUDADE EPICERIE CAFE) - Saint-Vincent-de-Paul;257 Avenue des Platanes, 40990 Saint-Vincent-de-Paul;40990;43,7478256;-0,9981829;Crédit Agricole - Aquitaine
Agence bancaire SAINT-VINCENT-DE-TYROSSE;Avenue De La Côte D'Argent, 40230 SAINT-VINCENT-DE-TYROSSE;40230;;;Crédit Agricole - Aquitaine
Agence bancaire SAINT-VIVIEN;2,Cours Georges Mandel, 33590 SAINT-VIVIEN;33590;;;Crédit Agricole - Aquitaine
Relais CA RELAIS CA (TABAC BRUNO CHALARD) - Saint-Yzan-de-Soudiac;22 Avenue du Gén de Gaulle, 33920 Saint-Yzan-de-Soudiac;33920;45,1417207;-0,3938957;Crédit Agricole - Aquitaine
Relais CA RELAIS CA (CHEZ SOPHIE) - Saint-Yzans-de-Médoc;5 Rue de la Colonne, 33340 Saint-Yzans-de-Médoc;33340;45,32324965504804;-0,8218958973884583;Crédit Agricole - Aquitaine
Agence bancaire SAINTE-BAZEILLE;1 rue du Docteur Belot, 47180 SAINTE-BAZEILLE;47180;;;Crédit Agricole - Aquitaine
Relais CA RELAI CA (AIRE NATURELLE LOU PK2) - Sainte-Eulalie-en-Born;190 Chemin de Montgaillard, 40200 Sainte-Eulalie-en-Born;40200;44,286281;-1,1725;Crédit Agricole - Aquitaine
Agence bancaire SAINTE-FOY LA GRANDE;21, Avenue De Verdun, 33220 SAINTE-FOY LA GRANDE;33220;;;Crédit Agricole - Aquitaine
Relais CA RELAIS CA (BAR TABAC PRESSE LE MADAFLO) - Sainte-Hélène;Route de Bordeaux, 33480 Sainte-Hélène;33480;44,9596766;-0,8720116;Crédit Agricole - Aquitaine
Relais CA RELAIS CA (HALL DE LA PRESSE) - Sainte-Hélène;26 Route de Bordeaux, 33480 Sainte-Hélène;33480;44,9645641;-0,8824314;Crédit Agricole - Aquitaine
Agence bancaire SAINTE-LIVRADE;1 Rue nationale, 47110 Sainte-Livrade-sur-Lot;47110;;;Crédit Agricole - Aquitaine
Relais CA RELAIS CA (BLEU CITRON) - Sainte-Maure-de-Peyriac;LE BOURG, 47170 Sainte-Maure-de-Peyriac;47170;44,013276;0,152363;Crédit Agricole - Aquitaine
Relais CA RELAIS CA (AUTOUR D'UN VERRE) - Sallebœuf;3 Avenue Gustave Eiffel, 33370 Sallebœuf;33370;44,84222159999999;-0,3973892;Crédit Agricole - Aquitaine
Agence bancaire SALLES;30, Rue De La Croix Blanche, 33770 SALLES;33770;;;Crédit Agricole - Aquitaine
Agence bancaire SAMADET (Point Conseil);Place Faïencerie, 40320 SAMADET;40320;;;Crédit Agricole - Aquitaine
Agence bancaire SANGUINET;236, Place De La Mairie, 40460 SANGUINET;40460;;;Crédit Agricole - Aquitaine
Relais CA RELAIS CA (Y ET L BARTHOUIL) - Saubrigues;86 Place de la Mairie, 40230 Saubrigues;40230;43,6101797;-1,3140047;Crédit Agricole - Aquitaine
Relais CA RELAIS CA (LE CHRISTY) - Saucats;30 Avenue Charles de Gaulle, 33650 Saucats;33650;44,6518302;-0,5967924;Crédit Agricole - Aquitaine
Relais CA RELAIS CA (BOULANGERIE PATISSERIE) - Saugnac-et-Muret;5 Route de Bayonne, 40410 Saugnac-et-Muret;40410;44,407029;-0,826044;Crédit Agricole - Aquitaine
Relais CA RELAIS CA (CASINO ROSELINE BARON) - Saugon;36 Le Bourg, 33920 Saugon;33920;45,1784461;-0,5029779;Crédit Agricole - Aquitaine
Agence bancaire SAUVETERRE DE GUYENNE;1, Rue Des Trois Bourdons, 33540 SAUVETERRE DE GUYENNE;33540;;;Crédit Agricole - Aquitaine
Relais CA RELAIS CA (PROXI - LE PANIER DE LA LEMANCE) - Sauveterre-la-Lémance;GRANDE RUE, 47500 Sauveterre-la-Lémance;47500;44,58913099999999;1,014883;Crédit Agricole - Aquitaine
Relais CA RELAIS CA (BOUCHERIE SEB) - Savignac;6a Le Bourg, 33124 Savignac;33124;44,52387;-0,107575;Crédit Agricole - Aquitaine
Relais CA RELAIS CA (TABAC PRESSE LE SEIGNOSSAIS) - Seignosse;1543 Avenue Charles de Gaulle, 40510 Seignosse;40510;43,6870161;-1,3742629;Crédit Agricole - Aquitaine
Relais CA RELAIS CA (TABAC PRESSE LIBRAIRIE PLAGE) - Seignosse;5 Place de Castille, 40510 Seignosse;40510;43,7083343;-1,4328825;Crédit Agricole - Aquitaine
Agence bancaire SEYCHES;Route De Marmande, 47350 SEYCHES;47350;;;Crédit Agricole - Aquitaine
Relais CA RELAIS CA (TABAC PRESSE LE SERIGNACAIS) - Sérignac-sur-Garonne;2244 Avenue des Landes, 47310 Sérignac-sur-Garonne;47310;44,2129134;0,485889;Crédit Agricole - Aquitaine
Relais CA RELAIS CA (SPAR Hossegor) - Soorts-Hossegor;337 Avenue du Touring Club, 40150 Soorts-Hossegor;40150;43,6574485;-1,4291621;Crédit Agricole - Aquitaine
Relais CA RELAIS CA (TABAC DE LA PLAGE CENTRALE) - Soorts-Hossegor;710 Avenue de la Grande Dune, 40150 Soorts-Hossegor;40150;43,6628288;-1,4408073;Crédit Agricole - Aquitaine
Agence bancaire SORE;Avenue De Verdun, 40430 SORE;40430;;;Crédit Agricole - Aquitaine
Relais CA RELAIS CA (BAKALIS) - SOS;3 PL BARGEMENT, 47170 SOS;47170;44,042411;0,1403796;Crédit Agricole - Aquitaine
Relais CA RELAIS CA (PHARMACIE REGINE ALAZET) - Sos;Place Armand Fallières, 47170 Sos;47170;44,0425367;0,1402254;Crédit Agricole - Aquitaine
Agence bancaire SOULAC;60, Rue De La Plage, 33780 SOULAC SUR MER;33780;;;Crédit Agricole - Aquitaine
Relais CA RELAIS CA (CHEZ MANU) - Souprosse;215 Avenue du 08 Mai 1945, 40250 Souprosse;40250;43,787477;-0,7063014;Crédit Agricole - Aquitaine
Relais CA RELAIS CA (PIERRE KEDDOURI) - Soussans;3 Place de la Mairie, 33460 Soussans;33460;45,0563708;-0,6991575999999999;Crédit Agricole - Aquitaine
Relais CA RELAIS CA (VIVAL) - Soussans;3 Place de la Mairie, 33460 Soussans;33460;45,0563708;-0,6991575999999999;Crédit Agricole - Aquitaine
Agence bancaire Espace Pro et Banque Privée Côte Landaise;Allée De La Cantère, 40140 SOUSTONS;40140;43,7551841;-1,3302106;Crédit Agricole - Aquitaine
Relais CA RELAIS CA (LE TOTEM) - Soustons;3 Rue Daste, 40140 Soustons;40140;43,7533434;-1,3280375;Crédit Agricole - Aquitaine
Agence bancaire SOUSTONS;Allée De La Cantère, 40140 SOUSTONS;40140;43,75518;-1,328022;Crédit Agricole - Aquitaine
Relais CA RELAIS CA (STATION MULTISERVICES JPPL) - ST ETIENNE DE FOUGERES;Bourg Nord, 47110 ST ETIENNE DE FOUGERES;47110;44,41867033569454;0,5568909645080566;Crédit Agricole - Aquitaine
Distributeur automatique de billets ST GEOURS DE MARENNE (Distributeur);ROUTE DU LAVOIR, 40230 ST GEOURS DE MARENNE;40230;43,68808506066128;-1,229853439853724;Crédit Agricole - Aquitaine
Relais CA RELAIS CA (Bistrot Lolo) - Talence;225 Route de Toulouse, 33400 Talence;33400;44,8073031;-0,5737175999999999;Crédit Agricole - Aquitaine
Relais CA RELAIS CA (TABAC PRESSE FDJ PMU LA SALAMANDRE) - Talence;31 Rue du Général Sarrail, 33400 Talence;33400;44,7987679;-0,5884155999999999;Crédit Agricole - Aquitaine
Agence bancaire TALENCE;229, Cours Gambetta, 33400 TALENCE;33400;44,81382;-0,589574;Crédit Agricole - Aquitaine
Agence bancaire TALENCE GALLIENI;52, Cours Gallieni, 33400 TALENCE;33400;44,824046;-0,591523;Crédit Agricole - Aquitaine
Agence bancaire TARGON;5, Place De L'Eglise, 33760 TARGON;33760;;;Crédit Agricole - Aquitaine
Agence bancaire TARNOS;1, Impasse Lahounit - RN 110, 40220 TARNOS;40220;43,535787;-1,460687;Crédit Agricole - Aquitaine
Agence bancaire TARNOS CARREFOUR;Galerie Marchande Carrefour RN 10, 40220 TARNOS;40220;43,524462;-1,464232;Crédit Agricole - Aquitaine
Agence bancaire TARNOS PLAGE;Avenue Julien Grimau, 40220 TARNOS;40220;43,54751;-1,48812;Crédit Agricole - Aquitaine
Agence bancaire TARTAS;129, Place Gambetta, 40400 TARTAS;40400;;;Crédit Agricole - Aquitaine
Relais CA RELAIS CA (LE COMPTOIR DU BOULANGER) - Tauriac;1 Rue de Monnet, 33710 Tauriac;33710;45,0494745;-0,5013641;Crédit Agricole - Aquitaine
Relais CA RELAIS CA (EPICERIE MARYSE REIMHERR) - Tayrac;AU BOURG, 47270 Tayrac;47270;44,197374;0,842116;Crédit Agricole - Aquitaine
Relais CA RELAIS CA (SPAR DE TERCIS) - Tercis-les-Bains;164 Rue du Lavoir, 40180 Tercis-les-Bains;40180;43,6691152;-1,1056658;Crédit Agricole - Aquitaine
Relais CA RELAIS CA (LA BOUCHERIE A LA CAMPAGNE) - Tizac-de-Lapouyade;Les Adams, 33620 Tizac-de-Lapouyade;33620;45,066003;-0,302515;Crédit Agricole - Aquitaine
Relais CA RELAIS CA (MLS PRADOUX) - Tombebœuf;Rue Principale, 47380 Tombebœuf;47380;44,5074692;0,4518548;Crédit Agricole - Aquitaine
Relais CA RELAIS CA (TABAC PASCALE MISPOULET) - Tombebœuf;BOURG, 47380 Tombebœuf;47380;44,507779;0,4520710000000001;Crédit Agricole - Aquitaine
Agence bancaire Espace Pro et Banque Privée Albret et Confluent;Place Jean Jaurès, 47400 TONNEINS;47400;44,3888776;0,3056047;Crédit Agricole - Aquitaine
Relais CA RELAIS CA (CHEZ NOUS) - Tonneins;8 Esplanade Saint-Pierre, 47400 Tonneins;47400;44,3849943;0,3163408;Crédit Agricole - Aquitaine
Relais CA RELAIS CA (TABAC PRESSE LOTO LE PETIT PARIS) - Tonneins;Cours de Verdun, 47400 Tonneins;47400;44,39521681169066;0,3103208541870117;Crédit Agricole - Aquitaine
Agence bancaire TONNEINS;Place Jean Jaurès, 47400 TONNEINS;47400;44,389056;0,308421;Crédit Agricole - Aquitaine
Relais CA RELAIS CA (TABAC PRESSE STEWEN VILLENAVE) - Tosse;42 Avenue du Général de Gaulle, 40230 Tosse;40230;43,69000399999999;-1,331797;Crédit Agricole - Aquitaine
Agence bancaire TOURNON (agence de repli : Libos);64, Place Croix Daniel, 47370 TOURNON D'AGENAIS;47370;;;Crédit Agricole - Aquitaine
Relais CA RELAIS CA (CHRISTOPHE MACALLI) - Trentels;AU BOURG, 47140 Trentels;47140;44,435692;0,861414;Crédit Agricole - Aquitaine
Relais CA RELAIS CA (TABAC PRESSE SNC JYPEM) - Tresses;7 Place Marronnier, 33370 Tresses;33370;44,84754779705719;-0,4635179042816162;Crédit Agricole - Aquitaine
Relais CA RELAIS CA (L'EPICERIE SALIGNACAISE) - Val-de-Virvée;92 Avenue de la République, 33240 Val-de-Virvée;33240;45,0151984;-0,3768889;Crédit Agricole - Aquitaine
Relais CA RELAIS CA (LE PANIER DU TOLZAC) - Varès;Le Bourg Europe, 47400 Varès;47400;44,42812573001969;0,3550815582275391;Crédit Agricole - Aquitaine
Agence bancaire VAYRES;64, Avenue De Libourne, 33870 VAYRES;33870;;;Crédit Agricole - Aquitaine
Relais CA RELAI CA (LE MONTABAC) - Vendays-Montalivet;2 Rue de Naujac, 33930 Vendays-Montalivet;33930;45,3782083;-1,1541807;Crédit Agricole - Aquitaine
Relais CA RELAIS CA (AU BON COIN) - Vendays-Montalivet;15 Place de l'Église, 33930 Vendays-Montalivet;33930;45,35661;-1,0607092;Crédit Agricole - Aquitaine
Relais CA RELAIS CA (LE MONTABAC) - Vendays-Montalivet;2 Rue de Naujac, 33930 Vendays-Montalivet;33930;45,3782083;-1,1541807;Crédit Agricole - Aquitaine
Relais CA RELAIS CA (FOURNIL DE NICOLAS ET CELINE) - Vensac;LE BOURG, 33590 Vensac;33590;45,397651;-1,040886;Crédit Agricole - Aquitaine
Relais CA RELAIS CA (LE FOURNIL DE NICOLAS ET CELINE) - Vensac;LE BOURG, 33590 Vensac;33590;45,397651;-1,040886;Crédit Agricole - Aquitaine
Relais CA RELAIS CA (BAR DE AZEVEDO-BORDES) - Verdelais;24 Place des Allées, 33490 Verdelais;33490;44,588143;-0,250469;Crédit Agricole - Aquitaine
Relais CA RELAIS CA (LES GAMINS) - Verdelais;24 Place des Allées, 33490 Verdelais;33490;44,588143;-0,250469;Crédit Agricole - Aquitaine
Relais CA RELAIS CA (LE PANIER DE MATHIEU) - Verteuil-d'Agenais;14 Place Alexis Audeon, 47260 Verteuil-d'Agenais;47260;44,4654107;0,414504;Crédit Agricole - Aquitaine
Relais CA RELAIS CA (EPICERIE DE LA BASTIDE) - Vianne;Rue de la Baïse, 47230 Vianne;47230;44,1963262;0,32116;Crédit Agricole - Aquitaine
Distributeur automatique de billets VIEILLE SAINT GIRONS (distributeur);PLACE DE LA MAIRIE, 40560 VIELLE SAINT GIRONS;40560;43,95008945620788;-1,298496175391725;Crédit Agricole - Aquitaine
Relais CA RELAIS CA (LA TABLE DES VIGNERONS) - Vignonet;27 RUE DARTUS, 33330 Vignonet;33330;44,84458114987172;-0,1464271545410156;Crédit Agricole - Aquitaine
Relais CA RELAIS CA (TABAC) - Villandraut;23 Place Gambetta, 33730 Villandraut;33730;44,4589618;-0,3719114;Crédit Agricole - Aquitaine
Relais CA RELAIS CA (SARL BEBOOP60 S) - Villefranche-du-Queyran;354 Grand Rue, 47160 Villefranche-du-Queyran;47160;44,308925;0,1968623;Crédit Agricole - Aquitaine
Relais CA RELAIS CA (SARL SAF) - Villefranche-du-Queyran;LE BOURG, 47160 Villefranche-du-Queyran;47160;44,31066615874434;0,1972113317947155;Crédit Agricole - Aquitaine
Agence bancaire VILLENAVE CHAMBERY;61, Route de Léognan Chambéry, 33140 VILLENAVE D'ORNON;33140;44,767378;-0,579945;Crédit Agricole - Aquitaine
Agence bancaire VILLENAVE D ORNON;556, Route De Toulouse, 33140 VILLENAVE D'ORNON;33140;44,782816;-0,56603;Crédit Agricole - Aquitaine
Agence bancaire VILLENEUVE DE MARSAN;Avenue Des Pyrénées, 40190 VILLENEUVE DE MARSAN;40190;;;Crédit Agricole - Aquitaine
Agence bancaire Espace Pro & Banque Privée du Villeneuvois;Boulevard Saint Cyr de Coquart, 47300 VILLENEUVE SUR LOT;47300;44,406407;0,7067108;Crédit Agricole - Aquitaine
Agence bancaire VILLENEUVE EYSSES;175, Avenue Du Général De Gaulle, 47300 VILLENEUVE SUR LOT;47300;44,417598;0,717203;Crédit Agricole - Aquitaine
Distributeur automatique de billets VILLENEUVE RUE DE PARIS (distributeur);RUE DE PARIS, 47300 VILLENEUVE SUR LOT;47300;44,4078665;0,7070931;Crédit Agricole - Aquitaine
Agence bancaire VILLENEUVE ST CYR;Boulevard Saint Cyr de Coquart, 47300 VILLENEUVE SUR LOT;47300;44,40687;0,709143;Crédit Agricole - Aquitaine
Agence bancaire VILLENEUVE VOLTAIRE;50, Boulevard Voltaire, 47300 VILLENEUVE SUR LOT;47300;44,404382;0,699617;Crédit Agricole - Aquitaine
Agence bancaire VILLEREAL;Place De La Poste, 47210 VILLEREAL;47210;;;Crédit Agricole - Aquitaine
Relais CA RELAIS CA (BOULANGERIE-PATISSE) - Ychoux;8 Rue Félix Arnaudin, 40160 Ychoux;40160;44,3280727;-0,9609219;Crédit Agricole - Aquitaine
Relais CA RELAIS CA (LOU CHOUREUT) - Ychoux;9 Rue Félix Arnaudin, 40160 Ychoux;40160;44,3284896;-0,9605074;Crédit Agricole - Aquitaine
Agence bancaire YGOS (Point Conseil);67 avenue St Saturnin, 40110 YGOS;40110;;;Crédit Agricole - Aquitaine
