nom;adresse;code_postal;latitude;longitude;region_source
Agence bancaire CAYENNE;Angle des rues GUISAN et HEDER, 97300 CAYENNE;97300;;;Crédit Agricole - Martinique Guyane
Agence bancaire DUCOS;Centre commercial LA SOURCE, 97224 DUCOS;97224;;;Crédit Agricole - Martinique Guyane
Agence bancaire FORT-DE-FRANCE - Cluny;Centre commercial CLUNY, 97200 FORT-DE-FRANCE;97200;14,620482;-61,083191;Crédit Agricole - Martinique Guyane
Agence bancaire LA ROTONDE;Angle rue Félix Éboué et Avenue des Caraïbes, 97200 FORT-DE-FRANCE;97200;14,604883;-61,067671;Crédit Agricole - Martinique Guyane
Agence bancaire GROS-MORNE;Angle des rues Jules Ferry et Paul NAZAIRE, 97213 GROS-MORNE;97213;;;Crédit Agricole - Martinique Guyane
Agence bancaire EFICAM MARTINIQUE;21 Rue Case Nègres - Place d'Armes, 97232 LAMENTIN;97232;14,59488005;-60,98579407;Crédit Agricole - Martinique Guyane
Agence bancaire LAMENTIN - La Galléria;Centre commercial La Galléria, 97232 LAMENTIN;97232;14,619399;-61,020759;Crédit Agricole - Martinique Guyane
Agence bancaire LAMENTIN - Place d'Armes;Centre commercial de Place d'armes, 97232 LAMENTIN;97232;14,613844;-60,992759;Crédit Agricole - Martinique Guyane
Agence bancaire LAMENTIN - rue Schoelcher;46, Rue schoelcher, 97232 LAMENTIN;97232;14,615253;-61,00248;Crédit Agricole - Martinique Guyane
Agence bancaire FRANCOIS;22 Rue Homere Clement, 97240 Le François;97240;;;Crédit Agricole - Martinique Guyane
Agence bancaire LORRAIN;46, rue Schoelcher, 97214 LORRAIN;97214;;;Crédit Agricole - Martinique Guyane
Agence bancaire MARIN;Quartier Montgérald, 97290 MARIN;97290;;;Crédit Agricole - Martinique Guyane
Agence bancaire EFICAM GUYANE;Centre commercial Family Zone de Terca, 97351 Matoury;97351;4,847214;-52,33112;Crédit Agricole - Martinique Guyane
Agence bancaire MATOURY;Centre Commercial Family Plaza Zone deTerca, 97351 MATOURY;97351;4,847214;-52,33112;Crédit Agricole - Martinique Guyane
Agence bancaire REMIRE-MONTJOLY;Centre Commercial Beauregard, 97354 REMIRE-MONTJOLY;97354;;;Crédit Agricole - Martinique Guyane
Agence bancaire RIVIERE-PILOTE;Rue Victor Hugo, 97211 RIVIERE-PILOTE;97211;;;Crédit Agricole - Martinique Guyane
Agence bancaire RIVIERE-SALEE;227 Allée de l'Espérance - La Laugier, 97215 RIVIERE-SALEE;97215;;;Crédit Agricole - Martinique Guyane
Agence bancaire ROBERT;Mansarde Catalogne, 97231 ROBERT;97231;;;Crédit Agricole - Martinique Guyane
Agence bancaire SAINT-ESPRIT;Rue du Capitaine Pierre-Rose, 97270 SAINT-ESPRIT;97270;;;Crédit Agricole - Martinique Guyane
Agence bancaire SAINT-JOSEPH;Rue Ernest Deproge, 97212 SAINT-JOSEPH;97212;;;Crédit Agricole - Martinique Guyane
Agence bancaire SAINT-LAURENT DU MARONI;Avenue Gaston Monnerville, Centre commercial Hyper U, 97320 Saint-Laurent-du-Maroni;97320;;;Crédit Agricole - Martinique Guyane
Agence bancaire SAINT-PIERRE;Rue Victor Hugo, 97250 SAINT-PIERRE;97250;;;Crédit Agricole - Martinique Guyane
Agence bancaire SAINTE-MARIE;Rue du Commerce, 97230 SAINTE-MARIE;97230;;;Crédit Agricole - Martinique Guyane
Agence bancaire KALYSTA;RDC du Bloc B Résidence KALYSTA Rond-Point de l'Anse GOURAUD, 97233 SCHOELCHER;97233;;;Crédit Agricole - Martinique Guyane
Agence bancaire TRINITE;5, Rue Pierre et Maurice Réjon, 97220 TRINITE;97220;;;Crédit Agricole - Martinique Guyane
Agence bancaire TROIS-ILETS - Marina;Village Créole, 97229 TROIS-ILETS;97229;;;Crédit Agricole - Martinique Guyane
