nom;adresse;code_postal;latitude;longitude;region_source
Relais CA JUEST - Andel;8 Rue Abbé Hingant, 22400 Andel;22400;48,4911615;-2,567502;Crédit Agricole - Cotes D Armor
Agence bancaire de Ploubalay;10 Place de la Nuit du 6 Août 1944, 22650 Beaussais-sur-Mer;22650;;;Crédit Agricole - Cotes D Armor
Agence bancaire Crédit Agricole de Belle-Isle-en-Terre;16 rue Pont Cunuder, 22810 Belle-Isle-en-Terre;22810;;;Crédit Agricole - Cotes D Armor
Agence bancaire Crédit Agricole de Bégard;19 rue de l'Hôtel de Ville, 22140 Bégard;22140;;;Crédit Agricole - Cotes D Armor
Agence bancaire Crédit Agricole de Binic;9 Place le Pommelec, 22520 Binic;22520;;;Crédit Agricole - Cotes D Armor
Relais CA A L'OUEST - Bon Repos sur Blavet;11 Rue du Kreiz Ker, 22570 Bon Repos sur Blavet;22570;48,1757236;-3,1571441;Crédit Agricole - Cotes D Armor
Agence bancaire Crédit Agricole de Bourbriac;25 rue d Armor, 22390 Bourbriac;22390;;;Crédit Agricole - Cotes D Armor
Relais CA SORIN ISABELLE - Bourseul;13 Rue Châteaubriand, 22130 Bourseul;22130;48,4878817;-2,2586375;Crédit Agricole - Cotes D Armor
Relais CA JEGAT OLIVIER - Bréhand;1 Rue de Penthièvre, 22510 Bréhand;22510;48,4027312;-2,5739096;Crédit Agricole - Cotes D Armor
Agence bancaire Crédit Agricole de Broons;8 Place du Docteur Laurent, 22250 Broons;22250;;;Crédit Agricole - Cotes D Armor
Relais CA CH'TY-COZ - Bulat-Pestivien;1 Plasenn ar Skol, 22160 Bulat-Pestivien;22160;48,42831899999999;-3,3307993;Crédit Agricole - Cotes D Armor
Agence bancaire Crédit Agricole de Callac;Rue du Docteur Le Quéré, 22160 Callac;22160;;;Crédit Agricole - Cotes D Armor
Relais CA LE PORS LE GAC - Carnoët;1 Rue de la Poste, 22160 Carnoët;22160;48,368144;-3,5207689;Crédit Agricole - Cotes D Armor
Relais CA TY KOR - LA VALLEE DES SAINTS - Carnoët;2 Rue Principale, 22160 Carnoët;22160;48,3678479;-3,520245;Crédit Agricole - Cotes D Armor
Agence bancaire Crédit Agricole de Caulnes;13 rue de la Gare, 22350 Caulnes;22350;;;Crédit Agricole - Cotes D Armor
Agence bancaire Crédit Agricole de Cavan;2 rue du Général de Gaulle, 22140 Cavan;22140;;;Crédit Agricole - Cotes D Armor
Agence bancaire Crédit Agricole de Châtelaudren;8 place de la République, 22170 Châtelaudren;22170;;;Crédit Agricole - Cotes D Armor
Relais CA CHEZ JENNY - Cohiniac;1 Rue de la Poste, 22800 Cohiniac;22800;48,4619045;-2,9494938;Crédit Agricole - Cotes D Armor
Agence bancaire Crédit Agricole de Le Mené Collinée;14 rue du Mené, 22330 Collinée;22330;;;Crédit Agricole - Cotes D Armor
Agence bancaire Crédit Agricole de Corlay;5 Place Sidonie Carrière, 22320 Corlay;22320;;;Crédit Agricole - Cotes D Armor
Relais CA E.U.R.L. DELAMBILY - Créhen;1 Rue Guy Homery, 22130 Créhen;22130;48,5462254;-2,2137779;Crédit Agricole - Cotes D Armor
Agence bancaire Crédit Agricole de Dinan;1 rue Lord Kitchener, 22100 Dinan;22100;48,4540245;-2,0517534;Crédit Agricole - Cotes D Armor
Agence bancaire Crédit Agricole de Dinan Merciers;4 Place des Merciers, 22100 Dinan;22100;48,4536428;-2,0439025;Crédit Agricole - Cotes D Armor
Relais CA GAUMERAIS JOSIANNE - Dinan;Rue Châteaubriand, 22100 Dinan;22100;48,4492402;-2,0471927;Crédit Agricole - Cotes D Armor
Agence bancaire Crédit Agricole de Léhon;Centre commercial, route de Caulnes, 22100 Dinan Léhon;22100;;;Crédit Agricole - Cotes D Armor
Agence bancaire Crédit Agricole d'Erquy;Place du Nouvel Oupeye, 22430 Erquy;22430;;;Crédit Agricole - Cotes D Armor
Agence bancaire Crédit Agricole de Étables-Sur-Mer;11 Place Jean Heurtel, 22680 Etables-Sur-Mer;22680;;;Crédit Agricole - Cotes D Armor
Agence bancaire Crédit Agricole de Evran;Rue de la Libération, 22630 Evran;22630;;;Crédit Agricole - Cotes D Armor
Relais CA KAP'TIPHAINE - Fréhel;9 Place de Chambly, 22240 Fréhel;22240;48,6284347;-2,3655686;Crédit Agricole - Cotes D Armor
Relais CA CHEZ L'AMI - Gausson;Le Bourg, 22150 Gausson;22150;48,30022;-2,754721;Crédit Agricole - Cotes D Armor
Agence bancaire Crédit Agricole de Gouarec;5 rue Moulin, 22570 Gouarec;22570;;;Crédit Agricole - Cotes D Armor
Relais CA VIVAL - Goudelin;3 Rue d'Armor, 22290 Goudelin;22290;48,60496;-3,0174954;Crédit Agricole - Cotes D Armor
Relais CA LE CAFE GRACIEUX - Grâce-Uzel;1 Rue du Lin, 22460 Grâce-Uzel;22460;48,240992;-2,801724;Crédit Agricole - Cotes D Armor
Relais CA LE SHOOTER - Grâces;27 Rue de l'Église, 22200 Grâces;22200;48,5568623;-3,1856038;Crédit Agricole - Cotes D Armor
Agence bancaire Crédit Agricole de Guingamp;1 boulevard de la Marne, 22200 Guingamp;22200;48,558407;-3,144158;Crédit Agricole - Cotes D Armor
Agence bancaire Crédit Agricole de Guingamp Saint-Michel;3 rue Saint-Michel, 22200 Guingamp;22200;48,5609987;-3,1578843;Crédit Agricole - Cotes D Armor
Relais CA LE P TIT BISTROT - Guitté;4 place de l'eglise guitte, 22350 Guitté;22350;48,2672612;-2,066141;Crédit Agricole - Cotes D Armor
Relais CA LA FORGE - Gurunhuel;KERAMBELLEC, 22390 Gurunhuel;22390;48,51579;-3,299461;Crédit Agricole - Cotes D Armor
Relais CA LASSALLE DIDIER - Hémonstoir;4 Rue Pacifique le Hello, 22600 Hémonstoir;22600;48,1585904;-2,8305858;Crédit Agricole - Cotes D Armor
Relais CA LE GOFF OLIVIER - Hénanbihen;Rue de la Libération, 22550 Hénanbihen;22550;48,5572622;-2,3808082;Crédit Agricole - Cotes D Armor
Agence bancaire Crédit Agricole de Hillion;2 Place de l'Eglise, 22120 Hillion;22120;;;Crédit Agricole - Cotes D Armor
Relais CA BREHAT SERVICES - Île-de-Bréhat;Le Bourg, 22870 Île-de-Bréhat;22870;48,8453477;-2,9996309;Crédit Agricole - Cotes D Armor
Agence bancaire Crédit Agricole de Jugon-Les-Lacs;1 rue du Bourgneuf, 22270 Jugon-les-Lacs Commune Nouvelle;22270;;;Crédit Agricole - Cotes D Armor
Relais CA EPI-SERVICES - Kergrist-Moëlou;Rue des Anciens Combattants, 22110 Kergrist-Moëlou;22110;48,3092197;-3,3177249;Crédit Agricole - Cotes D Armor
Relais CA LA CALE SECHE - Kermaria-Sulard;1 Rue de la Mairie, 22450 Kermaria-Sulard;22450;48,7714857;-3,3710374;Crédit Agricole - Cotes D Armor
Relais CA L'EMBUSCADE - Kermoroc'h;1 Rue de la Poste, 22140 Kermoroc'h;22140;48,6226007;-3,2066747;Crédit Agricole - Cotes D Armor
Relais CA COOP LA PAYSANNE - La Bouillie;Rue du Chemin Chaussée, 22240 La Bouillie;22240;48,5706399;-2,4357147;Crédit Agricole - Cotes D Armor
Agence bancaire Crédit Agricole de La Chèze;1 rue de Josselin, 22210 La Chèze;22210;;;Crédit Agricole - Cotes D Armor
Relais CA AU BISTROT GOURMAND - La Malhoure;1 rue de l'église, 22640 La Malhoure;22640;48,396047;-2,495161;Crédit Agricole - Cotes D Armor
Relais CA LE RELAIS - La Motte;19 Rue de la Croix Jartel, 22600 La Motte;22600;48,2295317;-2,7296599;Crédit Agricole - Cotes D Armor
Relais CA NOLF SKRZYPCZAK - La Prénessaye;1 Rue de l'Église, 22210 La Prénessaye;22210;48,1829119;-2,6346366;Crédit Agricole - Cotes D Armor
Agence bancaire Crédit Agricole de La Roche Derrien;5 rue aux Toiles, 22450 La Roche Derrien;22450;;;Crédit Agricole - Cotes D Armor
Relais CA LE BIZIEN - La Roche-Jaudy;1 Rue du Bizien, 22450 La Roche-Jaudy;22450;48,764256;-3,198749;Crédit Agricole - Cotes D Armor
Relais CA LE JAUDY - La Roche-Jaudy;21 Rue de l'Église, 22450 La Roche-Jaudy;22450;48,7316525;-3,2422544;Crédit Agricole - Cotes D Armor
Relais CA SNC LA POINTE - La Vicomté-sur-Rance;1 Rue de la Mairie, 22690 La Vicomté-sur-Rance;22690;48,4856723;-1,9840752;Crédit Agricole - Cotes D Armor
Agence bancaire Crédit Agricole de Lamballe;18 Rue Saint-Jean, 22400 Lamballe;22400;48,4684356;-2,5171761;Crédit Agricole - Cotes D Armor
Agence bancaire Crédit Agricole de Lamballe Leclerc;66 rue Mouexigné, 22400 Lamballe;22400;48,4606806;-2,5139503;Crédit Agricole - Cotes D Armor
Relais CA ETS BERTRO SERGE - Lamballe-Armor;Le Bourg, 22400 Lamballe-Armor;22400;48,4815858;-2,5026995;Crédit Agricole - Cotes D Armor
Relais CA LMN - Lamballe-Armor;4 Rue Col Halna du Fretay, 22400 Lamballe-Armor;22400;48,4402975;-2,541337;Crédit Agricole - Cotes D Armor
Relais CA NOUVELLE COOP PAYSANNE D'ERQUY - Lamballe-Armor;7 La Clôture, 22400 Lamballe-Armor;22400;48,5287999;-2,5801094;Crédit Agricole - Cotes D Armor
Relais CA PROXI - Lancieux;14 Rue du Poncel, 22770 Lancieux;22770;48,6060828;-2,150408;Crédit Agricole - Cotes D Armor
Relais CA LE P'TIT GUIHEN - Landéhen;2 Place du Bourg, 22400 Landéhen;22400;48,4290652;-2,5390723;Crédit Agricole - Cotes D Armor
Relais CA LE RELAIS DE LANFAINS - Lanfains;1 Place Saint-Guyganton, 22800 Lanfains;22800;48,3527977;-2,9136251;Crédit Agricole - Cotes D Armor
Relais CA LE DORIS - Langrolay-sur-Rance;12 Rue de la ville Chevalier, 22490 Langrolay-sur-Rance;22490;48,5529069;-2,0079495;Crédit Agricole - Cotes D Armor
Relais CA NOUVELLE COOP PAYSANNE D ERQUY - Languenan;LA GARE, 22130 Languenan;22130;48,5111599;-2,126754;Crédit Agricole - Cotes D Armor
Agence bancaire Crédit Agricole de Langueux;4 rue de Rennes, 22360 Langueux;22360;;;Crédit Agricole - Cotes D Armor
Relais CA BAR DES SPORTS - Languédias;Bourg, 22980 Languédias;22980;48,387661;-2,2130679;Crédit Agricole - Cotes D Armor
Relais CA LE RELAIS DE LANMODEZ - Lanmodez;5 Rue de la Mairie, 22610 Lanmodez;22610;48,841726;-3,107031;Crédit Agricole - Cotes D Armor
Agence bancaire Crédit Agricole de Lannion;10 allée du Palais de Justice, 22300 Lannion;22300;48,728925;-3,458425;Crédit Agricole - Cotes D Armor
Agence bancaire Crédit Agricole de Lannion Bel Air;116 Rue des Frères Lagadec - Bel Air, 22300 Lannion;22300;48,7219188;-3,4803632;Crédit Agricole - Cotes D Armor
Agence bancaire Crédit Agricole de Lannion Saint-Marc;Zone commerciale St Marc - Route de Treguier, 22300 Lannion;22300;48,733671;-3,438641;Crédit Agricole - Cotes D Armor
Relais CA LE VIEUX SERVEL - Lannion;5 Rue de Kerbabu, 22300 Lannion;22300;48,7466277;-3,4883579;Crédit Agricole - Cotes D Armor
Relais CA LE SAVOIR BRETON - Lanrelas;7 Rue du Centre, 22250 Lanrelas;22250;48,2522524;-2,294286500000001;Crédit Agricole - Cotes D Armor
Relais CA GUBAN JEROME - Lanrivain;Broug, 22480 Lanrivain;22480;48,347385;-3,215216;Crédit Agricole - Cotes D Armor
Relais CA ETS      YACHIR ANGELIQUE - Lanrodec;15 Rue des Écoliers, 22170 Lanrodec;22170;48,51671959999999;-3,0303993;Crédit Agricole - Cotes D Armor
Relais CA LE BISTROT - Lanrodec;15 Rue des Écoliers, 22170 Lanrodec;22170;48,51671959999999;-3,0303993;Crédit Agricole - Cotes D Armor
Relais CA LA CERES - Lantic;NOTRE DAME DE LA COUR, 22410 Lantic;22410;48,606233;-2,882445;Crédit Agricole - Cotes D Armor
Agence bancaire Crédit Agricole de Lanvallay;1 rue de Rennes, 22100 Lanvallay;22100;;;Crédit Agricole - Cotes D Armor
Agence bancaire Crédit Agricole de Lanvollon;11 Rue des Fontaines, 22290 Lanvollon;22290;;;Crédit Agricole - Cotes D Armor
Relais CA L'ARPEGE - Le Hinglé;19 Rue des Granits, 22100 Le Hinglé;22100;48,4074106;-2,084239;Crédit Agricole - Cotes D Armor
Relais CA BAR DES SPORTS - Le Mené;Rue du 6 Août, 22330 Le Mené;22330;48,3283527;-2,487548;Crédit Agricole - Cotes D Armor
Relais CA TABAC PRESSE LOTO - Le Mené;4 Place de l'Église, 22330 Le Mené;22330;48,2763863;-2,6187819;Crédit Agricole - Cotes D Armor
Relais CA LE MARCHOIS - Le Vieux-Marché;2 Place Angela Duval, 22420 Le Vieux-Marché;22420;48,60757659999999;-3,449726;Crédit Agricole - Cotes D Armor
Agence bancaire Crédit Agricole de Lézardrieux;Place du Centre, 22740 Lézardrieux;22740;;;Crédit Agricole - Cotes D Armor
Relais CA LE MOJITO - Loguivy-Plougras;16 Place de l'Église, 22780 Loguivy-Plougras;22780;48,5206902;-3,487784;Crédit Agricole - Cotes D Armor
Relais CA L'ARMORIQUE - Louargat;24 Avenue des Prunus, 22540 Louargat;22540;48,5663434;-3,3376086;Crédit Agricole - Cotes D Armor
Agence bancaire Crédit Agricole de Loudéac;51 rue Notre Dame, 22600 Loudéac;22600;48,1768391;-2,7504374;Crédit Agricole - Cotes D Armor
Agence bancaire Crédit Agricole de Loudéac Ker d'Hervé;17 rue Daniel Gemy, 22600 Loudéac;22600;48,1903813;-2,7600306;Crédit Agricole - Cotes D Armor
Relais CA BARA MEL - MAEL-PESTIVIEN;6 PLACE DE L EGLISE, 22160 MAEL-PESTIVIEN;22160;-3,296311030685224;48,39473618324614;Crédit Agricole - Cotes D Armor
Agence bancaire Crédit Agricole de Maël-Carhaix;4 rue de Rostrenen, 22340 Maël-Carhaix;22340;;;Crédit Agricole - Cotes D Armor
Agence bancaire Crédit Agricole de Matignon;4 place Rioust Villes Audrain, 22550 Matignon;22550;;;Crédit Agricole - Cotes D Armor
Agence bancaire Crédit Agricole de Merdrignac;22 Rue Philippe Lemercier, 22230 Merdrignac;22230;;;Crédit Agricole - Cotes D Armor
Agence bancaire Crédit Agricole de Moncontour;7 rue Saint-Jean, 22510 Moncontour;22510;;;Crédit Agricole - Cotes D Armor
Agence bancaire Crédit Agricole de Mûr-de-Bretagne;4 rue de la Gare, 22530 Mûr-de-Bretagne Guerlédan;22530;;;Crédit Agricole - Cotes D Armor
Relais CA ILLIEN FRANCK - Pabu;26 Rue de l'Armor, 22200 Pabu;22200;48,5662344;-3,1435985;Crédit Agricole - Cotes D Armor
Agence bancaire Crédit Agricole de Paimpol;6 place de Bretagne, 22500 Paimpol;22500;;;Crédit Agricole - Cotes D Armor
Agence bancaire Crédit Agricole de Penvenan;1 place de l'Eglise, 22710 Penvenan;22710;;;Crédit Agricole - Cotes D Armor
Agence bancaire Crédit Agricole de Perros-Guirec;9 place de l'Eglise, 22700 Perros-Guirec;22700;;;Crédit Agricole - Cotes D Armor
Relais CA BAR DES SPORTS - Pédernec;9 Place de l'Église, 22540 Pédernec;22540;48,597062;-3,2706922;Crédit Agricole - Cotes D Armor
Relais CA PLENALT' CAFE - Plaine-Haute;1 Route de Sainte-Anne, 22800 Plaine-Haute;22800;48,4460145;-2,8544888;Crédit Agricole - Cotes D Armor
Agence bancaire Crédit Agricole de Plaintel;Place d'Armes, 22940 Plaintel;22940;;;Crédit Agricole - Cotes D Armor
Agence bancaire Crédit Agricole de Plancoët;2 rue de Dinard, 22130 Plancoët;22130;;;Crédit Agricole - Cotes D Armor
Agence bancaire Crédit Agricole de Plenée-Jugon;44 rue du Général de Gaulle, 22640 Plenée-Jugon;22640;;;Crédit Agricole - Cotes D Armor
Relais CA LE PARADISIO - Pleslin-Trigavou;6 Rue Julien Lesaichot, 22490 Pleslin-Trigavou;22490;48,53241320000001;-2,0578204;Crédit Agricole - Cotes D Armor
Relais CA LE PARIS BREST - Plestan;16 Rue des 31 Martyrs, 22640 Plestan;22640;48,4212658;-2,4438913;Crédit Agricole - Cotes D Armor
Agence bancaire Crédit Agricole de Plestin-Les-Grèves;14 rue Kergus, 22310 Plestin-Les-Grèves;22310;;;Crédit Agricole - Cotes D Armor
Agence bancaire Crédit Agricole de Pleubian;10 route de Pleumeur, 22610 Pleubian;22610;;;Crédit Agricole - Cotes D Armor
Agence bancaire Crédit Agricole de Pleudihen;11 Place de l'Eglise, 22690 Pleudihen;22690;;;Crédit Agricole - Cotes D Armor
Relais CA LE NAUTIC - Pleumeur-Bodou;LANDRELLEC, 22560 Pleumeur-Bodou;22560;48,775764;-3,5296653;Crédit Agricole - Cotes D Armor
Relais CA LE CELLIER - Plédéliac;1 Rue d'Armor, 22270 Plédéliac;22270;48,4484327;-2,3880973;Crédit Agricole - Cotes D Armor
Relais CA LES PLEDELICES - Plédéliac;12 Rue d'Armor, 22270 Plédéliac;22270;48,4498306;-2,3884749;Crédit Agricole - Cotes D Armor
Agence bancaire Crédit Agricole de Plédran;17 rue du Centre, 22960 Plédran;22960;;;Crédit Agricole - Cotes D Armor
Relais CA BAR DES SPORTS - Pléhédel;Rue Saint-Fiacre, 22290 Pléhédel;22290;48,6946476;-3,0065256;Crédit Agricole - Cotes D Armor
Agence bancaire Crédit Agricole de Plélan-le-Petit;5 place de l Eglise, 22270 Plélan-Le-Petit;22270;;;Crédit Agricole - Cotes D Armor
Agence bancaire Crédit Agricole de Plémet;2 rue Ferdinand Le Teno, 22210 Plémet;22210;;;Crédit Agricole - Cotes D Armor
Relais CA S A R L SOCIETE VALO REGIS - Plémy;3 Rue de la Liberté, 22150 Plémy;22150;48,3356596;-2,680955;Crédit Agricole - Cotes D Armor
Agence bancaire Crédit Agricole de Pléneuf-Val-André;6 rue du Maréchal Foch, 22370 Pléneuf-Val-André;22370;;;Crédit Agricole - Cotes D Armor
Agence bancaire Crédit Agricole de Plérin;12 rue de la Vallée, 22190 Plérin;22190;48,5341986;-2,772044599999958;Crédit Agricole - Cotes D Armor
Agence bancaire Crédit Agricole de Plérin l'Arrivée;1 bis rue de l'Arrivée, 22190 Plérin;22190;48,54879249;-2,792724345;Crédit Agricole - Cotes D Armor
Relais CA LE PICLOT - Pléven;6 Rue François Mitterrand, 22130 Pléven;22130;48,4901361;-2,3163894;Crédit Agricole - Cotes D Armor
Relais CA CREPERIE LE CAP FREHEL CAFE BAR - Plévenon;6 Place de l'Église, 22240 Plévenon;22240;48,6546885;-2,3323412;Crédit Agricole - Cotes D Armor
Relais CA TI-MAD - Ploëzal;15 Rue du Goëlo, 22260 Ploëzal;22260;48,71676009999999;-3,2019509;Crédit Agricole - Cotes D Armor
Agence bancaire Crédit Agricole de Plouaret;32 rue du Stade, 22420 Plouaret;22420;;;Crédit Agricole - Cotes D Armor
Relais CA LE GALION - Ploubazlanec;19 Rue Gén de Gaulle, 22620 Ploubazlanec;22620;48,8008214;-3,0312192;Crédit Agricole - Cotes D Armor
Relais CA L'OASIS - Plouégat-Moysan;Rue Hent Ti Ker, 29650 Plouégat-Moysan;29650;48,5717461;-3,6100087;Crédit Agricole - Cotes D Armor
Agence bancaire Crédit Agricole de Plouézec;ZA de Keravel, 22490 Plouézec;22490;;;Crédit Agricole - Cotes D Armor
Agence bancaire Crédit Agricole de Plouër-Sur-Rance;ZA Les Landes, 22490 Plouër-Sur-Rance;22490;;;Crédit Agricole - Cotes D Armor
Agence bancaire Crédit Agricole Agence Entreprises;9 rue du Plan La Croix Tual, 22440 Ploufragan;22440;48,49240698;-2,811083794;Crédit Agricole - Cotes D Armor
Agence bancaire Crédit Agricole Agence de Ploufragan;14 rue de la Fontaine Morin, 22440 Ploufragan;22440;48,4923879;-2,7953316;Crédit Agricole - Cotes D Armor
Relais CA LE POINT DE CHUTE - Plougras;2 Plasenn an Ti Ker, 22780 Plougras;22780;48,5108293;-3,5614214;Crédit Agricole - Cotes D Armor
Relais CA SEE MEHEUT - Plougrescant;HENT GARDEN POST, 22820 Plougrescant;22820;48,841945;-3,227984;Crédit Agricole - Cotes D Armor
Agence bancaire Crédit Agricole de Plouguenast;Place de l'Eglise, 22150 Plouguenast;22150;;;Crédit Agricole - Cotes D Armor
Relais CA ROBERT LUCAS SYLVIE - Plouguenast-Langast;Bourg, 22150 Plouguenast-Langast;22150;48,2802407;-2,7033877;Crédit Agricole - Cotes D Armor
Relais CA L'YRIS - Plouguernével;1 Route de Locoal, 22110 Plouguernével;22110;48,2393158;-3,2520233;Crédit Agricole - Cotes D Armor
Agence bancaire Crédit Agricole de Plouha;12 avenue Laënnec, 22580 Plouha;22580;;;Crédit Agricole - Cotes D Armor
Relais CA LE TADIC SYLVAIN ROBERT - Ploumagoar;5 Place du 8 Mai 1945, 22970 Ploumagoar;22970;48,54460659999999;-3,1322561;Crédit Agricole - Cotes D Armor
Agence bancaire Crédit Agricole de Ploumilliau;1 rue des Ecoles, 22300 Ploumilliau;22300;;;Crédit Agricole - Cotes D Armor
Relais CA LE CARRE D'AS - Plounévez-Moëdec;22 Rue Jean Baptiste le Corre, 22810 Plounévez-Moëdec;22810;48,5566945;-3,4450951;Crédit Agricole - Cotes D Armor
Relais CA SNC MELYM - Plourac'h;14 Rue de l'Argoat, 22160 Plourac'h;22160;48,4167254;-3,5479199;Crédit Agricole - Cotes D Armor
Relais CA EIRL RUELLO SYLVIANE - Plourhan;10 Place de la Victoire, 22410 Plourhan;22410;48,6309202;-2,871004;Crédit Agricole - Cotes D Armor
Relais CA SARL CLARALOU - Plourivo;12 Rue Yves Marie Lagadec, 22860 Plourivo;22860;48,7446722;-3,07014;Crédit Agricole - Cotes D Armor
Relais CA LE SAINT PIERRE - Plouvara;16 Place de l'Église, 22170 Plouvara;22170;48,5072486;-2,9153113;Crédit Agricole - Cotes D Armor
Relais CA AUX COMPTOIRS - Plufur;1 Rue Joliot Curie, 22310 Plufur;22310;48,6088871;-3,5752734;Crédit Agricole - Cotes D Armor
Relais CA HERVE ANTHONY - Plufur;1 Rue Joliot Curie, 22310 Plufur;22310;48,6088871;-3,5752734;Crédit Agricole - Cotes D Armor
Relais CA PLUM'CAFE - Plumaudan;6 Rue du Champ de Foire, 22350 Plumaudan;22350;48,3571326;-2,1256599;Crédit Agricole - Cotes D Armor
Relais CA VIVECO - Plumaugat;1 Rue de Saint-Méen le Grand, 22250 Plumaugat;22250;48,2549248;-2,2383667;Crédit Agricole - Cotes D Armor
Relais CA KILLIAN'S BAR - Plumieux;8 Rue de l'Argoat, 22210 Plumieux;22210;48,1021687;-2,5828854;Crédit Agricole - Cotes D Armor
Relais CA KILLIAN'S BAR - Plumieux;8 Rue de l'Argoat, 22210 Plumieux;22210;48,1021687;-2,5828854;Crédit Agricole - Cotes D Armor
Relais CA ORIGIN'BIO - Plurien;1 Rue des Artisans, 22240 Plurien;22240;48,6216011;-2,4021073;Crédit Agricole - Cotes D Armor
Relais CA SARL LOAS - Pluzunet;4 Place Marc'harit Fulup, 22140 Pluzunet;22140;48,6414671;-3,3718861;Crédit Agricole - Cotes D Armor
Agence bancaire Crédit Agricole de Plœuc-l'Hermitage;12 Place Louis Morel, 22150 Plœuc-l'Hermitage;22150;;;Crédit Agricole - Cotes D Armor
Relais CA HALLE DIS - Pommeret;6 Place de la Résistance, 22120 Pommeret;22120;48,4633282;-2,6266406;Crédit Agricole - Cotes D Armor
Agence bancaire Crédit Agricole de Pontrieux;2 place de la Liberté, 22260 Pontrieux;22260;;;Crédit Agricole - Cotes D Armor
Agence bancaire Crédit Agricole de Pordic;2 rue de l'Ic, 22590 Pordic;22590;;;Crédit Agricole - Cotes D Armor
Relais CA CHEZ ISA ET BENOIT - Prat;1 Place de l'Église, 22140 Prat;22140;48,6765894;-3,2977464;Crédit Agricole - Cotes D Armor
Relais CA LE DIGARCHER SARAH - Quemper-Guézennec;3 Place de la Mairie, 22260 Quemper-Guézennec;22260;48,7043031;-3,1062833;Crédit Agricole - Cotes D Armor
Agence bancaire Crédit Agricole de Quessoy;Place de l'Eglise, 22120 Quessoy;22120;;;Crédit Agricole - Cotes D Armor
Relais CA COMPTOIR N 7 - Quévert;7 Rue de la Violette, 22100 Quévert;22100;48,4617027;-2,0675889;Crédit Agricole - Cotes D Armor
Agence bancaire Crédit Agricole de Quintin;1 place 1830, 22800 Quintin;22800;;;Crédit Agricole - Cotes D Armor
Relais CA FANTINO GOUSSET - Rospez;8 Place du Centre, 22300 Rospez;22300;48,7289575;-3,3853816;Crédit Agricole - Cotes D Armor
Agence bancaire Crédit Agricole de Rostrenen;3 place Porz Moëlou, 22110 Rostrenen;22110;;;Crédit Agricole - Cotes D Armor
Relais CA LE P TIT DEPANNEUR - Rouillac;5 Rue du Vieux Chêne, 22250 Rouillac;22250;48,3089419;-2,364569;Crédit Agricole - Cotes D Armor
Agence bancaire Crédit Agricole de Saint-Brieuc Beaufeuillage;31 rue de Paris, 22000 Saint-Brieuc;22000;48,504908;-2,7431126;Crédit Agricole - Cotes D Armor
Agence bancaire Crédit Agricole de Saint-Brieuc Cesson;78 rue de la République, 22000 Saint-Brieuc;22000;48,5217525;-2,7291519;Crédit Agricole - Cotes D Armor
Agence bancaire Crédit Agricole de Saint-Brieuc Les Villages;4 rue de Cornouaille, 22000 Saint-Brieuc;22000;48,5187231;-2,7913402;Crédit Agricole - Cotes D Armor
Agence bancaire Crédit Agricole de Saint-Brieuc Robien;34 rue Jules Ferry, 22000 Saint-Brieuc;22000;48,5048811;-2,7670126;Crédit Agricole - Cotes D Armor
Agence bancaire Crédit Agricole de Saint-Brieuc du Guesclin;23 Place du Guesclin, 22000 Saint-Brieuc;22000;48,5109017;-2,7588249;Crédit Agricole - Cotes D Armor
Agence bancaire Crédit Agricole de Saint-Brieuc la Grille;23 Place du Guesclin, 22000 Saint-Brieuc;22000;48,5109816;-2,7585742;Crédit Agricole - Cotes D Armor
Relais CA CHEZ JEAN - Saint-Caradec;6 Place du Champ de Foire, 22600 Saint-Caradec;22600;48,19168879999999;-2,85026;Crédit Agricole - Cotes D Armor
Relais CA SERVAD - Saint-Caradec;8 Place du Champ de Foire, 22600 Saint-Caradec;22600;48,1917672;-2,8504332;Crédit Agricole - Cotes D Armor
Relais CA LE KAR'KOI - Saint-Carreuc;5 Place de l'Église, 22150 Saint-Carreuc;22150;48,3984473;-2,7313144;Crédit Agricole - Cotes D Armor
Agence bancaire Crédit Agricole de St-Cast-Le-Guildo;15 boulevard Duponchel, 22380 Saint-Cast-Le-Guildo;22380;;;Crédit Agricole - Cotes D Armor
Relais CA SARL MAMM'ZELLE - Saint-Clet;2 Place d'Armor, 22260 Saint-Clet;22260;48,66464269999999;-3,1324591;Crédit Agricole - Cotes D Armor
Relais CA BAR A BREIZH - Saint-Connan;6 Rue de la Mairie, 22480 Saint-Connan;22480;48,4174647;-3,06363;Crédit Agricole - Cotes D Armor
Relais CA LE BAR A BREIZH - Saint-Connan;6 Rue de la Mairie, 22480 Saint-Connan;22480;48,4174647;-3,06363;Crédit Agricole - Cotes D Armor
Relais CA LE SAINT DO - Saint-Donan;5 Rue Saint-Gilles, 22800 Saint-Donan;22800;48,4694558;-2,8841542;Crédit Agricole - Cotes D Armor
Relais CA LE AURAY S - Saint-Gilles-Vieux-Marché;4 Rue de la Vallée, 22530 Saint-Gilles-Vieux-Marché;22530;48,2427816;-2,9747245;Crédit Agricole - Cotes D Armor
Relais CA LE CENTRAL - Saint-Julien;19 Rue du Centre, 22940 Saint-Julien;22940;48,4527647;-2,8150221;Crédit Agricole - Cotes D Armor
Relais CA FREVIL SYLVAIN - Saint-Martin-des-Prés;1 Rue des Écoles, 22320 Saint-Martin-des-Prés;22320;48,3070742;-2,9553082;Crédit Agricole - Cotes D Armor
Relais CA LE PETIT SAINT MICHEL - Saint-Michel-en-Grève;2 Place de l'Eglise, 22300 Saint-Michel-en-Grève;22300;48,68479199999999;-3,565043;Crédit Agricole - Cotes D Armor
Agence bancaire Crédit Agricole de Saint-Nicolas-du-Pélem;13 place Kreisker, 22480 Saint-Nicolas-du-Pélem;22480;;;Crédit Agricole - Cotes D Armor
Agence bancaire Crédit Agricole de Saint-Quay-Portrieux;84 boulevard Foch, 22410 Saint-Quay-Portrieux;22410;;;Crédit Agricole - Cotes D Armor
Relais CA LE VIRGIN BAR - Saint-Rieul;1 Rue du Pont Besnier, 22270 Saint-Rieul;22270;48,4433067;-2,4176936;Crédit Agricole - Cotes D Armor
Relais CA JOEL BIZEUL - Saint-Samson-sur-Rance;1 Rue du Domaine, 22100 Saint-Samson-sur-Rance;22100;48,4923429;-2,028311;Crédit Agricole - Cotes D Armor
Relais CA DUAULT PAUL - Saint-Thélo;Le Bourg, 22460 Saint-Thélo;22460;48,2286787;-2,8522388;Crédit Agricole - Cotes D Armor
Relais CA BOULANGEIRE LE ROUX - Saint-Vran;LIEU DIT LE BOURG, 22230 Saint-Vran;22230;48,238916;-2,44198;Crédit Agricole - Cotes D Armor
Relais CA SANT TRIFIN - Sainte-Tréphine;2 Rue de Pors Normand, 22480 Sainte-Tréphine;22480;48,2695781;-3,1547861;Crédit Agricole - Cotes D Armor
Relais CA LE TREMAEN CAFE - Tramain;2 place de l'église, 22640 Tramain;22640;48,363417;-2,4003567;Crédit Agricole - Cotes D Armor
Agence bancaire Crédit Agricole de Trébeurden;place de l Eglise, 22560 Trébeurden;22560;;;Crédit Agricole - Cotes D Armor
Agence bancaire Crédit Agricole de Trégastel;13 place Sainte-Anne, 22730 Trégastel;22730;;;Crédit Agricole - Cotes D Armor
Relais CA GUILLOU CLAUDE - Trégonneau;Bourg, 22200 Trégonneau;22200;48,611537;-3,165886;Crédit Agricole - Cotes D Armor
Agence bancaire Crédit Agricole de Trégueux;1 rue de Moncontour Place de la Grande Porte, 22950 Trégueux;22950;;;Crédit Agricole - Cotes D Armor
Agence bancaire Crédit Agricole de Tréguier;2 Rue Irène Joliot-Curie, 22220 Tréguier;22220;;;Crédit Agricole - Cotes D Armor
Relais CA LE TRELIVAN - Trélivan;Bourg, 22100 Trélivan;22100;48,433293;-2,118575;Crédit Agricole - Cotes D Armor
Relais CA TREMARGAT CAFE - Trémargat;Bourg, 22110 Trémargat;22110;48,332342;-3,267286;Crédit Agricole - Cotes D Armor
Relais CA LERICHE MESTAIS BETTY - Trémeur;2 rue de l'abbaye, 22250 Trémeur;22250;48,3477266;-2,2625771;Crédit Agricole - Cotes D Armor
Relais CA GUILLOUET SAMUEL - Trévé;Bourg, 22600 Trévé;22600;48,212564;-2,795797;Crédit Agricole - Cotes D Armor
Relais CA LE DAUFFY - Trévou-Tréguignec;16 Rue de la Mairie, 22660 Trévou-Tréguignec;22660;48,8137115;-3,358421;Crédit Agricole - Cotes D Armor
Agence bancaire Crédit Agricole d'Uzel;Place du Martray, 22460 Uzel;22460;;;Crédit Agricole - Cotes D Armor
Agence bancaire Crédit Agricole de Yffiniac;9 place de la Mairie, 22120 Yffiniac;22120;;;Crédit Agricole - Cotes D Armor
