nom;adresse;code_postal;latitude;longitude;region_source
Agence bancaire Ablis;place de l'Eglise, 78660 ABLIS;78660;;;Crédit Agricole - Paris
Agence bancaire Alfortville;153 av P. V. Couturier..., 94140 ALFORTVILLE;94140;;;Crédit Agricole - Paris
Agence bancaire Angerville;75 rue Nationale, 91670 ANGERVILLE;91670;;;Crédit Agricole - Paris
Agence bancaire Antony;4, av de la Division Leclerc, 92160 ANTONY;92160;;;Crédit Agricole - Paris
Agence bancaire Arcueil;34 Rue Emile Raspail, 94110 ARCUEIL;94110;;;Crédit Agricole - Paris
Agence bancaire Argenteuil;85 av Gabriel Peri, 95100 ARGENTEUIL;95100;;;Crédit Agricole - Paris
Agence bancaire Arnouville;34, avenue Pierre Semard, 95400 ARNOUVILLE;95400;;;Crédit Agricole - Paris
Agence bancaire Arpajon;99 Grande Rue, 91290 ARPAJON;91290;;;Crédit Agricole - Paris
Agence bancaire Asnieres Hotel De Ville;8 place de l'Hotel de Ville, 92600 ASNIERES;92600;48,91028;2,28916;Crédit Agricole - Paris
Agence bancaire Asnieres-Bourguignons;70 rue des Bourguignons, 92600 ASNIERES;92600;48,91449;2,27421;Crédit Agricole - Paris
Agence bancaire Aubergenville;2 bis bd de la Republique, 78410 AUBERGENVILLE;78410;;;Crédit Agricole - Paris
Agence bancaire Aubervilliers;195, avenue Victor Hugo, 93300 AUBERVILLIERS;93300;;;Crédit Agricole - Paris
Agence bancaire Aulnay Sous Bois;36 bd de Strasbourg, 93602 AULNAY SOUS BOIS;93602;;;Crédit Agricole - Paris
Agence bancaire Ballancourt;45 bis rue du General De Gaulle, 91610 BALLANCOURT;91610;;;Crédit Agricole - Paris
Agence bancaire Beaumont;7 Rue de la LIBERATION, 95260 BEAUMONT SUR OISE;95260;;;Crédit Agricole - Paris
Agence bancaire Beynes;35 rue de la Republique, 78650 BEYNES;78650;;;Crédit Agricole - Paris
Agence bancaire Bezons;58, rue Edouard Vailant, 95870 BEZONS;95870;;;Crédit Agricole - Paris
Agence bancaire Bobigny;188 rue Jean Jaures, 93000 BOBIGNY;93000;;;Crédit Agricole - Paris
Agence bancaire Boissy Saint Leger;41 av du General Leclerc, 94470 BOISSY SAINT LEGER;94470;;;Crédit Agricole - Paris
Agence bancaire Bondy;69 Rue Jules Guesde, 93140 BONDY;93140;;;Crédit Agricole - Paris
Agence bancaire Bonnieres Sur Seine;24 av de la Republique, 78270 BONNIERES SUR SEINE;78270;;;Crédit Agricole - Paris
Agence bancaire Boulogne Edouard Vaillant;57 av Edouard Vaillant, 92100 BOULOGNE BILLANCOURT;92100;48,83485358590567;2,15227494921271;Crédit Agricole - Paris
Agence bancaire Boulogne Jean Jaures;25, boulevard Jean Jaurès, 92100 BOULOGNE BILLANCOURT;92100;48,84189;2,23883;Crédit Agricole - Paris
Agence bancaire Boulogne Rhin et Danube;160, route de la Reine, 92100 BOULOGNE BILLANCOURT;92100;48,84073;2,22901;Crédit Agricole - Paris
Agence bancaire Boulogne Route De La Reine;77 route de la Reine, 92100 BOULOGNE BILLANCOURT;92100;48,83966;2,23994;Crédit Agricole - Paris
Agence bancaire Bourg La Reine;74 av General Leclerc, 92340 BOURG LA REINE;92340;;;Crédit Agricole - Paris
Agence bancaire Bretigny;19 rue de la Paix, 91220 BRETIGNY;91220;;;Crédit Agricole - Paris
Agence bancaire Breuillet;centre com. rue Jean Bart, 91650 BREUILLET;91650;;;Crédit Agricole - Paris
Agence bancaire Breval;place du Marechal Leclerc, 78980 BREVAL;78980;;;Crédit Agricole - Paris
Agence bancaire Briis Sous Forges;9 rue de l'Armee Patton, 91640 BRIIS SOUS FORGES;91640;;;Crédit Agricole - Paris
Agence bancaire Brunoy;8 Grande Rue, 91800 BRUNOY;91800;;;Crédit Agricole - Paris
Agence bancaire Bry Sur Marne;50 Grande Rue, 94360 BRY SUR MARNE;94360;;;Crédit Agricole - Paris
Agence bancaire Cergy Le Haut;4 bld des Merveilles, 95800 CERGY;95800;;;Crédit Agricole - Paris
Agence bancaire Champigny;72 av Jean Jaures, 94500 CHAMPIGNY SUR MARNE;94500;;;Crédit Agricole - Paris
Agence bancaire Charenton le pont;135 bis rue de Paris, 94220 CHARENTON LE PONT;94220;;;Crédit Agricole - Paris
Agence bancaire Chatillon;1 av de Paris, 92320 CHATILLON SOUS BAGNEUX;92320;;;Crédit Agricole - Paris
Agence bancaire Chatou;28 av du Marechal Foch, 78400 CHATOU;78400;;;Crédit Agricole - Paris
Agence bancaire Chaville-Viroflay;1580 Avenue Roger Salengro, 92370 CHAVILLE;92370;;;Crédit Agricole - Paris
Agence bancaire Chevreuse;65 rue de la Division Leclerc, 78460 CHEVREUSE;78460;;;Crédit Agricole - Paris
Agence bancaire Chilly Mazarin;17 Bis av Mazarin, 91380 CHILLY MAZARIN;91380;;;Crédit Agricole - Paris
Agence bancaire Choisy le roi;3 av Anatole France, 94600 CHOISY LE ROI;94600;;;Crédit Agricole - Paris
Agence bancaire Clamart;235, av Victor Hugo, 92140 CLAMART;92140;;;Crédit Agricole - Paris
Agence bancaire Clermont;45 rue de la Republique, 60600 CLERMONT;60600;;;Crédit Agricole - Paris
Agence bancaire Clichy;50 av Jean Jaures, 92110 CLICHY;92110;;;Crédit Agricole - Paris
Agence bancaire Colombes Valmy;25, rue Saint Denis, 92700 COLOMBES;92700;;;Crédit Agricole - Paris
Agence bancaire Conflans Ste Honorine;8 place de la Liberté, 78700 CONFLANS SAINT HONORINE;78700;;;Crédit Agricole - Paris
Agence bancaire Corbeil Feray;11 rue Champlouis, 91100 CORBEIL-ESSONNES;91100;;;Crédit Agricole - Paris
Agence bancaire Cormeilles En Parisis;6 Boulevard Joffre, 95240 Cormeilles-en-Parisis;95240;;;Crédit Agricole - Paris
Agence bancaire Courbevoie-Becon;9 av de la Liberte, 92400 COURBEVOIE;92400;48,9045;2,26853;Crédit Agricole - Paris
Agence bancaire Courbevoie-Charras;47 rue de Bezons, 92400 COURBEVOIE;92400;48,89492;2,25038;Crédit Agricole - Paris
Agence bancaire Creteil;33 av Pierre Brossolette, 94000 CRETEIL;94000;;;Crédit Agricole - Paris
Agence bancaire Croissy;12 bd Fernand Hostachy, 78290 CROISSY SUR SEINE;78290;;;Crédit Agricole - Paris
Agence bancaire Deuil La Barre;30 rue Charles de Gaulle, 95170 DEUIL LA BARRE;95170;;;Crédit Agricole - Paris
Agence bancaire Domont;26 av Jean Jaures, 95330 DOMONT;95330;;;Crédit Agricole - Paris
Agence bancaire Dourdan;8 rue Emile Renault, 91410 DOURDAN;91410;;;Crédit Agricole - Paris
Agence bancaire Drancy;113, av Henri Barbusse, 93700 DRANCY;93700;;;Crédit Agricole - Paris
Agence bancaire Draveil Centre;2, place de la République, 91210 DRAVEIL;91210;;;Crédit Agricole - Paris
Agence bancaire Eaubonne;1 avenue Albert 1er, 95600 EAUBONNE;95600;;;Crédit Agricole - Paris
Agence bancaire Enghien-Les-Bains;17 rue du General de Gaulle, 95880 ENGHIEN LES BAINS;95880;;;Crédit Agricole - Paris
Agence bancaire Ermont;33 rue de la Halte, 95120 ERMONT;95120;;;Crédit Agricole - Paris
Agence bancaire Estrees Saint Denis;32, av de Flandres, 60190 ESTREES SAINT DENIS;60190;;;Crédit Agricole - Paris
Agence bancaire Etampes Bastille;9 Rue du Haut Pavé, 91150 Etampes;91150;48,4308499;2,150071499999967;Crédit Agricole - Paris
Agence bancaire Etampes Centre Ville;15, rue Louis Moreau, 91150 ETAMPES;91150;48,43605;2,16056;Crédit Agricole - Paris
Agence bancaire Etrechy;8 boulevard de la gare, 91580 ETRECHY;91580;;;Crédit Agricole - Paris
Agence bancaire Evry;les Passages cours Blaise Pascal, 91000 EVRY;91000;;;Crédit Agricole - Paris
Agence bancaire Ezanville;10 ter Grande Rue, 95460 EZANVILLE;95460;;;Crédit Agricole - Paris
Agence bancaire Fontenay Aux Roses;53 rue Boucicaut, 92260 FONTENAY AUX ROSES;92260;;;Crédit Agricole - Paris
Agence bancaire Fosses;2 place Seguin, 95470 FOSSES;95470;;;Crédit Agricole - Paris
Agence bancaire Franconville;9 bis rue de la Station, 95130 FRANCONVILLE;95130;;;Crédit Agricole - Paris
Agence bancaire Gagny;20 av Jean Jaures, 93220 GAGNY;93220;;;Crédit Agricole - Paris
Agence bancaire Garches;9 rue du Marechal Leclerc, 92380 GARCHES;92380;;;Crédit Agricole - Paris
Agence bancaire Gennevilliers;68, rue Pierre Timbaud, 92230 GENNEVILLIERS;92230;;;Crédit Agricole - Paris
Agence bancaire Gentilly;61 rue Charles Frérot, 94250 GENTILLY;94250;;;Crédit Agricole - Paris
Agence bancaire Chevry 2;11 place du Marche Chevry II, 91190 GIF SUR YVETTE;91190;48,68856;2,11504;Crédit Agricole - Paris
Agence bancaire Gif Sur Yvette;26, rue Amodru, 91190 GIF SUR YVETTE;91190;48,70212;2,13343;Crédit Agricole - Paris
Agence bancaire Gonesse;42 rue de Paris, 95500 GONESSE;95500;;;Crédit Agricole - Paris
Agence bancaire Administrateurs de Biens;26 Quai de la Rapée, 75596 Grandes Entreprises;75596;48,8407276;2,374027;Crédit Agricole - Paris
Agence bancaire Collectivités Publiques et Logement social;26 Quai de la Rapée, 75596 Grandes Entreprises;75596;48,8407276;2,374027;Crédit Agricole - Paris
Agence bancaire Investisseurs Institutionnels & Institutions Financières;26 Quai de la Rapée, 75596 Grandes Entreprises;75596;48,8407276;2,374027;Crédit Agricole - Paris
Agence bancaire Promotion Immobilière;26 Quai de la Rapée, 75596 Grandes Entreprises;75596;48,8407276;2,374027;Crédit Agricole - Paris
Agence bancaire Secteur Industrie;26 Quai de la Rapée, 75596 Grandes Entreprises;75596;48,8407276;2,374027;Crédit Agricole - Paris
Agence bancaire Secteur Industrie Agro-alimentaire et Distribution;26 Quai de la Rapée, 75596 Grandes Entreprises;75596;48,8407276;2,374027;Crédit Agricole - Paris
Agence bancaire Secteur Services;26 Quai de la Rapée, 75596 Grandes Entreprises;75596;48,8407276;2,374027;Crédit Agricole - Paris
Agence bancaire Groslay;9 Place Charles de Gaulle, 95410 GROSLAY;95410;;;Crédit Agricole - Paris
Agence bancaire Guyancourt Chenes;83 bd des Chenes, 78280 GUYANCOURT;78280;;;Crédit Agricole - Paris
Agence bancaire Herblay;13 place de la Liberation, 95220 HERBLAY;95220;;;Crédit Agricole - Paris
Agence bancaire Houdan;16 Grande Rue, 78550 HOUDAN;78550;;;Crédit Agricole - Paris
Agence bancaire Houilles;17 rue Gambetta, 78800 HOUILLES;78800;;;Crédit Agricole - Paris
Agence bancaire Igny Gommonvilliers;69 rue de la Republique, 91430 IGNY;91430;;;Crédit Agricole - Paris
Agence bancaire Issy Les Moulineaux;16 bd Voltaire, 92130 ISSY LES MOULINEAUX;92130;48,82602;2,28036;Crédit Agricole - Paris
Agence bancaire Issy les Moulineaux Mairie;1 bis avenue Victor Cresson, 92130 ISSY LES MOULINEAUX;92130;48,82335;2,27074;Crédit Agricole - Paris
Agence bancaire Ivry Sur Seine;9 place de la Republique, 94200 IVRY SUR SEINE;94200;;;Crédit Agricole - Paris
Agence bancaire Joinville le pont;13, avenue Gallieni, 94340 JOINVILLE LE POINT;94340;;;Crédit Agricole - Paris
Agence bancaire Juvisy Sur Orge;38 rue d'Estienne d'Orves, 91260 JUVISY SUR ORGE;91260;;;Crédit Agricole - Paris
Agence bancaire L'Hay Les Roses;3, avenue Aristide Briand, 94240 L'HAY LES ROSES;94240;;;Crédit Agricole - Paris
Agence bancaire L'Isle-Adam;2 Rue Saint-Lazare, 95290 L'Isle-Adam;95290;;;Crédit Agricole - Paris
Agence bancaire La Ferte Alais;5 rue Brunel, 91590 LA FERTE ALAIS;91590;;;Crédit Agricole - Paris
Agence bancaire La Garenne Colombes;5 Rond Point du Souvenir Français, 92250 LA GARENNE COLOMBES;92250;;;Crédit Agricole - Paris
Agence bancaire La Varenne Saint Hilaire;88 av du Bac, 94210 LA VARENNE SAINT HILAIRE;94210;;;Crédit Agricole - Paris
Agence bancaire Lardy;19 rue du Marechal Foch, 91510 LARDY;91510;;;Crédit Agricole - Paris
Agence bancaire Lassigny;6 rue Crépin, 60310 LASSIGNY;60310;;;Crédit Agricole - Paris
Agence bancaire Le Chesnay Mairie;50 rue Pottier, 78150 LE CHESNAY;78150;;;Crédit Agricole - Paris
Agence bancaire Le Kremlin Bicetre;6, avenue Eugène Thomas, 94270 LE KREMLIN BICETRE;94270;;;Crédit Agricole - Paris
Agence bancaire Le Mesnil Saint Denis;3 rue R. Berrurier, 78320 LE MESNIL SAINT DENIS;78320;;;Crédit Agricole - Paris
Agence bancaire Le Perreux Sur Marne;116 av du Général de Gaulle, 94170 LE PERREUX SUR MARNE;94170;;;Crédit Agricole - Paris
Agence bancaire Le Plessis Robinson;3 place du 8 Mai 1945, 92350 LE PLESSIS ROBINSON;92350;;;Crédit Agricole - Paris
Agence bancaire Le Plessis Trévise;15 avenue Ardouin, 94420 LE PLESSIS TREVISE;94420;;;Crédit Agricole - Paris
Agence bancaire Le Raincy;47 av de la resistance, 93340 LE RAINCY;93340;;;Crédit Agricole - Paris
Agence bancaire Le Vesinet;16 rue Thiers, 78110 LE VESINET;78110;;;Crédit Agricole - Paris
Agence bancaire Plaisir les Clayes;4 Avenue du Général Leclerc, 78340 Les Clayes-sous-Bois;78340;;;Crédit Agricole - Paris
Agence bancaire Les Essarts Le Roi;7 rue du 11 Novembre, 78690 LES ESSARTS LE ROI;78690;;;Crédit Agricole - Paris
Agence bancaire Les Lilas;90 Rue de Paris, 93260 Les Lilas;93260;;;Crédit Agricole - Paris
Agence bancaire Levallois Perret;75 rue Voltaire, 92300 LEVALLOIS PERRET;92300;;;Crédit Agricole - Paris
Agence bancaire Limay;6 route Nationale, 78520 LIMAY;78520;;;Crédit Agricole - Paris
Agence bancaire Limours;6 rue Felicie Vallet, 91470 LIMOURS;91470;;;Crédit Agricole - Paris
Agence bancaire Livry Gargan;44 boulevard de Chanzy, 93190 LIVRY GARGAN;93190;;;Crédit Agricole - Paris
Agence bancaire Longjumeau;5 place Charles Steber, 91162 LONGJUMEAU;91162;;;Crédit Agricole - Paris
Agence bancaire Louvres;25, av du General Leclerc, 95380 LOUVRES;95380;;;Crédit Agricole - Paris
Agence bancaire Luzarches;5, rue du Pontcel, 95270 LUZARCHES;95270;;;Crédit Agricole - Paris
Agence bancaire Magnanville;3, avenue de l'Europe, 78200 MAGNANVILLE;78200;;;Crédit Agricole - Paris
Agence bancaire Magny En Vexin;22 rue de Beauvais, 95420 MAGNY EN VEXIN;95420;;;Crédit Agricole - Paris
Agence bancaire Maignelay;4 place General de Gaulle, 60420 MAIGNELAY;60420;;;Crédit Agricole - Paris
Agence bancaire Maisons Alfort;24 av de la republique, 94700 MAISONS ALFORT;94700;;;Crédit Agricole - Paris
Agence bancaire Maisons Laffitte;60 rue de Paris, 78600 MAISONS-LAFFITTE;78600;;;Crédit Agricole - Paris
Agence bancaire Maisse;45 Grande Rue, 91720 MAISSE;91720;;;Crédit Agricole - Paris
Agence bancaire Mandres les roses;2, rue du général Leclerc, 94520 MANDRES LES ROSES;94520;;;Crédit Agricole - Paris
Agence bancaire Mantes La Jolie;23, av de la Republique, 78200 MANTES LA JOLIE;78200;;;Crédit Agricole - Paris
Agence bancaire Marcoussis;place Souvenir General de Gaulle, 91460 MARCOUSSIS;91460;;;Crédit Agricole - Paris
Agence bancaire Marines;3 place Ernest Peyron, 95640 MARINES;95640;;;Crédit Agricole - Paris
Agence bancaire Marly Le Roi;20 av de St Germain, 78160 MARLY LE ROI;78160;;;Crédit Agricole - Paris
Agence bancaire Marolles En Hurepoix;7, Grande Rue, 91630 MAROLLES EN HUREPOIX;91630;;;Crédit Agricole - Paris
Agence bancaire Massy;44 bis rue de la Division Leclerc, 91300 MASSY;91300;;;Crédit Agricole - Paris
Agence bancaire Maule;29 place du General de Gaulle, 78580 MAULE;78580;;;Crédit Agricole - Paris
Agence bancaire Maurepas;13 place du Sancerrois, 78310 MAUREPAS;78310;;;Crédit Agricole - Paris
Agence bancaire Mennecy;centre commercial intermarché zac montvrain II, 91540 MENNECY;91540;;;Crédit Agricole - Paris
Agence bancaire Meudon;68 Rue de la République, 92190 MEUDON;92190;;;Crédit Agricole - Paris
Agence bancaire Meulan;4 place Brigitte Gros, 78250 MEULAN;78250;;;Crédit Agricole - Paris
Agence bancaire Milly La Foret;place de la République, 91490 MILLY LA FORET;91490;;;Crédit Agricole - Paris
Agence bancaire Montesson;4, place Paul Demange, 78360 MONTESSON;78360;;;Crédit Agricole - Paris
Agence bancaire Montfort L'Amaury;23, rue de Paris, 78490 MONTFORT L'AMAURY;78490;;;Crédit Agricole - Paris
Agence bancaire Montgeron;93 quater av republique, 91230 MONTGERON;91230;;;Crédit Agricole - Paris
Agence bancaire Montigny Le Bretonneux;28 avenue du centre, 78180 MONTIGNY LE BRETONNEUX;78180;;;Crédit Agricole - Paris
Agence bancaire Montlhery;9 place du Marche, 91310 MONTLHERY;91310;;;Crédit Agricole - Paris
Agence bancaire Montreuil;57, rue de Paris, 93100 MONTREUIL;93100;;;Crédit Agricole - Paris
Agence bancaire Montrouge;19 Avenue Verdier, 92120 MONTROUGE;92120;48,8147856;2,318178900000021;Crédit Agricole - Paris
Agence bancaire Montrouge Evergreen;12 Place des États Unis, 92120 Montrouge;92120;48,8179311;2,3158662;Crédit Agricole - Paris
Agence bancaire Montsoult;rue des Clottins, 95560 MONTSOULT;95560;;;Crédit Agricole - Paris
Agence bancaire Nanterre Ville;34, rue Henri Barbusse, 92000 NANTERRE;92000;;;Crédit Agricole - Paris
Agence bancaire Neauphle Le Chateau;place du Marche, 78640 NEAUPHLE LE CHATEAU;78640;;;Crédit Agricole - Paris
Agence bancaire Neuilly Sur Marne;Place du Chanoine Héroux, 93300 NEUILLY SUR MARNE;93300;;;Crédit Agricole - Paris
Agence bancaire Neuilly Roule;179 av du Roule, 92200 NEUILLY SUR SEINE;92200;48,88254;2,27726;Crédit Agricole - Paris
Agence bancaire Neuilly-Michelis;25, rue Madeleine Michelis, 92200 NEUILLY SUR SEINE;92200;48,88201;2,27691;Crédit Agricole - Paris
Agence bancaire Nogent Sur Marne;180 Grande Rue Charles de Gaulle, 94130 NOGENT SUR MARNE;94130;;;Crédit Agricole - Paris
Agence bancaire Noisy Le Grand;54 rue du Dr J. Vaquier, 93160 NOISY LE GRAND;93160;;;Crédit Agricole - Paris
Agence bancaire Noisy Le Roi;11 rue Andre Lebourblanc, 78590 NOISY LE ROI;78590;;;Crédit Agricole - Paris
Agence bancaire Noisy Le Sec;1 place Jeanne d'Arc, 93130 NOISY LE SEC;93130;;;Crédit Agricole - Paris
Agence bancaire Orgeval;1 place de l'Eglise, 78630 ORGEVAL;78630;;;Crédit Agricole - Paris
Agence bancaire Orsay;2 rue Verrier, 91400 ORSAY;91400;;;Crédit Agricole - Paris
Agence bancaire Palaiseau Villebon;133 - 137 ave du Gal Leclerc, 91120 PALAISEAU;91120;;;Crédit Agricole - Paris
Agence bancaire Pantin;128, avenue Jean Lolive, 93500 PANTIN;93500;;;Crédit Agricole - Paris
Agence bancaire Paris agence internationale;26 Quai de la Rapée, 75012 Paris;75012;;;Crédit Agricole - Paris
Agence bancaire Paris Etienne-Marcel;37 rue Etienne Marcel, 75001 PARIS 01;75001;;;Crédit Agricole - Paris
Agence bancaire PARIS Richelieu Drouot;21, bd Montmartre, 75002 PARIS 02;75002;48,87189;2,34054;Crédit Agricole - Paris
Agence bancaire Paris Opera;14 rue d'Antin, 75002 PARIS 02;75002;48,8688;2,33322;Crédit Agricole - Paris
Agence bancaire Paris Bretagne;12 rue de Bretagne, 75003 PARIS 03;75003;48,86259;2,36312;Crédit Agricole - Paris
Agence bancaire Paris Republique;87 rue Turbigo, 75003 PARIS 03;75003;48,86679;2,36183;Crédit Agricole - Paris
Agence bancaire PARIS Marais Saint-Paul;16, rue de Rivoli, 75004 PARIS 04;75004;48,85617;2,35724;Crédit Agricole - Paris
Agence bancaire Paris Halles;16bis, boulevard de Sébastopol, 75004 PARIS 04;75004;48,85993;2,34902;Crédit Agricole - Paris
Agence bancaire Paris Gobelins;12 av des Gobelins, 75005 PARIS 05;75005;48,83763;2,35117;Crédit Agricole - Paris
Agence bancaire Paris Maubert;76, bld St Germain, 75005 PARIS 05;75005;48,8505;2,34667;Crédit Agricole - Paris
Agence bancaire Paris Mutualite;14 rue Monge, 75005 PARIS 05;75005;48,84896;2,34977;Crédit Agricole - Paris
Agence bancaire Paris Saint-Germain;119 bd St Germain, 75006 PARIS 06;75006;;;Crédit Agricole - Paris
Agence bancaire Paris Champ-De-Mars;61 av Bosquet, 75007 PARIS 07;75007;48,85632;2,30487;Crédit Agricole - Paris
Agence bancaire Paris Duroc;80, rue de Sèvres, 75007 PARIS 07;75007;48,84714;2,31755;Crédit Agricole - Paris
Agence bancaire Paris Invalides;31 rue Constantine, 75007 PARIS 07;75007;48,85821;2,31461;Crédit Agricole - Paris
Agence bancaire Paris Sevres-Babylone;2 rue de Babylone, 75007 PARIS 07;75007;48,85171;2,32661;Crédit Agricole - Paris
Agence bancaire Paris George V;16 Avenue George V, 75008 PARIS 08;75008;48,8665516;2,301705;Crédit Agricole - Paris
Agence bancaire Paris La Boetie;16 rue de la Boetie, 75008 PARIS 08;75008;48,87414;2,31734;Crédit Agricole - Paris
Agence bancaire Paris Amsterdam;60 rue d'Amsterdam, 75009 PARIS 09;75009;48,87978;2,32702;Crédit Agricole - Paris
Agence bancaire Paris Lafayette;91, rue la Fayette, 75009 PARIS 09;75009;48,87719;2,34885;Crédit Agricole - Paris
Agence bancaire Paris Martyrs;14 rue des Martyrs, 75009 PARIS 09;75009;48,87745;2,33943;Crédit Agricole - Paris
Agence bancaire Paris Magenta;51 bd Magenta, 75010 PARIS 10;75010;;;Crédit Agricole - Paris
Agence bancaire Paris Ledru Rollin;102, avenue Ledru Rollin, 75011 PARIS 11;75011;48,85233;2,37669;Crédit Agricole - Paris
Agence bancaire Paris Leon Blum;95, rue de la Roquette, 75011 PARIS 11;75011;48,85737;2,37946;Crédit Agricole - Paris
Agence bancaire Paris Nation;209 bd Voltaire, 75011 PARIS 11;75011;48,8524;2,38935;Crédit Agricole - Paris
Agence bancaire Paris Richard Lenoir;14, Bld Richard Lenoir, 75011 PARIS 11;75011;48,85504;2,3703;Crédit Agricole - Paris
Agence bancaire Paris Temple;135 av Parmentier, 75011 PARIS 11;75011;48,86395;2,3755;Crédit Agricole - Paris
Agence bancaire Paris Voltaire-Oberkampf;36 bd Voltaire, 75011 PARIS 11;75011;48,8644;2,36907;Crédit Agricole - Paris
Agence bancaire Paris Charenton;245 rue de Charenton, 75012 PARIS 12;75012;48,83698;2,39148;Crédit Agricole - Paris
Agence bancaire Paris Daumesnil;124 av Daumesnil, 75012 PARIS 12;75012;48,84231;2,38566;Crédit Agricole - Paris
Agence bancaire Paris Gare De Lyon;23 ter bd Diderot, 75012 PARIS 12;75012;48,84578;2,37366;Crédit Agricole - Paris
Agence bancaire Paris Picpus Nation;66 Rue du Rendez-Vous, 75012 PARIS 12;75012;48,8469292;2,4007437;Crédit Agricole - Paris
Agence bancaire Paris Rapée;22 quai de la Rapee, 75012 PARIS 12;75012;48,84343;2,37066;Crédit Agricole - Paris
Agence bancaire Paris Reuilly Diderot;37, rue de Reuilly, 75012 PARIS 12;75012;48,84683;2,38722;Crédit Agricole - Paris
Agence bancaire Paris Italie;13 av d'Italie, 75013 PARIS 13;75013;48,83005;2,35607;Crédit Agricole - Paris
Agence bancaire Paris Jeanne d'Arc;2, rue Jeanne d'Arc, 75013 PARIS 13;75013;48,828829;2,369949;Crédit Agricole - Paris
Agence bancaire Paris Tolbiac;207, rue de Tolbiac, 75013 PARIS 13;75013;48,82566;2,34789;Crédit Agricole - Paris
Agence bancaire Paris Alesia-Plaisance;164, rue d'Alésia, 75014 PARIS 14;75014;48,83165;2,31488;Crédit Agricole - Paris
Agence bancaire Paris Denfert-Rochereau;286 bd Raspail, 75014 PARIS 14;75014;48,83507;2,33215;Crédit Agricole - Paris
Agence bancaire Paris General Leclerc;79, av du General Leclerc, 75014 PARIS 14;75014;48,82752;2,3268;Crédit Agricole - Paris
Agence bancaire Paris Brancion;10, rue Vouille, 75015 PARIS 15;75015;48,83505;2,30366;Crédit Agricole - Paris
Agence bancaire Paris Convention;116 rue de la Convention, 75015 PARIS 15;75015;48,84044;2,28937;Crédit Agricole - Paris
Agence bancaire Paris Dupleix;33, Boulevard de Grenelle, 75015 PARIS 15;75015;48,84887;2,29893;Crédit Agricole - Paris
Agence bancaire Paris Lecourbe;99 rue Lecourbe, 75015 PARIS 15;75015;48,84285;2,30347;Crédit Agricole - Paris
Agence bancaire Paris Montparnasse Arrivée;8 -10 boulevard Vaugirard immeuble Pacifica, 75015 PARIS 15;75015;48,842338;2,319643;Crédit Agricole - Paris
Agence bancaire Paris Saint-Charles;126 rue St Charles, 75015 PARIS 15;75015;48,84394;2,28319;Crédit Agricole - Paris
Agence bancaire Paris Vaugirard;284 rue de Vaugirard, 75015 PARIS 15;75015;48,83862;2,29903;Crédit Agricole - Paris
Agence bancaire Paris Zola Commerce;36 rue du Commerce, 75015 PARIS 15;75015;48,84709;2,29598;Crédit Agricole - Paris
Agence bancaire Paris Auteuil;67 rue d'Auteuil, 75016 PARIS 16;75016;48,84793;2,26205;Crédit Agricole - Paris
Agence bancaire Paris Mozart;39 Avenue Mozart, 75016 PARIS 16;75016;48,85533;2,2702281;Crédit Agricole - Paris
Agence bancaire Paris Passy;64 Rue de Passy, 75016 PARIS 16;75016;48,8581046;2,2778404;Crédit Agricole - Paris
Agence bancaire Paris Versailles;193 avenue de Versailles, 75016 PARIS 16;75016;48,83959;2,26271;Crédit Agricole - Paris
Agence bancaire Paris Victor Hugo;87, avenue Raymond Poincaré, 75016 PARIS 16;75016;48,8694;2,28538;Crédit Agricole - Paris
Agence bancaire Paris Batignolles;31 rue des Batignolles, 75017 PARIS 17;75017;48,88494;2,32089;Crédit Agricole - Paris
Agence bancaire Paris Courcelles;178 Rue de Courcelles, 75017 PARIS 17;75017;48,8841;2,29816;Crédit Agricole - Paris
Agence bancaire Paris La Fourche;97 av de Clichy, 75017 PARIS 17;75017;48,88906;2,32283;Crédit Agricole - Paris
Agence bancaire Paris Levis;5 Place LEVIS, 75017 PARIS 17;75017;48,88359;2,31326;Crédit Agricole - Paris
Agence bancaire Paris Ternes;51 avenue des Ternes, 75017 PARIS 17;75017;48,8785;2,292737;Crédit Agricole - Paris
Agence bancaire Paris Wagram;76 av de Wagram, 75017 PARIS 17;75017;48,88096;2,30022;Crédit Agricole - Paris
Agence bancaire Paris Abbesses;30 rue Yvonne Le Tac, 75018 PARIS 18;75018;48,8843;2,33885;Crédit Agricole - Paris
Agence bancaire Paris Custine;25 rue Custine, 75018 PARIS 18;75018;48,88882;2,34639;Crédit Agricole - Paris
Agence bancaire Paris Guy Moquet;82, av.de Saint Ouen, 75018 PARIS 18;75018;48,89261;2,32731;Crédit Agricole - Paris
Agence bancaire Paris Ordener;135 bis Rue Ordener, 75018 PARIS 18;75018;48,89303;2,34049;Crédit Agricole - Paris
Agence bancaire Paris Buttes-Chaumont;35 av Secretan, 75019 PARIS 19;75019;48,88094;2,3738;Crédit Agricole - Paris
Agence bancaire Paris Villette;171 Avenue Jean Jaurès, 75019 PARIS 19;75019;48,8878336;2,3879878;Crédit Agricole - Paris
Agence bancaire Paris Avron;16 rue d'Avron, 75020 PARIS 20;75020;48,85164;2,40007;Crédit Agricole - Paris
Agence bancaire Paris Gambetta;91 av Gambetta, 75020 PARIS 20;75020;48,86644;2,39981;Crédit Agricole - Paris
Agence bancaire Paris Jourdain;10 rue du Jourdain, 75020 PARIS 20;75020;48,87507;2,38934;Crédit Agricole - Paris
Agence bancaire Poissy Gare;3, rue au Pain, 78300 POISSY;78300;;;Crédit Agricole - Paris
Agence bancaire Pontoise;10 bis rue Thiers, 95300 PONTOISE;95300;;;Crédit Agricole - Paris
Agence bancaire Puteaux;3 Place Simone et Antoine Veil, 92800 PUTEAUX;92800;;;Crédit Agricole - Paris
Agence bancaire Rambouillet;11 rue Gosselin Lenôtre, 78513 RAMBOUILLET;78513;;;Crédit Agricole - Paris
Agence bancaire Ris-Orangis;57 av Pierre Brossolette, 91130 RIS ORANGIS;91130;;;Crédit Agricole - Paris
Agence bancaire Rosny Sous Bois;3 place Carnot, 93110 ROSNY SOUS BOIS;93110;;;Crédit Agricole - Paris
Agence bancaire Rueil Malmaison;14 Place de l'Eglise, 92500 RUEIL MALMAISON;92500;;;Crédit Agricole - Paris
Agence bancaire Rungis;76, rue de la Tour, 94516 RUNGIS;94516;;;Crédit Agricole - Paris
Agence bancaire Saint Arnoult En Yvelines;58, rue Charles de Gaulle, 78730 SAINT ARNOULT;78730;;;Crédit Agricole - Paris
Agence bancaire Saint Cyr L'Ecole;21 rue Gabriel Péri, 78210 SAINT CYR L'ECOLE;78210;;;Crédit Agricole - Paris
Agence bancaire Saint Denis;19 Boulevard Marcel Sembat, 93200 SAINT DENIS;93200;48,9315;2,35343;Crédit Agricole - Paris
Agence bancaire Saint Denis La Plaine;12 rue André Campra, 93210 SAINT DENIS;93210;48,919322;2,353029;Crédit Agricole - Paris
Agence bancaire Saint Germain En Laye;3 place Victoire, 78100 SAINT GERMAIN EN LAYE;78100;48,89869;2,08948;Crédit Agricole - Paris
Agence bancaire St Germain Chateau;63-65, rue au Pain, 78100 SAINT GERMAIN EN LAYE;78100;48,89739;2,09288;Crédit Agricole - Paris
Agence bancaire Saint-Germain-Les-Corbeil;Centre Commercial la Croix Verte, 91250 SAINT GERMAIN LES CORBEIL;91250;;;Crédit Agricole - Paris
Agence bancaire Saint Leu La Foret;61, rue du Général Leclerc, 95320 SAINT LEU;95320;;;Crédit Agricole - Paris
Agence bancaire Saint Mandé;174, Avenue de Paris, 94160 SAINT MANDE;94160;;;Crédit Agricole - Paris
Agence bancaire Saint-Maur-des-Fossés;21 av de la Republique, 94100 SAINT MAUR;94100;;;Crédit Agricole - Paris
Agence bancaire Saint Ouen L'Aumone;57, rue du Général Leclerc, 95310 SAINT OUEN L'AUMONE;95310;;;Crédit Agricole - Paris
Agence bancaire Saint Ouen Sur Seine;5 rue Anselme, 93400 SAINT OUEN SUR SEINE;93400;;;Crédit Agricole - Paris
Agence bancaire Saint Cloud;59 Boulevard de la République, 92210 Saint-Cloud;92210;;;Crédit Agricole - Paris
Agence bancaire Saint-Gratien;66 Rue Berthie Albrecht, 95210 Saint-Gratien;95210;;;Crédit Agricole - Paris
Agence bancaire Ste Genevieve Donjon;1 rue des Eglantiers, 91700 SAINTE GENEVIEVE DES BOIS;91700;48,63817;2,33163;Crédit Agricole - Paris
Agence bancaire Ste Genevieve Gare;17-19 av Gabriel Péri, 91700 SAINTE GENEVIEVE DES BOIS;91700;48,6519;2,31621;Crédit Agricole - Paris
Agence bancaire Sannois;place du General Leclerc, 95110 SANNOIS;95110;;;Crédit Agricole - Paris
Agence bancaire Sartrouville;80, avenue Jean Jaurès, 78500 SARTROUVILLE;78500;;;Crédit Agricole - Paris
Agence bancaire Savigny Plateau;7 bd Aristide Briand, 91600 SAVIGNY;91600;;;Crédit Agricole - Paris
Agence bancaire Sceaux;102 rue Houdan, 92330 SCEAUX;92330;;;Crédit Agricole - Paris
Agence bancaire Septeuil;6 rue F. Brean, 78790 SEPTEUIL;78790;;;Crédit Agricole - Paris
Agence bancaire Sevres;35 av de l'Europe, 92310 SEVRES;92310;;;Crédit Agricole - Paris
Agence bancaire Sucy en Brie;6, rue du Moutier, 94370 SUCY EN BRIE;94370;;;Crédit Agricole - Paris
Agence bancaire Suresnes Henri IV;42 rue des Bourets, 92150 SURESNES;92150;;;Crédit Agricole - Paris
Agence bancaire Taverny;21 av de la Gare, 95150 TAVERNY;95150;;;Crédit Agricole - Paris
Agence bancaire Vanves;6 rue Jean Bleuzen, 92170 VANVES;92170;;;Crédit Agricole - Paris
Agence bancaire Velizy Le Mail;av du Général de Gaulle, 78140 VELIZY;78140;;;Crédit Agricole - Paris
Agence bancaire Verneuil Sur Seine;place du Clos du Verger, 78480 VERNEUIL SUR SEINE;78480;;;Crédit Agricole - Paris
Agence bancaire Verrieres Le Buisson;18 rue de Paron, 91370 VERRIERES LE BUISSON;91370;;;Crédit Agricole - Paris
Agence bancaire Versailles Charost;7 place Charost, 78000 VERSAILLES;78000;48,8038;2,13259;Crédit Agricole - Paris
Agence bancaire Versailles Rive Droite;34, rue du Maréchal Foch, 78000 VERSAILLES;78000;48,80891;2,13346;Crédit Agricole - Paris
Agence bancaire Versailles Saint Louis;32 Rue Royale, 78000 Versailles;78000;48,7971334;2,1261829;Crédit Agricole - Paris
Agence bancaire Villejuif;11 av P. V. Couturier, 94800 VILLEJUIF;94800;;;Crédit Agricole - Paris
Agence bancaire Villeneuve le Roi;44, rue du Général de Gaulle, 94290 VILLENEUVE LE ROI;94290;;;Crédit Agricole - Paris
Agence bancaire Villeneuve Saint Georges;1, av Carnot, 94190 VILLENEUVE SAINT GEORGES;94190;;;Crédit Agricole - Paris
Agence bancaire Villepinte;32 av de la Gare, 93420 VILLEPINTE;93420;;;Crédit Agricole - Paris
Agence bancaire Villiers sur Marne;Résidence le Belvédère - rue Guillaume Bude, 94350 VILLIERS SUR MARNE;94350;;;Crédit Agricole - Paris
Agence bancaire Vincennes;60 bis rue de Montreuil, 94300 VINCENNES;94300;48,8478;2,43466;Crédit Agricole - Paris
Agence bancaire Vincennes Diderot;275, rue de Diderot, 94300 VINCENNES;94300;48,8504;2,44602;Crédit Agricole - Paris
Agence bancaire Viry Chatillon;1 rue Henri Barbusse, 91170 VIRY CHATILLON;91170;;;Crédit Agricole - Paris
Agence bancaire Vitry Mairie;27 av Maximilien Robespierre, 94400 VITRY SUR SEINE;94400;;;Crédit Agricole - Paris
Agence bancaire Voisins Le Bretonneux;CENTRE COMMERCIAL DE CHAMFLEURY CD 36 rue aux fleurs, 78960 VOISINS LE BRETONNEUX;78960;;;Crédit Agricole - Paris
Agence bancaire Yerres;38, rue Charles de Gaulle, 91330 YERRES;91330;;;Crédit Agricole - Paris
