nom;adresse;code_postal;latitude;longitude;region_source
Agence bancaire AHUN;1 grande rue, 23150 AHUN;23150;;;Crédit Agricole - Centre France
Agence bancaire AIGUEPERSE;196 Grande Rue, 63260 AIGUEPERSE;63260;;;Crédit Agricole - Centre France
Agence bancaire AINAY LE CHATEAU;6 RUE DES FOSSES, 03360 AINAY LE CHATEAU;03360;;;Crédit Agricole - Centre France
Agence bancaire ALLANCHE;2 GRAND RUE ABBE DE PRADT, 15160 ALLANCHE;15160;;;Crédit Agricole - Centre France
Agence bancaire ALLASSAC;18 PLACE DE LA REPUBLIQUE, 19240 ALLASSAC;19240;;;Crédit Agricole - Centre France
Agence bancaire AMBERT;1 AVENUE DES TUILERIES, 63600 AMBERT;63600;;;Crédit Agricole - Centre France
Agence bancaire MONTPLAIN;18 ZAC Montplaisir ouest - Montplain, 15100 ANDELAT;15100;;;Crédit Agricole - Centre France
Agence bancaire ARDES-SUR-COUZE;PLACE DU FOIRAIL, 63420 ARDES-SUR-COUZE;63420;;;Crédit Agricole - Centre France
Agence bancaire ARGENTAT;13 PLACE GAMBETTA, 19400 ARGENTAT;19400;;;Crédit Agricole - Centre France
Agence bancaire ARLANC;8 RUE JEAN VELLAY, 63220 ARLANC;63220;;;Crédit Agricole - Centre France
Agence bancaire ARPAJON-SUR-CERE;3 RUE LOUIS MATIERE, 15130 ARPAJON-SUR-CERE;15130;;;Crédit Agricole - Centre France
Agence bancaire AUBIERE;10 SQUARE WILLIAM KNOX, 63170 AUBIERE;63170;;;Crédit Agricole - Centre France
Agence bancaire AUBUSSON;9 PLACE DU GENERAL ESPAGNE, 23200 AUBUSSON;23200;;;Crédit Agricole - Centre France
Agence bancaire AULNAT;16 RUE DU COMMERCE, 63510 AULNAT;63510;;;Crédit Agricole - Centre France
Agence bancaire AGENCE DES PROFESSIONNELS D'AURILLAC;8 Place du Square, 15000 Aurillac;15000;44,9278009;2,4442881;Crédit Agricole - Centre France
Agence bancaire AURILLAC ALOUETTES;1 RUE D ILLZACH, 15000 AURILLAC;15000;44,930494;2,436285;Crédit Agricole - Centre France
Agence bancaire AURILLAC BELBEX;RUE JEAN MOULIN, 15000 AURILLAC;15000;44,917963;2,424152;Crédit Agricole - Centre France
Agence bancaire AURILLAC CAP-BLANC;53 AVENUE JEAN BAPTISTE VEYRE, 15000 AURILLAC;15000;44,936753;2,455341;Crédit Agricole - Centre France
Agence bancaire AURILLAC ENTREPRISES;2 RUE NICÉPHORE NIEPCE, 15001 AURILLAC;15001;44,909096;2,45508;Crédit Agricole - Centre France
Agence bancaire AURILLAC HOTEL DE VILLE;20 PLACE DE L'HOTEL DE VILLE, 15000 AURILLAC;15000;44,930471;2,445518;Crédit Agricole - Centre France
Agence bancaire AURILLAC MARMIERS;CENTRE COMMERCIAL MARMIERS, 15000 AURILLAC;15000;44,91202;2,435436;Crédit Agricole - Centre France
Agence bancaire AURILLAC OLYMPIADES;36 AVENUE DES PUPILLES DE LA NATION, 15000 AURILLAC;15000;44,921036;2,439171;Crédit Agricole - Centre France
Agence bancaire AURILLAC SAINT-ELOI;8 Place du Square, 15000 AURILLAC;15000;44,927831;2,444342;Crédit Agricole - Centre France
Agence bancaire BANQUE PRIVEE DU CANTAL;2 RUE NICEPHORE NIEPCE, 15001 AURILLAC;15001;44,9090958;2,4550798;Crédit Agricole - Centre France
Agence bancaire AUZANCES;12, AVENUE DE LA GARE, 23700 AUZANCES;23700;;;Crédit Agricole - Centre France
Agence bancaire AVERMES;110, ROUTE DE PARIS, 03000 AVERMES;03000;;;Crédit Agricole - Centre France
Agence bancaire BEAULIEU;12, PLACE DU CHAMP DE MARS, 19120 BEAULIEU SUR DORDOGNE;19120;;;Crédit Agricole - Centre France
Agence bancaire BEAUMONT;CENTRE COMMERCIAL LE GRAND CHAMP, 63110 BEAUMONT;63110;;;Crédit Agricole - Centre France
Agence bancaire BELLERIVE;20 BIS AVENUE DE RUSSIE, 03700 BELLERIVE SUR ALLIER;03700;;;Crédit Agricole - Centre France
Agence bancaire BENEVENT L ABBAYE;16 RUE DU MARCHE, 23210 BENEVENT L ABBAYE;23210;;;Crédit Agricole - Centre France
Agence bancaire BESSE EN CHANDESSE;12, PLACE GRAND MEZE, 63610 BESSE EN CHANDESSE;63610;;;Crédit Agricole - Centre France
Agence bancaire BEYNAT;PLACE DU CHAMP DE FOIRE, 19190 BEYNAT;19190;;;Crédit Agricole - Centre France
Agence bancaire BILLOM;PLACE JOSEPH CLAUSSAT, 63160 BILLOM;63160;;;Crédit Agricole - Centre France
Agence bancaire BONNAT;2 AVENUE DU CHATEAU, 23220 BONNAT;23220;;;Crédit Agricole - Centre France
Agence bancaire BORT LES ORGUES;PLACE DE LA NATION, 19110 BORT LES ORGUES;19110;;;Crédit Agricole - Centre France
Agence bancaire BOURBON L ARCHAMBAULT;8 RUE DU LIEUTENANT COLONEL DUBOST, 03160 BOURBON L ARCHAMBAULT;03160;;;Crédit Agricole - Centre France
Agence bancaire BOURG LASTIC;25 ROUTE DE CLERMONT, 63760 BOURG LASTIC;63760;;;Crédit Agricole - Centre France
Agence bancaire BOURGANEUF;18 RUE DE L ETANG, 23400 BOURGANEUF;23400;;;Crédit Agricole - Centre France
Agence bancaire BOUSSAC;1 RUE DU 11 NOVEMBRE, 23600 BOUSSAC;23600;;;Crédit Agricole - Centre France
Agence bancaire BRASSAC LES MINES;8 PLACE DE LA LIBERTE, 63570 BRASSAC LES MINES;63570;;;Crédit Agricole - Centre France
Agence bancaire BANQUE PRIVEE DE LA CORREZE;5 PLACE DE LA REPUBLIQUE, 19100 BRIVE;19100;45,156891;1,529585;Crédit Agricole - Centre France
Agence bancaire BRIVE ENTREPRISES;5 PLACE DE LA REPUBLIQUE, 19100 BRIVE;19100;45,15706;1,52974;Crédit Agricole - Centre France
Agence bancaire BRIVE ESTAVEL;17 RUE JEAN MARSALES, 19100 BRIVE;19100;45,1529959;1,5052489;Crédit Agricole - Centre France
Agence bancaire BRIVE LE PILOU;1 RUE MARCELLE TINAYRE, 19100 BRIVE;19100;45,158147;1,55614;Crédit Agricole - Centre France
Agence bancaire BRIVE PASTEUR;1 AVENUE PASTEUR, 19100 BRIVE;19100;45,165407;1,5317195;Crédit Agricole - Centre France
Agence bancaire BRIVE PIERRE SEMARD;32 AVENUE PIERRE SEMARD, 19100 BRIVE;19100;45,1568637;1,5210364;Crédit Agricole - Centre France
Agence bancaire BRIVE RIBOT;9 AVENUE RIBOT, 19100 BRIVE;19100;45,1650968;1,519865;Crédit Agricole - Centre France
Agence bancaire BRIVE THIERS;2 AVENUE THIERS, 19100 BRIVE;19100;45,1573162;1,5364413;Crédit Agricole - Centre France
Agence bancaire BRIVE VIEILLE HALLE;PLACE JEAN MARIE DAUZIER, 19100 BRIVE;19100;45,1603204;1,53414;Crédit Agricole - Centre France
Agence bancaire AGENCE DES PROFESSIONNELS DE BRIVE;32 Avenue Pierre Semard, 19100 Brive-la-Gaillarde;19100;;;Crédit Agricole - Centre France
Agence bancaire BUGEAT;PLACE DE LA RESISTANCE, 19170 BUGEAT;19170;;;Crédit Agricole - Centre France
Agence bancaire CEBAZAT;12 COURS DES PERCHES, 63118 CEBAZAT;63118;45,830444;3,099697;Crédit Agricole - Centre France
Agence bancaire CEBAZAT LES 3 FÉES;2 rue George Sand, 63118 CEBAZAT;63118;45,83397998334953;3,103858440090136;Crédit Agricole - Centre France
Agence bancaire CERILLY;4 RUE JOSEPH DUPECHAUD, 03350 CERILLY;03350;;;Crédit Agricole - Centre France
Agence bancaire CEYRAT;44 AVENUE WILSON, 63122 CEYRAT;63122;45,730892;3,063808;Crédit Agricole - Centre France
Agence bancaire CEYRAT BOISVALLON;Centre Commercial La Rotonde, 10 Avenue de Royat, 63122 CEYRAT;63122;45,747122;3,064153;Crédit Agricole - Centre France
Agence bancaire CHAMALIERES;48 BIS AVENUE DE ROYAT, 63400 CHAMALIERES;63400;;;Crédit Agricole - Centre France
Agence bancaire CHAMBERET;PLACE DE LA MAIRIE, 19370 CHAMBERET;19370;;;Crédit Agricole - Centre France
Agence bancaire CHAMBON SUR VOUEIZE;RUE DE LA COUTURE, 23170 CHAMBON SUR VOUEIZE;23170;;;Crédit Agricole - Centre France
Agence bancaire CHAMPS SUR TARENTAINE;1 ROUTE SARRAN, 15270 CHAMPS SUR TARENTAINE;15270;;;Crédit Agricole - Centre France
Agence bancaire CHANTELLE;4 RUE DE LA FONT NEUVE, 03140 CHANTELLE;03140;;;Crédit Agricole - Centre France
Agence bancaire CHATEL GUYON;43 AVENUE DES ETATS UNIS, 63140 CHATEL GUYON;63140;;;Crédit Agricole - Centre France
Agence bancaire CHATELUS MALVALEIX;2 PLACE SAINT PIERRE, 23270 CHATELUS MALVALEIX;23270;;;Crédit Agricole - Centre France
Agence bancaire CHAUDES-AIGUES;8 PLACE DU FAUBOURG-D OUTRE, 15110 CHAUDES-AIGUES;15110;;;Crédit Agricole - Centre France
Agence bancaire CHENERAILLES;4 RUE MARCHE AUX ANES, 23130 CHENERAILLES;23130;;;Crédit Agricole - Centre France
Agence en ligne Globe Trotter;1 Avenue de la Libération, 63000 Clermont-Ferrand;63000;45,77084180000001;3,0835003;Crédit Agricole - Centre France
Agence bancaire AGENCE DES PROFESSIONNELS DE CLERMONT FERRAND;10 Rue des Salles, 63000 Clermont-Ferrand;63000;45,7756962;3,0803893;Crédit Agricole - Centre France
Agence bancaire BANQUE PRIVEE BLATIN;83 Rue Blatin, 63000 Clermont-Ferrand;63000;45,7762542;3,0741586;Crédit Agricole - Centre France
Agence bancaire BANQUE PRIVEE LA PARDIEU;10 RUE VALENTIN HAUY, 63000 CLERMONT-FERRAND;63000;45,762606;3,137624;Crédit Agricole - Centre France
Agence bancaire CENTRE D'AFFAIRES DES PROFESSIONNELS;229 Boulevard Gustave Flaubert, 63000 Clermont-Ferrand;63000;45,7584178;3,1277108;Crédit Agricole - Centre France
Agence bancaire CLERMONT ANATOLE FRANCE;102 BIS AVENUE ANATOLE FRANCE, 63000 CLERMONT-FERRAND;63000;45,777942;3,1073364;Crédit Agricole - Centre France
Agence bancaire CLERMONT BARBIER DAUBRÉE;68 Avenue Barbier Daubrée, 63100 Clermont-Ferrand;63100;45,7892332;3,0980953;Crédit Agricole - Centre France
Agence bancaire CLERMONT BEAUX ARTS;4 RUE BALLAINVILLIERS, 63000 CLERMONT-FERRAND;63000;45,7759185;3,0865791;Crédit Agricole - Centre France
Agence bancaire CLERMONT COTE BLATIN FACULTES;6 BOULEVARD COTE BLATIN, 63000 CLERMONT-FERRAND;63000;45,772638;3,094191;Crédit Agricole - Centre France
Agence bancaire CLERMONT DELILLE;1 PLACE DELILLE, 63000 CLERMONT-FERRAND;63000;45,7799316;3,0908111;Crédit Agricole - Centre France
Agence bancaire CLERMONT DUNANT CHU;7 PLACE HENRI DUNANT, 63000 CLERMONT-FERRAND;63000;45,761198;3,090492;Crédit Agricole - Centre France
Agence bancaire CLERMONT ENTREPRISES;10 RUE VALENTIN HAUY, 63000 CLERMONT-FERRAND;63000;45,7625627;3,1377554;Crédit Agricole - Centre France
Agence bancaire CLERMONT FLAUBERT;229 BOULEVARD GUSTAVE FLAUBERT, 63000 CLERMONT-FERRAND;63000;45,758421;3,127926;Crédit Agricole - Centre France
Agence bancaire CLERMONT GAILLARD;2 AVENUE DES ETATS UNIS, 63000 CLERMONT-FERRAND;63000;45,7800644;3,081612;Crédit Agricole - Centre France
Agence bancaire CLERMONT JAUDE;30 PLACE DE JAUDE, 63000 CLERMONT-FERRAND;63000;45,776247;3,0815766;Crédit Agricole - Centre France
Agence bancaire CLERMONT LA GLACIERE;79 RUE CHATEAUBRIAND, 63100 CLERMONT-FERRAND;63100;45,792629;3,079053;Crédit Agricole - Centre France
Agence bancaire CLERMONT LAFAYETTE;143 BOULEVARD LAFAYETTE, 63000 CLERMONT-FERRAND;63000;45,767791;3,106381;Crédit Agricole - Centre France
Agence bancaire CLERMONT LAVOISIER;86, RUE SAINT ALYRE, 63000 CLERMONT-FERRAND;63000;45,785241;3,081021;Crédit Agricole - Centre France
Agence bancaire CLERMONT LE MAUL;107 AVENUE DE LA REPUBLIQUE, 63000 CLERMONT-FERRAND;63000;45,7883081;3,1064155;Crédit Agricole - Centre France
Agence bancaire CLERMONT SALINS;73 Boulevard François Mitterrand, 63000 Clermont-Ferrand;63000;45,7709494;3,0837708;Crédit Agricole - Centre France
Agence bancaire CLERMONT VIVIANI;33 RUE ROUVIER, 63100 CLERMONT-FERRAND;63100;45,8072619;3,1176872;Crédit Agricole - Centre France
Agence bancaire CLERMONT- CROIX NEYRAT;Centre commercial - rue du torpilleur sirocco, 63100 CLERMONT-FERRAND;63100;45,811962;3,108263;Crédit Agricole - Centre France
Agence bancaire GRANDES ENTREPRISES ET INSTITUTIONS;LA PARDIEU 10 RUE VALENTIN HAÜY, 63000 CLERMONT-FERRAND;63000;45,762765;3,137755;Crédit Agricole - Centre France
Agence bancaire MONTFERRAND;15 BOULEVARD LEON JOUHAUX, 63100 CLERMONT-FERRAND;63100;45,79155;3,114281;Crédit Agricole - Centre France
Agence bancaire COMBRONDE;74 AVENUE ETIENNE CLEMENTEL, 63460 COMBRONDE;63460;;;Crédit Agricole - Centre France
Agence bancaire COMMENTRY;15 BIS PLACE DU 14 JUILLET, 03600 COMMENTRY;03600;;;Crédit Agricole - Centre France
Agence bancaire CONDAT;PLACE DE LA MAIRIE, 15190 CONDAT;15190;;;Crédit Agricole - Centre France
Agence bancaire CORREZE;11 AVENUE DE LA GARE, 19800 CORREZE;19800;;;Crédit Agricole - Centre France
Agence bancaire COSNE D ALLIER;1 PLAN DE FOIRE, 03430 COSNE D ALLIER;03430;;;Crédit Agricole - Centre France
Agence bancaire COURNON D AUVERGNE;2 AVENUE DE LA REPUBLIQUE, 63800 COURNON D AUVERGNE;63800;45,739856;3,195805;Crédit Agricole - Centre France
Agence bancaire COURNON LE LAC;39 BIS AVENUE DE LA LIBERATION, 63800 COURNON D AUVERGNE;63800;45,731987;3,191716;Crédit Agricole - Centre France
Agence bancaire COURNON LES ACILLOUX;1 AVENUE MARECHAL LECLERC, 63800 COURNON D AUVERGNE;63800;45,740147;3,171997;Crédit Agricole - Centre France
Agence bancaire COURPIERE;23 PLACE DE LA LIBERATION, 63120 COURPIERE;63120;;;Crédit Agricole - Centre France
Agence bancaire CROCQ;Route de la Bourboule, 23260 CROCQ;23260;;;Crédit Agricole - Centre France
Agence bancaire CUNLHAT;RUE DE LA POSTE, 63590 CUNLHAT;63590;;;Crédit Agricole - Centre France
Agence bancaire CUSSET;20 PLACE VICTOR HUGO, 03300 CUSSET;03300;;;Crédit Agricole - Centre France
Agence bancaire DESERTINES;15 RUE JACQUES PENNICHON, 03630 DESERTINES;03630;;;Crédit Agricole - Centre France
Agence bancaire DOMERAT;3 RUE MARX DORMOY, 03410 DOMERAT;03410;;;Crédit Agricole - Centre France
Agence bancaire DOMPIERRE SUR BESBRE;PLACE DU COMMERCE, 03290 DOMPIERRE SUR BESBRE;03290;;;Crédit Agricole - Centre France
Agence bancaire DONZENAC;7 AVENUE DE PARIS, 19270 DONZENAC;19270;;;Crédit Agricole - Centre France
Agence bancaire DUN LE PALESTEL;GRANDE RUE, 23800 DUN LE PALESTEL;23800;;;Crédit Agricole - Centre France
Agence bancaire DURTOL;1 AVENUE DE PONTGIBAUD, 63830 DURTOL;63830;;;Crédit Agricole - Centre France
Agence bancaire EBREUIL;1 Rue des Fossés, 03450 EBREUIL;03450;;;Crédit Agricole - Centre France
Agence bancaire EGLETONS;58 AVENUE CHARLES DE GAULLE, 19300 EGLETONS;19300;;;Crédit Agricole - Centre France
Agence bancaire ENNEZAT;5 RUE DE LA REPUBLIQUE, 63720 ENNEZAT;63720;;;Crédit Agricole - Centre France
Agence bancaire EVAUX LES BAINS;RUE DES THERMES, 23110 EVAUX LES BAINS;23110;;;Crédit Agricole - Centre France
Agence bancaire EYGURANDE;16 RUE DE LA GARE, 19340 EYGURANDE;19340;;;Crédit Agricole - Centre France
Agence bancaire FELLETIN;17 PLACE COURTAUD, 23500 FELLETIN;23500;;;Crédit Agricole - Centre France
Agence bancaire GANNAT;24 GRAND RUE, 03800 GANNAT;03800;;;Crédit Agricole - Centre France
Agence bancaire GERZAT;1 RUE DU PONT, 63360 GERZAT;63360;45,825256;3,140786;Crédit Agricole - Centre France
Agence bancaire GERZAT FONTCHENILLE;Zone commerciale - boulevard François Mitterrand, 63360 GERZAT;63360;45,816102;3,14431;Crédit Agricole - Centre France
Agence bancaire GIAT;1 AVENUE DE LA GARE, 63620 GIAT;63620;;;Crédit Agricole - Centre France
Agence bancaire GOUZON;PLACE DE L'EGLISE, 23230 GOUZON;23230;;;Crédit Agricole - Centre France
Agence bancaire GRAND BOURG;ROUTE DE BENEVENT, 23240 GRAND BOURG;23240;;;Crédit Agricole - Centre France
Agence bancaire BANQUE PRIVEE DE LA CREUSE;22 BOULEVARD CARNOT, 23000 GUERET;23000;46,170562;1,869572;Crédit Agricole - Centre France
Agence bancaire GUERET CARNOT;22 Boulevard Carnot, 23000 GUERET;23000;46,1705616;1,869572400000038;Crédit Agricole - Centre France
Agence bancaire GUERET LA PIGUE;48 AVENUE DU BERRY, 23000 GUERET;23000;46,178335;1,877866;Crédit Agricole - Centre France
Agence bancaire ISSOIRE;27 BOULEVARD A. BUISSON, 63500 ISSOIRE;63500;45,545948;3,248035;Crédit Agricole - Centre France
Agence bancaire ISSOIRE PERRIER;584 ROUTE DE PERRIER, 63500 ISSOIRE;63500;45,544018;3,230889;Crédit Agricole - Centre France
Agence bancaire JALIGNY SUR BESBRE;1 GRAND RUE, 03220 JALIGNY SUR BESBRE;03220;;;Crédit Agricole - Centre France
Agence bancaire JUILLAC;20 RUE DE LA REPUBLIQUE, 19350 JUILLAC;19350;;;Crédit Agricole - Centre France
Agence bancaire JUSSAC;1 PROMENADE DES SPORTS, 15250 JUSSAC;15250;;;Crédit Agricole - Centre France
Agence bancaire LA COURTINE;3 ROUTE DE CROCQ, 23100 LA COURTINE;23100;;;Crédit Agricole - Centre France
Agence bancaire LA MONNERIE LE MONTEL;ROUTE DE LA GARE, 63650 LA MONNERIE LE MONTEL;63650;;;Crédit Agricole - Centre France
Agence bancaire LA ROCHE BLANCHE;ESPACE COMMERCIAL LE GERGOVIAL - AVENUE GENERAL DE GAULLE, 63670 LA ROCHE BLANCHE;63670;;;Crédit Agricole - Centre France
Agence bancaire LA SOUTERRAINE;18 RUE SAINT JACQUES, 23300 LA SOUTERRAINE;23300;;;Crédit Agricole - Centre France
Agence bancaire LA TOUR D AUVERGNE;PLACE JOSEPH MALEGUE, 63680 LA TOUR D AUVERGNE;63680;;;Crédit Agricole - Centre France
Agence bancaire LANOBRE;PLACE DE L EGLISE, 15270 LANOBRE;15270;;;Crédit Agricole - Centre France
Agence bancaire LAPALISSE;7 AVENUE CHARLES DE GAULLE, 03120 LAPALISSE;03120;;;Crédit Agricole - Centre France
Agence bancaire LARCHE;3 RUE PONT BARBAZAN, 19600 LARCHE;19600;;;Crédit Agricole - Centre France
Agence bancaire LAROQUEBROU;3 RUE DU 11 JUIN 1944, 15150 LAROQUEBROU;15150;;;Crédit Agricole - Centre France
Agence bancaire LE CENDRE;13 AVENUE CENTRALE, 63670 LE CENDRE;63670;;;Crédit Agricole - Centre France
Agence bancaire LE DONJON;3 AVENUE HONORE PREVERAUD, 03130 LE DONJON;03130;;;Crédit Agricole - Centre France
Agence bancaire LE MAYET DE MONTAGNE;45 RUE FRANCISQUE DRIFFORD, 03250 LE MAYET DE MONTAGNE;03250;;;Crédit Agricole - Centre France
Agence bancaire LE MONT DORE;15A RUE DU CAPITAINE CHAZOTTE, 63240 LE MONT DORE;63240;;;Crédit Agricole - Centre France
Agence bancaire LE MONTET;24 ROUTE DEPARTEMENTALE 945, 03240 LE MONTET;03240;;;Crédit Agricole - Centre France
Agence bancaire LE ROUGET;5 PLACE DE LA MAIRIE, 15290 LE ROUGET;15290;;;Crédit Agricole - Centre France
Agence bancaire LEMPDES;4 PLACE ROGER COURNIL, 63370 LEMPDES;63370;;;Crédit Agricole - Centre France
Agence bancaire LES MARTRES DE VEYRE;RUE DU PONT DE LA PIERRE, 63730 LES MARTRES DE VEYRE;63730;;;Crédit Agricole - Centre France
Agence bancaire LEZOUX;SQUARE LOPIK, 63190 LEZOUX;63190;;;Crédit Agricole - Centre France
Agence bancaire LUBERSAC;1 RUE DES ECOLES, 19210 LUBERSAC;19210;;;Crédit Agricole - Centre France
Agence bancaire LURCY LEVIS;56 BOULEVARD GAMBETTA, 03320 LURCY LEVIS;03320;;;Crédit Agricole - Centre France
Agence bancaire MALEMORT;11 AV PIERRE ET MARIE CURIE, 19361 MALEMORT;19361;;;Crédit Agricole - Centre France
Agence bancaire MARCILLAC LA CROISILLE;17 ROUTE DE L ANCIENNE GARE, 19320 MARCILLAC LA CROISILLE;19320;;;Crédit Agricole - Centre France
Agence bancaire MARCILLAT EN COMBRAILLES;PLACE PIERRE BITARD, 03420 MARCILLAT EN COMBRAILLES;03420;;;Crédit Agricole - Centre France
Agence bancaire MARINGUES;PLACE FRANCOIS SEGUIN, 63350 MARINGUES;63350;;;Crédit Agricole - Centre France
Agence bancaire MASSIAC;18 AVENUE DU GENERAL DE GAULLE, 15500 MASSIAC;15500;;;Crédit Agricole - Centre France
Agence bancaire MAURIAC;AVENUE FERNAND TALANDIER, 15200 MAURIAC;15200;;;Crédit Agricole - Centre France
Agence bancaire MAURS;RUE DU 8 MAI 1945, 15600 MAURS;15600;;;Crédit Agricole - Centre France
Agence bancaire MEYMAC;74 AVENUE LIMOUSINE, 19250 MEYMAC;19250;;;Crédit Agricole - Centre France
Agence bancaire MEYSSAC;PLACE DU JET D EAU, 19500 MEYSSAC;19500;;;Crédit Agricole - Centre France
Agence bancaire MONTLUCON COURTAIS;110 BOULEVARD DE COURTAIS, 03100 MONTLUCON;03100;46,339508;2,607734;Crédit Agricole - Centre France
Agence bancaire MONTLUCON LA VILLE GOZET;18 AVENUE DE LA REPUBLIQUE, 03100 MONTLUCON;03100;46,344385;2,59912;Crédit Agricole - Centre France
Agence bancaire MONTLUCON LES GUINEBERTS;67 AVENUE JULES GUESDE, 03100 MONTLUCON;03100;46,340246;2,583691;Crédit Agricole - Centre France
Agence bancaire MONTMARAULT;13 PLACE ROBERT FERRANDON, 03390 MONTMARAULT;03390;;;Crédit Agricole - Centre France
Agence bancaire MONTSALVY;RUE DU TOUR DE VILLE, 15120 MONTSALVY;15120;;;Crédit Agricole - Centre France
Agence bancaire MOULINS ENTREPRISES;FROMENTEAU - ROUTE NATIONALE 7, 03003 MOULINS;03003;46,534482;3,347052;Crédit Agricole - Centre France
Agence bancaire MOULINS LA MADELEINE;23 AVENUE DE LA LIBERATION, 03000 MOULINS;03000;46,5601674;3,3181421;Crédit Agricole - Centre France
Agence bancaire MOULINS PLACE D ALLIER;44 PLACE D ALLIER, 03000 MOULINS;03000;46,564952;3,3300253;Crédit Agricole - Centre France
Agence bancaire MOZAC;9 Rue Fernand Forest, 63200 Mozac;63200;;;Crédit Agricole - Centre France
Agence bancaire MURAT;8 AVENUE HECTOR PESCHAUD, 15300 MURAT;15300;;;Crédit Agricole - Centre France
Agence bancaire NERIS LES BAINS;19 PLACE DE LA REPUBLIQUE, 03310 NERIS LES BAINS;03310;;;Crédit Agricole - Centre France
Agence bancaire NEUVIC D USSEL;2 RUE DU TRESOR, 19160 NEUVIC;19160;;;Crédit Agricole - Centre France
Agence bancaire OBJAT;14 BOULEVARD HENRI DE JOUVENEL, 19130 OBJAT;19130;;;Crédit Agricole - Centre France
Agence bancaire OLLIERGUES;Avenue Rhin et Danube, 63880 OLLIERGUES;63880;;;Crédit Agricole - Centre France
Agence bancaire PERPEZAC LE NOIR;ROUTE D ALLASSAC, 19410 PERPEZAC LE NOIR;19410;;;Crédit Agricole - Centre France
Agence bancaire PEYRELEVADE;RUE DE LA MAIRIE, 19290 PEYRELEVADE;19290;;;Crédit Agricole - Centre France
Agence bancaire PIERREFORT;31 AVENUE GEORGES POMPIDOU, 15230 PIERREFORT;15230;;;Crédit Agricole - Centre France
Agence bancaire PIONSAT;19 RUE DE LA REPUBLIQUE, 63330 PIONSAT;63330;;;Crédit Agricole - Centre France
Agence bancaire PLEAUX;RUE DU BOURNAT, 15700 PLEAUX;15700;;;Crédit Agricole - Centre France
Agence bancaire ARNAC POMPADOUR;1BIS PLACE DU CHATEAU, 19230 POMPADOUR;19230;;;Crédit Agricole - Centre France
Agence bancaire PONT DU CHATEAU;1 AVENUE DU DOCTEUR BESSERVE, 63430 PONT DU CHATEAU;63430;45,79964;3,248527;Crédit Agricole - Centre France
Agence bancaire PONT DU CHÂTEAU RIVE DROITE;1 AVENUE JEAN MOULIN, 63430 PONT DU CHATEAU;63430;45,791169;3,261613;Crédit Agricole - Centre France
Agence bancaire PONTAUMUR;AVENUE GORDON BENETT, 63380 PONTAUMUR;63380;;;Crédit Agricole - Centre France
Agence bancaire PONTGIBAUD;PLACE DE LA REPUBLIQUE, 63230 PONTGIBAUD;63230;;;Crédit Agricole - Centre France
Agence bancaire PUY GUILLAUME;2, RUE EMILE ZOLA RESIDENCE LA CREDOGNE, 63290 PUY GUILLAUME;63290;;;Crédit Agricole - Centre France
Agence bancaire RANDAN;Place des Charmes, 63310 Randan;63310;;;Crédit Agricole - Centre France
Agence bancaire RIOM;BOULEVARD DE LA LIBERTE, 63200 RIOM;63200;;;Crédit Agricole - Centre France
Agence bancaire RIOM ES MONTAGNES;15 PLACE DU MONUMENT, 15400 RIOM ES MONTAGNES;15400;;;Crédit Agricole - Centre France
Agence bancaire ROCHEFORT MONTAGNE;ROUTE D ORCIVAL, 63210 ROCHEFORT MONTAGNE;63210;;;Crédit Agricole - Centre France
Agence bancaire ROMAGNAT;20 AVENUE JEAN JAURES, 63540 ROMAGNAT;63540;;;Crédit Agricole - Centre France
Agence bancaire ROYAT;10 BIS, AVENUE JEAN JAURES, 63130 ROYAT;63130;;;Crédit Agricole - Centre France
Agence bancaire SAIGNES;8 RUE DE L HOTEL DE VILLE, 15240 SAIGNES;15240;;;Crédit Agricole - Centre France
Agence bancaire SAINT AMANT TALLENDE;37 PLACE DU DOCTEUR DARTEYRE, 63450 SAINT AMANT TALLENDE;63450;;;Crédit Agricole - Centre France
Agence bancaire SAINT ANTHEME;Place de l'Aubepin, 63660 SAINT ANTHEME;63660;;;Crédit Agricole - Centre France
Agence bancaire SAINT CERNIN;22 GRAND RUE, 15310 SAINT CERNIN;15310;;;Crédit Agricole - Centre France
Agence bancaire SAINT ELOY LES MINES;80 RUE JEAN JAURES, 63700 SAINT ELOY LES MINES;63700;;;Crédit Agricole - Centre France
Agence bancaire SAINT FLOUR MARGERIDE;24 PLACE DE LA LIBERTE, 15100 SAINT FLOUR;15100;45,034289;3,101591;Crédit Agricole - Centre France
Agence bancaire SAINT FLOUR VILLE;COURS SPY DES TERNES, 15100 SAINT FLOUR;15100;45,033416;3,089541;Crédit Agricole - Centre France
Agence bancaire SAINT GEORGES DE MONS;AVENUE DE LA LIBERATION, 63780 SAINT GEORGES DE MONS;63780;;;Crédit Agricole - Centre France
Agence bancaire SAINT GERMAIN DES FOSSES;93 RUE PIERRE SEMARD, 03260 SAINT GERMAIN DES FOSSES;03260;;;Crédit Agricole - Centre France
Agence bancaire SAINT GERMAIN L'HERM;Place de l'Hôtel de Ville, 63630 SAINT GERMAIN L'HERM;63630;;;Crédit Agricole - Centre France
Agence bancaire SAINT GERMAIN LEMBRON;PLACE DU LEMBRON, 63340 SAINT GERMAIN LEMBRON;63340;;;Crédit Agricole - Centre France
Agence bancaire SAINT GERVAIS D AUVERGNE;PLACE RAYMOND GAUVIN, 63390 SAINT GERVAIS D'AUVERGNE;63390;;;Crédit Agricole - Centre France
Agence bancaire SAINT MAMET;Place de l'Eglise, 15220 SAINT MAMET LA SALVETAT;15220;;;Crédit Agricole - Centre France
Agence bancaire SAINT PIERRE DE FURSAC;21 GRANDE RUE, 23290 SAINT PIERRE DE FURSAC;23290;;;Crédit Agricole - Centre France
Agence bancaire SAINT POURCAIN SUR SIOULE;85 BOULEVARD LEDRU ROLLIN, 03500 SAINT POURCAIN SUR SIOULE;03500;;;Crédit Agricole - Centre France
Agence bancaire SAINT PRIVAT;49 RUE DE LA XAINTRIE, 19220 SAINT PRIVAT;19220;;;Crédit Agricole - Centre France
Agence bancaire SAINT REMY SUR DUROLLE;Place du Commerce, 63550 SAINT REMY SUR DUROLLE;63550;;;Crédit Agricole - Centre France
Agence bancaire SAINT SEBASTIEN;PLACE DU CHAMP DE FOIRE, 23160 SAINT SEBASTIEN;23160;;;Crédit Agricole - Centre France
Agence bancaire SAINT URCIZE;Rue de l'Abbé Delbes, 15110 SAINT URCIZE;15110;;;Crédit Agricole - Centre France
Agence bancaire SAINT VAURY;PLACE DE L EGLISE, 23320 SAINT VAURY;23320;;;Crédit Agricole - Centre France
Agence bancaire SAINT YORRE;17 RUE PASTEUR, 03270 SAINT YORRE;03270;;;Crédit Agricole - Centre France
Agence bancaire SAUXILLANGES;PLACE DU 08 MAI, 63490 SAUXILLANGES;63490;;;Crédit Agricole - Centre France
Agence bancaire SEILHAC;36 AVENUE NATIONALE, 19700 SEILHAC;19700;;;Crédit Agricole - Centre France
Agence bancaire SORNAC;4 RUE DE LA REPUBLIQUE, 19290 SORNAC;19290;;;Crédit Agricole - Centre France
Agence bancaire TAUVES;PLACE DE LA MAIRIE, 63690 TAUVES;63690;;;Crédit Agricole - Centre France
Agence bancaire THIERS LEO LAGRANGE;11 AVENUE LEO LAGRANGE, 63300 THIERS;63300;45,849735;3,5373;Crédit Agricole - Centre France
Agence bancaire THIERS VILLE;30 RUE DES DOCTEURS DUMAS, 63300 THIERS;63300;45,858524;3,545375;Crédit Agricole - Centre France
Agence bancaire TREIGNAC;19 RUE EUGENE DAUBECH, 19260 TREIGNAC;19260;;;Crédit Agricole - Centre France
Agence bancaire TULLE EDMOND PERRIER;2 QUAI EDMOND PERRIER, 19000 TULLE;19000;45,2674973;1,7715756;Crédit Agricole - Centre France
Agence bancaire TULLE GARE;11 AVENUE WINSTON CHURCHILL, 19000 TULLE;19000;45,2593846;1,7566133;Crédit Agricole - Centre France
Agence bancaire TULLE JEAN JAURES;11 AVENUE JEAN JAURES, 19000 TULLE;19000;45,2650573;1,7694575;Crédit Agricole - Centre France
Agence bancaire USSEL VICTOR HUGO;1 BOULEVARD VICTOR HUGO, 19200 USSEL;19200;;;Crédit Agricole - Centre France
Agence bancaire UZERCHE;PLACE ELMETTI, 19240 UZERCHE;19240;;;Crédit Agricole - Centre France
Agence bancaire VALLON EN SULLY;3 RUE PAUL CONSTANT, 03190 VALLON EN SULLY;03190;;;Crédit Agricole - Centre France
Agence bancaire VARENNES SUR ALLIER;1 BIS PLACE DE L HOTEL DE VILLE, 03150 VARENNES SUR ALLIER;03150;;;Crédit Agricole - Centre France
Agence bancaire VERTAIZON;3 PLACE DE LA MAIRIE, 63910 VERTAIZON;63910;;;Crédit Agricole - Centre France
Agence bancaire VIC LE COMTE;BOULEVARD DU JEU DE PAUME, 63270 VIC LE COMTE;63270;;;Crédit Agricole - Centre France
Agence bancaire VIC SUR CERE;19 AVENUE MAX MABIT FOURNIER, 15800 VIC SUR CERE;15800;;;Crédit Agricole - Centre France
Agence bancaire AGENCE DES PROFESSIONNELS DE VICHY;16 ALLÉES DES AILES - 1ER ÉTAGE, 03200 Vichy;03200;46,137396;3,4161348;Crédit Agricole - Centre France
Agence bancaire BANQUE PRIVEE DE L'ALLIER;6 PLACE D ALLIER, 03200 VICHY;03200;46,12104;3,422829;Crédit Agricole - Centre France
Agence bancaire VICHY CLEMENCEAU;26, RUE GEORGES CLEMENCEAU, 03200 VICHY;03200;46,125364;3,422813;Crédit Agricole - Centre France
Agence bancaire VICHY LES AILES;16 ALLEE DES AILES, 03200 VICHY;03200;46,137491;3,416141;Crédit Agricole - Centre France
Agence bancaire VICHY MARCHE;25 BIS BOULEVARD GAMBETTA, 03200 VICHY;03200;46,129005;3,426017;Crédit Agricole - Centre France
Agence bancaire VIVEROLS;Le Bourg, 63840 VIVEROLS;63840;;;Crédit Agricole - Centre France
Agence bancaire YDES;33 AVENUE ROGER BESSE, 15210 YDES;15210;;;Crédit Agricole - Centre France
Agence bancaire MOULINS SUD;148 ROUTE DE LYON, 03400 YZEURE;03400;46,5455045;3,3417559;Crédit Agricole - Centre France
Agence bancaire YZEURE;38 PLACE JULES FERRY, 03400 YZEURE;03400;46,5661681;3,354552;Crédit Agricole - Centre France
