nom;adresse;code_postal;latitude;longitude;region_source
Agence bancaire AMBOISE;7, square des AFN, 37400 AMBOISE;37400;47,4117057;0,9823593;Crédit Agricole - Touraine Poitou
Agence bancaire AMBOISE LECLERC;Centre commercial E. Leclerc Avenue Léonard de Vinci, 37400 AMBOISE;37400;47,40442741;1,016004682;Crédit Agricole - Touraine Poitou
Agence Immobilière AMBOISE  Square Habitat;5 Allée du Sergent Turpin, 37400 Amboise;37400;47,4121483;0,9818725999999742;Crédit Agricole - Touraine Poitou
Agence bancaire AVAILLES LIMOUZINE;5 Rue du 11 Novembre 1918, 86460 AVAILLES-LIMOUZINE;86460;;;Crédit Agricole - Touraine Poitou
Relais CA EVAIN ISABELLE - Avanton;12 Rue de la Poste, 86170 Avanton;86170;46,662145;0,3043959000000314;Crédit Agricole - Touraine Poitou
Agence bancaire AVOINE;1 place Emile Zola, 37420 AVOINE;37420;;;Crédit Agricole - Touraine Poitou
Agence bancaire AZAY-LE-RIDEAU;9 rue Carnot, 37190 AZAY-LE-RIDEAU;37190;;;Crédit Agricole - Touraine Poitou
Agence bancaire BALLAN MIRE;14 rue du 11 Novembre 1918, 37510 BALLAN MIRE;37510;;;Crédit Agricole - Touraine Poitou
Agence bancaire BLERE;41 rue des Déportés, 37150 BLERE;37150;;;Crédit Agricole - Touraine Poitou
Agence bancaire BONNEUIL MATOURS;15 Rue du Commerce, 86210 BONNEUIL MATOURS;86210;;;Crédit Agricole - Touraine Poitou
Agence bancaire BOURGUEIL;28 rue Pasteur, 37140 BOURGUEIL;37140;;;Crédit Agricole - Touraine Poitou
Agence bancaire BUXEROLLES;16 Rue des Écoles, 86180 Buxerolles;86180;;;Crédit Agricole - Touraine Poitou
Agence bancaire CENON SUR VIENNE;Place Michel Gaudineau, 86530 Cenon-sur-Vienne;86530;;;Crédit Agricole - Touraine Poitou
Agence bancaire CHAMBRAY CENTRE;4 place du 11 novembre, 37170 CHAMBRAY LES TOURS;37170;;;Crédit Agricole - Touraine Poitou
Agence bancaire CHANCEAUX SUR CHOISILLE;ZAC de la grande pièce, 37390 CHANCEAUX SUR CHOISILLE;37390;;;Crédit Agricole - Touraine Poitou
Agence bancaire CHARROUX;1 rue Amédée Brouillet, 86250 CHARROUX;86250;;;Crédit Agricole - Touraine Poitou
Agence bancaire CHASSENEUIL;Place du Centre, 86360 CHASSENEUIL;86360;;;Crédit Agricole - Touraine Poitou
Guichet Automatique de banque AUCHAN JAUNAY-CLAN 1;D910, 86360 Chasseneuil-du-Poitou;86360;46,64737;0,3626299999999674;Crédit Agricole - Touraine Poitou
Agence bancaire CHATEAU LA VALLIERE;8 avenue du Général Leclerc, 37330 CHATEAU LA VALLIERE;37330;;;Crédit Agricole - Touraine Poitou
Agence bancaire CHATEAU RENAULT;7 rue de la République, 37110 CHATEAU RENAULT;37110;;;Crédit Agricole - Touraine Poitou
Agence bancaire CENTRE PATRIMOINE VIENNE NORD;50 Boulevard Blossac, 86100 CHATELLERAULT;86100;0,0;0,0;Crédit Agricole - Touraine Poitou
Agence bancaire CHATELLERAULT BLOSSAC;50 boulevard Blossac, 86100 CHATELLERAULT;86100;46,816542;0,5451283;Crédit Agricole - Touraine Poitou
Agence bancaire CHATELLERAULT CHATEAUNEUF;Rue Clément Janequin, 86100 CHATELLERAULT;86100;46,816291;0,536964;Crédit Agricole - Touraine Poitou
Agence bancaire CHATELLERAULT L'HERSE;Rue de l'Herse. ZAC Herse, 86100 CHATELLERAULT;86100;46,822853;0,55805;Crédit Agricole - Touraine Poitou
Agence bancaire CHAUVIGNY;21 place du Marché, 86300 CHAUVIGNY;86300;;;Crédit Agricole - Touraine Poitou
Agence bancaire CHINON;2 rue neuve de l'Hôtel de Ville, 37500 CHINON;37500;;;Crédit Agricole - Touraine Poitou
Guichet Automatique de banque CINQ MARS LA PILE;36 Rue nationale, 37130 Cinq-Mars-la-Pile;37130;47,3464103;0,4578238000000283;Crédit Agricole - Touraine Poitou
Relais CA VIVAL - Civaux;12 Rue du 19 Mars 1962, 86320 Civaux;86320;46,4440926;0,6660888000000114;Crédit Agricole - Touraine Poitou
Agence bancaire CORMERY;14, rue nationale, 37320 CORMERY;37320;;;Crédit Agricole - Touraine Poitou
Agence bancaire COUHE;35 place de la Marne, 86700 COUHE;86700;;;Crédit Agricole - Touraine Poitou
Guichet Automatique de banque CENTER PARC;Route des Trois Moutiers, 86120 Curçay-sur-Dive;86120;47,014219;-0,05647669999996197;Crédit Agricole - Touraine Poitou
Agence bancaire DANGE SAINT ROMAIN;5 rue Jules Ferry, 86220 DANGE SAINT ROMAIN;86220;;;Crédit Agricole - Touraine Poitou
Agence bancaire DESCARTES;13 rue du Commerce, 37160 DESCARTES;37160;;;Crédit Agricole - Touraine Poitou
Relais CA MONSIEUR JEAN PIERRE PINAULT - Druye;7 Rue des Vignes de Renault, 37190 Druye;37190;47,3079605;0,5367380000000139;Crédit Agricole - Touraine Poitou
Agence bancaire ESVRES;11 place Joseph Bourreau, 37320 ESVRES;37320;;;Crédit Agricole - Touraine Poitou
Agence bancaire FONDETTES;4 Rue Noël Carlotti, 37230 Fondettes;37230;;;Crédit Agricole - Touraine Poitou
Agence bancaire FONTAINE LE COMTE;9, bis route de Béruges, 86240 FONTAINE LE COMTE;86240;;;Crédit Agricole - Touraine Poitou
Agence bancaire GENCAY;Rue Edmond Thiaudière, 86160 GENCAY;86160;;;Crédit Agricole - Touraine Poitou
Guichet Automatique de banque GENILLE;Place Agnés Sorel, 37460 Genillé;37460;47,185396;1,093556900000067;Crédit Agricole - Touraine Poitou
Agence bancaire INGRANDES;Place Maurice Regnier, 86220 INGRANDES;86220;;;Crédit Agricole - Touraine Poitou
Agence bancaire ITEUIL;Place de l'eglise, 86240 ITEUIL;86240;;;Crédit Agricole - Touraine Poitou
Agence bancaire JAUNAY CLAN;Place de la Fontaine, 86130 JAUNAY CLAN;86130;;;Crédit Agricole - Touraine Poitou
Agence bancaire JOUE CHANTEPIE;17 rue Aristide Briand, 37300 JOUE LES TOURS;37300;47,3525968;0,6609516;Crédit Agricole - Touraine Poitou
Agence bancaire JOUE GAMARD;5 rue Gamard, 37300 JOUE LES TOURS;37300;47,3506987;0,66259;Crédit Agricole - Touraine Poitou
Agence bancaire JOUE LA GITONNIERE;40 rue de la Gitonnière, 37300 JOUE LES TOURS;37300;47,3378582;0,6580885;Crédit Agricole - Touraine Poitou
Agence bancaire L'ILE BOUCHARD;31 avenue des Presles, 37220 L'ILE BOUCHARD;37220;;;Crédit Agricole - Touraine Poitou
Agence bancaire L'ISLE JOURDAIN;17 avenue Pasteur, 86150 L'ISLE JOURDAIN;86150;;;Crédit Agricole - Touraine Poitou
Agence bancaire LA RICHE;22 place Sainte Anne, 37520 LA RICHE;37520;;;Crédit Agricole - Touraine Poitou
Agence bancaire LA ROCHE POSAY;23 cours Pasteur, 86270 LA ROCHE POSAY;86270;;;Crédit Agricole - Touraine Poitou
Agence bancaire LA TRIMOUILLE;20 rue Octave Bernard, 86290 LA TRIMOUILLE;86290;;;Crédit Agricole - Touraine Poitou
Agence bancaire LA VILLE AUX DAMES;Centre commercial Leclerc Rue Marie de Lorraine, 37700 LA VILLE AUX DAMES;37700;;;Crédit Agricole - Touraine Poitou
Agence bancaire LA VILLEDIEU DU CLAIN;30 Avenue des Bosquets, 86340 LA VILLEDIEU DU CLAIN;86340;;;Crédit Agricole - Touraine Poitou
Agence bancaire LANGEAIS;16 place du 14 Juillet, 37130 LANGEAIS;37130;;;Crédit Agricole - Touraine Poitou
Agence bancaire LATHUS SAINT REMY;3 Route de Montmorillon, 86390 Lathus-Saint-Rémy;86390;;;Crédit Agricole - Touraine Poitou
Agence bancaire LATILLE;23 place Robert Gerbier, 86190 LATILLE;86190;;;Crédit Agricole - Touraine Poitou
Agence bancaire LE GRAND PRESSIGNY;11 Rue des Tanneries, 37350 LE GRAND PRESSIGNY;37350;;;Crédit Agricole - Touraine Poitou
Agence bancaire LENCLOITRE;9 place du Général Pierre, 86140 LENCLOITRE;86140;;;Crédit Agricole - Touraine Poitou
Agence bancaire LES ORMES;70 route nationale 10, 86220 LES ORMES;86220;;;Crédit Agricole - Touraine Poitou
Agence bancaire LES TROIS MOUTIERS;Avenue d'Aumetz, 86120 LES TROIS MOUTIERS;86120;;;Crédit Agricole - Touraine Poitou
Agence bancaire LIGUEIL;57 rue Aristide Briand, 37240 LIGUEIL;37240;;;Crédit Agricole - Touraine Poitou
Agence bancaire LIGUGE;37 Place du Révérend Pere Lambert, 86240 LIGUGE;86240;;;Crédit Agricole - Touraine Poitou
Agence bancaire LOCHES;1 Bis rue de Tours, 37600 LOCHES;37600;;;Crédit Agricole - Touraine Poitou
Agence bancaire LOUDUN;4 Boulevard Loche et Matras, 86200 Loudun;86200;;;Crédit Agricole - Touraine Poitou
Agence bancaire LUSIGNAN;2 rue Carnot, 86600 LUSIGNAN;86600;;;Crédit Agricole - Touraine Poitou
Agence bancaire LUSSAC LES CHATEAUX;29 avenue du Dr. Dupont, 86320 LUSSAC;86320;;;Crédit Agricole - Touraine Poitou
Agence bancaire LUYNES;21 rue de la Fontaine, 37230 LUYNES;37230;;;Crédit Agricole - Touraine Poitou
Relais CA MME NADEGE OLIGO - Manthelan;31 Rue nationale, 37240 Manthelan;37240;47,1363573;0,7920269999999618;Crédit Agricole - Touraine Poitou
Agence bancaire MIGNALOUX BEAUVOIR;Centre commercial 4 place des Alisiers, 86550 MIGNALOUX BEAUVOIR;86550;;;Crédit Agricole - Touraine Poitou
Agence bancaire MIGNE AUXANCES;60, Rue Germaine Tillion, 86440 MIGNE AUXANCES;86440;;;Crédit Agricole - Touraine Poitou
Agence bancaire MIREBEAU;Place de la République, 86110 MIREBEAU;86110;;;Crédit Agricole - Touraine Poitou
Agence bancaire MONCONTOUR;14 Rue Maxime Ridouard, 86330 Moncontour;86330;;;Crédit Agricole - Touraine Poitou
Agence bancaire MONNAIE;Centre commercial Atac - La Croix poëllon, 37380 MONNAIE;37380;;;Crédit Agricole - Touraine Poitou
Guichet Automatique de banque MONTAMISE;2 Place des Tamisiers, 86360 Montamisé;86360;46,621933;0,4212417999999616;Crédit Agricole - Touraine Poitou
Agence bancaire MONTBAZON;2 rue Nationale, 37250 MONTBAZON;37250;;;Crédit Agricole - Touraine Poitou
Agence bancaire MONTLOUIS SUR LOIRE;Centre Commercial des Coteaux  Allée des Ralluères, 37270 MONTLOUIS  LOIRE;37270;;;Crédit Agricole - Touraine Poitou
Agence Immobilière MONTLOUIS-SUR-LOIRE Square Habitat;Allée des Ralluères, 37270 Montlouis-sur-Loire;37270;47,38284900000001;0,826661999999942;Crédit Agricole - Touraine Poitou
Agence bancaire MONTMORILLON;19 boulevard de Strasbourg, 86500 MONTMORILLON;86500;;;Crédit Agricole - Touraine Poitou
Agence bancaire MONTRESOR;6 rue de Beaumont village, 37460 MONTRESOR;37460;;;Crédit Agricole - Touraine Poitou
Agence bancaire MONTS;Centre commercial de la rauderie, 37260 MONTS;37260;;;Crédit Agricole - Touraine Poitou
Agence bancaire MONTS SUR GUESNES;21 Rue du Château, 86420 MONTS SUR GUESNES;86420;;;Crédit Agricole - Touraine Poitou
Agence bancaire NAINTRE;Avenue du Cerisier Noir, 86530 NAINTRE;86530;;;Crédit Agricole - Touraine Poitou
Agence bancaire NAZELLES;3 Avenue du centre, 37530 NAZELLES;37530;;;Crédit Agricole - Touraine Poitou
Agence bancaire NEUILLE PONT PIERRE;15 rue du Commerce, 37260 NEUILLE PONT PIERRE;37260;;;Crédit Agricole - Touraine Poitou
Agence bancaire NEUVILLE DE POITOU;26 Place Joffre, 86170 NEUVILLE DE POITOU;86170;;;Crédit Agricole - Touraine Poitou
Agence bancaire NEUVY LE ROI;11 rue du 11 Novembre, 37370 NEUVY LE ROI;37370;;;Crédit Agricole - Touraine Poitou
Agence bancaire NIEUIL L'ESPOIR;8 place de l'église, 86340 NIEUIL L'ESPOIR;86340;;;Crédit Agricole - Touraine Poitou
Agence bancaire PLEUMARTIN;Avenue de Hargarten, 86450 PLEUMARTIN;86450;;;Crédit Agricole - Touraine Poitou
Agence bancaire POINT PASSERELLE POITIERS;18 Rue Salvador Allende, 86006 POINT PASSERELLE POITIERS;86006;;;Crédit Agricole - Touraine Poitou
Agence en ligne AGENCE DIRECTE;18 Rue Salvador Allende, 86000 Point Passerelle Poitiers;86000;46,5805478;0,3740039000000001;Crédit Agricole - Touraine Poitou
Agence bancaire AGENCE DES ENTREPRISES DU POITOU;18 rue Salvador Allende, 86008 POITIERS;86008;46,66312;0,367121;Crédit Agricole - Touraine Poitou
Agence bancaire E RELAIS PROS AGRIS 86;18 Rue Salvador Allende, 86000 Poitiers;86000;46,5805478;0,3740039000000001;Crédit Agricole - Touraine Poitou
Agence Immobilière POITIERS Square Habitat;15 Rue de Magenta, 86000 Poitiers;86000;46,57893809999999;0,3401215000000093;Crédit Agricole - Touraine Poitou
Agence Immobilière POITIERS (T4) Square Habitat;Rue Salvador Allende, 86000 Poitiers;86000;46,58120030000001;0,3735708000000386;Crédit Agricole - Touraine Poitou
Guichet Automatique de banque POITIERS BEL-AIR;Rue de Quinçay, 86000 Poitiers;86000;46,5914441;0,3261903000000075;Crédit Agricole - Touraine Poitou
Agence bancaire POITIERS BIARD MONTMIDI;1 rue Léopold Sédar Senghor, 86000 POITIERS;86000;46,57846095;0,320030064;Crédit Agricole - Touraine Poitou
Agence bancaire POITIERS CAP SUD;108 Avenue du 8 Mai 1945, 86000 Poitiers;86000;46,5585608;0,3107786;Crédit Agricole - Touraine Poitou
Agence bancaire POITIERS CARNOT;34 Rue Carnot, 86000 POITIERS;86000;46,5789598;0,3387195;Crédit Agricole - Touraine Poitou
Agence bancaire POITIERS CLOS GAULTIER;14 place des Trois Cités, 86000 POITIERS;86000;46,5642729;0,343;Crédit Agricole - Touraine Poitou
Agence bancaire POITIERS COURONNERIES;36 Place de Provence, 86000 POITIERS;86000;46,5879423;0,3586765;Crédit Agricole - Touraine Poitou
Agence bancaire POITIERS DEMI-LUNE;10 route de Partenay, 86000 POITIERS;86000;46,598581;0,324181;Crédit Agricole - Touraine Poitou
Guichet Automatique de banque POITIERS GAMBETTA 1;55 Rue Gambetta, 86000 Poitiers;86000;46,5811892;0,3396298000000115;Crédit Agricole - Touraine Poitou
Guichet Automatique de banque POITIERS GARE;Boulevard du Grand Cerf, 86000 Poitiers;86000;46,584259;0,3362230999999838;Crédit Agricole - Touraine Poitou
Agence bancaire POITIERS GIBAUDERIE;Rue de la Rochefoucauld, 86000 Poitiers;86000;46,5668703;0,3736;Crédit Agricole - Touraine Poitou
Agence bancaire POITIERS HOTEL DE VILLE;23, 25 rue des grandes écoles, 86000 POITIERS;86000;46,58071;0,340784;Crédit Agricole - Touraine Poitou
Agence bancaire POITIERS LECLERC;93 route de Gençay. C Leclerc, 86000 POITIERS;86000;46,5697933;0,3609084;Crédit Agricole - Touraine Poitou
Agence bancaire POITIERS LIBERATION;131 avenue de la Libération, 86000 POITIERS;86000;46,5662471;0,3188826;Crédit Agricole - Touraine Poitou
Guichet Automatique de banque POITIERS MILETRIE;CHU Avenue Jacques Cœur, 86000 Poitiers;86000;46,56323;0,3825830000000678;Crédit Agricole - Touraine Poitou
Agence bancaire POITIERS NOTRE DAME;11, rue du marché Notre Dame, 86000 POITIERS;86000;46,5814835;0,3398074;Crédit Agricole - Touraine Poitou
Agence bancaire POITIERS TOUFFENET;Centre d'Affaires Touffenet 18 rue Salvador Allende, 86000 POITIERS;86000;46,580524;0,377826;Crédit Agricole - Touraine Poitou
Agence bancaire PREUILLY SUR CLAISE;11 Grande Rue, 37290 Preuilly-sur-Claise;37290;;;Crédit Agricole - Touraine Poitou
Agence bancaire RICHELIEU;30 rue henri Proust, 37120 RICHELIEU;37120;;;Crédit Agricole - Touraine Poitou
Agence bancaire ROUILLE;Route de Poitiers, 86480 ROUILLE;86480;;;Crédit Agricole - Touraine Poitou
Agence bancaire SAINT AVERTIN CENTRE;1 rue Cormery, 37550 SAINT AVERTIN;37550;47,36701024;0,726835728;Crédit Agricole - Touraine Poitou
Agence bancaire SAINT AVERTIN CHARLES DE GAULLE;1040, avenue du général de Gaulle, 37550 SAINT AVERTIN;37550;47,357345;0,734284;Crédit Agricole - Touraine Poitou
Agence bancaire SAINT CYR CHARLES DE GAULLE;121 Boulevard Charles de Gaulle, 37540 SAINT CYR SUR LOIRE;37540;47,4142;0,670297;Crédit Agricole - Touraine Poitou
Agence bancaire SAINT CYR MALRAUX;7-8 place André Malraux, 37540 SAINT CYR SUR LOIRE;37540;47,4098724;0,6684059;Crédit Agricole - Touraine Poitou
Agence bancaire SAINT GEORGES LES BAILLARGEAUX;12 rond point de l'Europe, 86130 SAINT GEORGES LES BX;86130;;;Crédit Agricole - Touraine Poitou
Agence bancaire SAINT GERVAIS LES 3 CLOCHERS;20 place du 28 août 1944, 86230 SAINT GERVAIS LES 3 CLOCHERS;86230;;;Crédit Agricole - Touraine Poitou
Agence bancaire SAINT JEAN DE SAUVES;4 Place Marcel Chauvineau, 86330 SAINT JEAN DE SAUVES;86330;;;Crédit Agricole - Touraine Poitou
Agence bancaire SAINT JULIEN L'ARS;31 rue de Chauvigny, 86800 SAINT JULIEN L'ARS;86800;;;Crédit Agricole - Touraine Poitou
Agence bancaire SAINT MARTIN LA RIVIERE;le bourg, 86300 SAINT MARTIN LA RIVIERE;86300;;;Crédit Agricole - Touraine Poitou
Agence bancaire SAINT MARTIN LE BEAU;8 rue de Tours, 37270 SAINT MARTIN LE BEAU;37270;;;Crédit Agricole - Touraine Poitou
Agence bancaire SAINT PATERNE;3 place de la République, 37370 SAINT PATERNE;37370;;;Crédit Agricole - Touraine Poitou
Agence bancaire SAINT PIERRE DES CORPS;39 avenue de la République, 37700 SAINT PIERRE DES CORPS;37700;;;Crédit Agricole - Touraine Poitou
Agence bancaire SAINT SAVIN;14 Place de la Libération, 86310 SAINT SAVIN;86310;;;Crédit Agricole - Touraine Poitou
Guichet Automatique de banque ST-BENOIT;2 Rue Paul Gauvin, 86280 Saint-Benoît;86280;46,5495974;0,3413653000000068;Crédit Agricole - Touraine Poitou
Agence Immobilière SAINT-GEORGES-LES-BAILLARGEAUX Square Habitat;4 Avenue de la Libération, 86130 Saint-Georges-lès-Baillargeaux;86130;46,6690729;0,3998044999999593;Crédit Agricole - Touraine Poitou
Agence bancaire SAINTE MAURE DE TOURAINE;4 rue Saint Michel, 37800 SAINTE MAURE DE TOURAINE;37800;;;Crédit Agricole - Touraine Poitou
Agence bancaire SAVIGNE SUR LATHAN;22 avenue des Tourelles, 37340 SAVIGNE SUR LATHAN;37340;;;Crédit Agricole - Touraine Poitou
Agence bancaire CIVRAY;12 Route de Niort, 86400 Savigné;86400;;;Crédit Agricole - Touraine Poitou
Agence bancaire SCORBE CLAIRVAUX;8 place de la Mairie, 86140 SCORBE CLAIRVAUX;86140;;;Crédit Agricole - Touraine Poitou
Relais CA SARL BRETON - Sèvres-Anxaumont;Place Sadebria, 86800 Sèvres-Anxaumont;86800;46,56818879999999;0,4665857999999616;Crédit Agricole - Touraine Poitou
Guichet Automatique de banque SORIGNY;Avenue du 11 Novembre 1918, 37250 Sorigny;37250;47,24306070000001;0,6968742999999904;Crédit Agricole - Touraine Poitou
Agence bancaire AGENCE DES ENTREPRISES DE LA TOURAINE;28 RUE JAMES WATT, 37200 TOURS;37200;47,37091955;0,718016624;Crédit Agricole - Touraine Poitou
Agence bancaire AGENCE DES PROFESSIONNELS D L'IMMOBILIER;28 rue james watt, 37200 TOURS;37200;47,37382227;0,681785345;Crédit Agricole - Touraine Poitou
Agence bancaire AGENCE GRANDES CLIENTELES;45 Boulevard Winston Churchill, 37000 Tours;37000;47,373371;0,686992;Crédit Agricole - Touraine Poitou
Agence bancaire BANQUE PRIVEE 37;2 avenue de Grammont, 37000 TOURS;37000;47,388641;0,68972;Crédit Agricole - Touraine Poitou
Agence bancaire CENTRE D'AFFAIRES DEUX-LIONS;24 rue James WATT, 37200 TOURS;37200;47,366292;0,680583;Crédit Agricole - Touraine Poitou
Agence bancaire POINT PASSERELLE TOURS;45 Boulevard Winston Churchill, 37000 Tours;37000;47,3737706;0,681856;Crédit Agricole - Touraine Poitou
Agence bancaire Pôle Santé;80 Rue Giraudeau, 37000 Tours;37000;47,3843172;0,6769555;Crédit Agricole - Touraine Poitou
Agence Immobilière SQUARE HABITAT TOURS GRAMMONT Square Habitat;224 Avenue de Grammont, 37000 Tours;37000;47,3753883;0,6951272999999674;Crédit Agricole - Touraine Poitou
Agence Immobilière TOURS CHURCHILL Square Habitat;45 Boulevard Winston Churchill, 37000 Tours;37000;47,3737748;0,681869000000006;Crédit Agricole - Touraine Poitou
Guichet Automatique de banque TOURS CONGRES VINCI;26 Boulevard Heurteloup, 37000 Tours;37000;47,390921;0,6927708000000621;Crédit Agricole - Touraine Poitou
Agence bancaire TOURS EUROPE;3 avenue de l'Europe, 37100 TOURS;37100;47,4222624;0,6810229;Crédit Agricole - Touraine Poitou
Agence Immobilière TOURS GARE Square Habitat;25 Rue Charles Gille, 37000 Tours;37000;47,38883939999999;0,6914902999999413;Crédit Agricole - Touraine Poitou
Agence bancaire TOURS GIRAUDEAU;21 rue Giraudeau, 37000 TOURS;37000;47,3874434;0,6765495;Crédit Agricole - Touraine Poitou
Agence Immobilière TOURS HALLES Square Habitat;113 Rue des Halles, 37000 Tours;37000;47,3928087;0,6808965999999828;Crédit Agricole - Touraine Poitou
Agence Immobilière TOURS HALLES Square Habitat;78 Rue des Halles, 37000 Tours;37000;47,3929239;0,6821757999999818;Crédit Agricole - Touraine Poitou
Agence Immobilière TOURS HALLES (Neuf) Square Habitat;113 Rue des Halles, 37000 Tours;37000;47,3928087;0,6808965999999828;Crédit Agricole - Touraine Poitou
Agence bancaire TOURS JEAN JAURES;20 place Jean Jaurès, 37000 TOURS;37000;47,38873301;0,689660311;Crédit Agricole - Touraine Poitou
Agence bancaire TOURS LES FONTAINES;Avenue Stendhal, 37200 TOURS;37200;47,368218;0,70768;Crédit Agricole - Touraine Poitou
Agence bancaire TOURS LES HALLES;113 Rue des Halles, 37000 Tours;37000;47,3928087;0,6808966;Crédit Agricole - Touraine Poitou
Agence bancaire TOURS MAGINOT;27 avenue André Maginot, 37071 TOURS;37071;47,4101945;0,6827712;Crédit Agricole - Touraine Poitou
Agence bancaire TOURS MARCEAU;1 rue Marceau, 37000 TOURS;37000;47,3948076;0,6844179;Crédit Agricole - Touraine Poitou
Agence bancaire TOURS MONCONSEIL;58 rue Daniel Mayer, 37100 TOURS;37100;47,418764;0,695113;Crédit Agricole - Touraine Poitou
Agence Immobilière TOURS NORD TRANCHEE Square Habitat;20 Place de la Tranchée, 37100 Tours;37100;47,4086145;0,6808994000000439;Crédit Agricole - Touraine Poitou
Agence bancaire TOURS PETITE ARCHE;Avenue Gustave Eiffel, 37100 Tours;37100;47,4276111;0,6995766;Crédit Agricole - Touraine Poitou
Agence bancaire TOURS RABELAIS;80 rue Giraudeau, 37000 TOURS;37000;47,3845021;0,6769277;Crédit Agricole - Touraine Poitou
Agence bancaire TOURS SAINTE RADEGONDE;54 rue de l'anguille, 37100 TOURS;37100;47,4124593;0,7036929;Crédit Agricole - Touraine Poitou
Agence bancaire TOURS THIERS;90 avenue de Grammont, 37000 TOURS;37000;47,381577;0,6921921;Crédit Agricole - Touraine Poitou
Agence bancaire TOURS VELPEAU;29 place Velpeau, 37000 TOURS;37000;47,3867431;0,7033563;Crédit Agricole - Touraine Poitou
Agence bancaire USSON DU POITOU;4 place du marché, 86350 USSON DU POITOU;86350;;;Crédit Agricole - Touraine Poitou
Agence bancaire VEIGNÉ;5 Place du Maréchal Leclerc, 37250 VEIGNÉ;37250;;;Crédit Agricole - Touraine Poitou
Agence bancaire VENDEUVRE;3 Place Raoul Peret, 86380 VENDEUVRE;86380;;;Crédit Agricole - Touraine Poitou
Agence Immobilière VENDEUVRE-DU-POITOU Square Habitat;9 Place Raoul Péret, 86380 Vendeuvre-du-Poitou;86380;46,735815;0,3098245999999563;Crédit Agricole - Touraine Poitou
Agence bancaire VIVONNE;15 avenue de la Plage, 86370 VIVONNE;86370;;;Crédit Agricole - Touraine Poitou
Agence bancaire VOUILLE;14 rue de la Barre, 86190 VOUILLE;86190;;;Crédit Agricole - Touraine Poitou
Agence bancaire VOUNEUIL SOUS BIARD;7 place de la Croix Cadet, 86580 VOUNEUIL SOUS BIARD;86580;;;Crédit Agricole - Touraine Poitou
Agence bancaire VOUVRAY;1 rue de la République, 37210 VOUVRAY;37210;;;Crédit Agricole - Touraine Poitou
Agence bancaire YZEURES SUR CREUSE;Rue Pasteur, Centre commercial  Les Chalussons, 37290 YZEURES SUR CREUSE;37290;;;Crédit Agricole - Touraine Poitou
