nom;adresse;code_postal;latitude;longitude;region_source
Agence bancaire ALENCON;40 avenue Rhin et Danube, 61001 ALENCON;61001;;;Crédit Agricole - Anjou Maine
Agence bancaire ALLONNES 49;59 Rue Jean Gallart, 49650 Allonnes;49650;47,292451;0,021231;Crédit Agricole - Anjou Maine
Agence bancaire ALLONNES 72;22 Rue Claude Chappe, 72700 ALLONNES;72700;47,969228;0,154092;Crédit Agricole - Anjou Maine
Agence bancaire AMBRIERES LES VALLEES;3 Place Anne Leclerc, 53300 Ambrières-les-Vallées;53300;;;Crédit Agricole - Anjou Maine
Agence bancaire ANDARD;53 Grande Rue, 49800 ANDARD;49800;;;Crédit Agricole - Anjou Maine
Agence bancaire ANDOUILLE;11 Rue de l Hôtel de ville, 53240 ANDOUILLE;53240;;;Crédit Agricole - Anjou Maine
Agence en ligne AGENCE MULTIMEDIA;Pour toutes vos opérations et tous renseignements. Numéro d appel cristal, non surtaxé., 49000 Angers;49000;47,4626567;-0,5322869;Crédit Agricole - Anjou Maine
Agence en ligne Agence ASSURANCES EN LIGNE - Maine-et-Loire;Pour vos opérations et renseignements ASSURANCES. Numéro non surtaxé., 49000 Angers;49000;47,459446;-0,532825;Crédit Agricole - Anjou Maine
Agence bancaire ANGERS AGENCE COLLECTIVITES PUBLIQUES ET PROMOTION IMMOBILIERE;77, bd Pierrre de Coubertin, 49000 ANGERS;49000;47,458269;-0,532694;Crédit Agricole - Anjou Maine
Agence bancaire ANGERS BICHON;30, 32 Place du Docteur Bichon, 49100 ANGERS;49100;47,4786463;-0,5650334;Crédit Agricole - Anjou Maine
Agence bancaire ANGERS COUBERTIN;58 Boulevard Pierre de Coubertin, 49000 Angers;49000;47,4585958;-0,5333781;Crédit Agricole - Anjou Maine
Agence bancaire ANGERS Habitat Conseil Energie;63 Rue Plantagenêt, 49100 Angers;49100;47,47166199999999;-0,553789;Crédit Agricole - Anjou Maine
Agence bancaire ANGERS LA FAYETTE;22 Place La Fayette, 49000 ANGERS;49000;47,4626044;-0,5550224;Crédit Agricole - Anjou Maine
Agence bancaire ANGERS LAC DE MAINE;Centre Commercial Grand Maine, Rue du Grand Launay, 49000 ANGERS;49000;47,46851;-0,593743;Crédit Agricole - Anjou Maine
Agence bancaire ANGERS LES JUSTICES;6 Place des Justices, 49000 ANGERS;49000;47,4528351;-0,5260554;Crédit Agricole - Anjou Maine
Agence bancaire ANGERS LORRAINE;5 Place de Lorraine, 49100 Angers;49100;47,46984339999999;-0,5471722;Crédit Agricole - Anjou Maine
Agence bancaire ANGERS MAINE;Rue du Maine, 49100 ANGERS;49100;47,4783005;-0,5469181;Crédit Agricole - Anjou Maine
Agence bancaire ANGERS PASTEUR;221 Avenue Pasteur, 49000 ANGERS;49000;47,478479;-0,529168;Crédit Agricole - Anjou Maine
Agence bancaire ANGERS PATTON;73 Avenue Patton, 49000 ANGERS;49000;47,4677393;-0,5968613;Crédit Agricole - Anjou Maine
Agence bancaire ANGERS RALLIEMENT;36 Rue Lenepveu, BP 65233, 49000 ANGERS;65233;47,4716387;-0,5518652;Crédit Agricole - Anjou Maine
Agence bancaire ANGERS ST MICHEL;24 Boulevard Saint Michel, 49000 ANGERS;49000;47,4734959;-0,5435129;Crédit Agricole - Anjou Maine
Agence bancaire ANGERS SUD;Avenue Winston Churchill, 49000 ANGERS;49000;47,4514123;-0,5571686;Crédit Agricole - Anjou Maine
Agence bancaire ANGERS VISITATION;17 Place de la Visitation, 49000 ANGERS;49000;47,4667299;-0,5567697;Crédit Agricole - Anjou Maine
Agence bancaire ANJOU MAINE DIRECT;56 Boulevard Pierre de Coubertin, 49000 ANGERS;49000;47,4660892;-0,5306435;Crédit Agricole - Anjou Maine
Agence bancaire BANQUE PRIVEE ANGERS;2 Avenue Denis Papin, 49100 ANGERS;49100;47,4656483;-0,5544995999999855;Crédit Agricole - Anjou Maine
Agence bancaire CENTRE D AFFAIRES ENTREPRISES ANGERS;77 Boulevard Pierre de Coubertin, 49000 ANGERS;49000;47,458197;-0,532737;Crédit Agricole - Anjou Maine
Agence bancaire ESPACE PROFESSIONNEL ANGERS;2 AVENUE DENIS PAPIN, 49100 ANGERS;49100;47,465204;-0,557585;Crédit Agricole - Anjou Maine
Agence bancaire SERVICE AFFAIRES INTERNATIONALES;77, boulevard Pierre de Coubertin, 49000 ANGERS;49000;47,462668;-0,532122;Crédit Agricole - Anjou Maine
Agence bancaire ARGENTRE;13 Place de l Eglise, 53210 ARGENTRE;53210;;;Crédit Agricole - Anjou Maine
Agence bancaire ARNAGE;77 et 79 avenue Nationale, 72230 ARNAGE;72230;;;Crédit Agricole - Anjou Maine
Agence bancaire AVRILLE;82 avenue Pierre Mendès France, 49241 AVRILLE;49241;;;Crédit Agricole - Anjou Maine
Agence bancaire BAIS;27 Place Rochard, BP2, 53160 BAIS;53160;;;Crédit Agricole - Anjou Maine
Agence bancaire BALLON;34 Rue du Général Leclerc, 72290 BALLON;72290;;;Crédit Agricole - Anjou Maine
Agence bancaire BAUGE;71 Place du Marche, 49150 BAUGE;49150;;;Crédit Agricole - Anjou Maine
Agence bancaire BEAUCOUZE;7 Rue Picoterie, 49070 BEAUCOUZE;49070;;;Crédit Agricole - Anjou Maine
Agence bancaire BEAUFORT EN VALLEE;1 Bis Place Notre-Dame, BP 18, 49250 BEAUFORT-EN-VALLEE;49250;;;Crédit Agricole - Anjou Maine
Agence bancaire BEAUMONT SUR SARTHE;31 Place des Halles, 72170 BEAUMONT-SUR-SARTHE;72170;;;Crédit Agricole - Anjou Maine
Agence bancaire BEAUPREAU-EN-MAUGES;36 Rue du Maréchal Foch, 49600 BEAUPREAU-EN-MAUGES;49600;;;Crédit Agricole - Anjou Maine
Agence bancaire BECON LES GRANITS;3 IMPASSE DU PUIT MOREAU, 49370 BECON LES GRANITS;49370;;;Crédit Agricole - Anjou Maine
Agence bancaire BESSE SUR BRAYE;56 RUE JEAN JAURES, 72310 BESSE SUR BRAYE;72310;;;Crédit Agricole - Anjou Maine
Agence bancaire BONCHAMP LES LAVAL;15 rue de la Faux, 53960 BONCHAMP LES LAVAL;53960;;;Crédit Agricole - Anjou Maine
Agence bancaire BONNETABLE;51 Rue Joffre, 72110 BONNETABLE;72110;;;Crédit Agricole - Anjou Maine
Agence bancaire BOULOIRE;1 Place du Château, 72440 BOULOIRE;72440;;;Crédit Agricole - Anjou Maine
Agence bancaire BRISSAC QUINCE;58 rue Louis MORON, 49320 BRISSAC QUINCE;49320;;;Crédit Agricole - Anjou Maine
Agence bancaire BRULON;2, boulevard de la Gare, 72350 BRULON;72350;;;Crédit Agricole - Anjou Maine
Agence bancaire CANDE;Bd de l Erdre, 49440 CANDE;49440;;;Crédit Agricole - Anjou Maine
Agence bancaire CERANS FOULLETOURTE;88 Rue Nationale, 72330 CERANS FOULLETOURTE;72330;;;Crédit Agricole - Anjou Maine
Agence bancaire CHALONNES SUR LOIRE;Place de l Hôtel de Ville, 49290 CHALONNES SUR LOIRE;49290;;;Crédit Agricole - Anjou Maine
Agence bancaire CHANGE 53;2 Rue de Bretagne, 53810 CHANGE;53810;48,097957;-0,793468;Crédit Agricole - Anjou Maine
Agence bancaire CHANGE 72;23 Place de l Eglise, 72560 CHANGE;72560;47,9871048;0,2817905;Crédit Agricole - Anjou Maine
Agence bancaire CHATEAU GONTIER FAUBOURG;11 Quai Pasteur, 53200 CHATEAU-GONTIER;53200;47,829185;-0,7017943;Crédit Agricole - Anjou Maine
Agence bancaire CHATEAU-GONTIER CENTRE;8 AVENUE RAZILLY, 53200 CHATEAU-GONTIER;53200;47,826067;-0,70841;Crédit Agricole - Anjou Maine
Agence bancaire CHATEAUNEUF SUR SARTHE;1 Avenue Charles de Gaulle, 49330 CHATEAUNEUF SUR SARTHE;49330;;;Crédit Agricole - Anjou Maine
Agence bancaire CHEMILLE;7 Place des Perrochères, 49120 CHEMILLE;49120;;;Crédit Agricole - Anjou Maine
Agence en ligne AGENCE MULTIMEDIA - CHOLET;Pour toutes vos opérations et tous renseignements. Numéro d'appel cristal, non surtaxé., 49300 Cholet;49300;47,0451957;-0,8806974;Crédit Agricole - Anjou Maine
Agence bancaire BANQUE PRIVEE CHOLET;LA CREATHEQUE - 30 RUE DU CARTERON, 49300 CHOLET;49300;47,049667;-0,868402;Crédit Agricole - Anjou Maine
Agence bancaire CENTRE D AFFAIRES ENTREPRISES CHOLET;30 Rue Carteron, La Créathèque, 49300 CHOLET;49300;47,048661;-0,8694;Crédit Agricole - Anjou Maine
Agence bancaire CHOLET - Habitat Conseil Energie;30 Rue du Carteron, La Créathèque, 49300 Cholet;49300;47,048661;-0,8694;Crédit Agricole - Anjou Maine
Agence bancaire CHOLET GARE;1 place du 77ème Régiment d Infanterie, 49300 CHOLET;49300;47,065064;-0,8730857;Crédit Agricole - Anjou Maine
Agence bancaire CHOLET LECLERC;1 avenue du Maréchal Koenig, 49300 CHOLET;49300;47,052112;-0,849347;Crédit Agricole - Anjou Maine
Agence bancaire CHOLET SACRE-COEUR;2 Boulevard Guy Chouteau, 49300 Cholet;49300;47,0675525;-0,8851063;Crédit Agricole - Anjou Maine
Agence bancaire CHOLET VICTOIRE;33 Boulevard Delhumeau Plessis, 49300 CHOLET;49300;47,056668;-0,87742;Crédit Agricole - Anjou Maine
Agence bancaire ESPACE PROFESSIONNEL CHOLET;LA CREATHEQUE - 30 RUE DU CARTERON, 49300 CHOLET;49300;47,049667;-0,868402;Crédit Agricole - Anjou Maine
Agence bancaire CONLIE;2 Route de Cures, 72240 CONLIE;72240;;;Crédit Agricole - Anjou Maine
Agence bancaire CONNERRE;2 Avenue de Verdun, 72160 CONNERRE;72160;;;Crédit Agricole - Anjou Maine
Agence bancaire COSSE LE VIVIEN;Place du marche, 53230 COSSE LE VIVIEN;53230;;;Crédit Agricole - Anjou Maine
Agence bancaire COULAINES;4 Rue de La Paix, 72190 COULAINES;72190;;;Crédit Agricole - Anjou Maine
Agence bancaire CRAON;1 Place du 11 Novembre, BP 9, 53400 CRAON;53400;;;Crédit Agricole - Anjou Maine
Agence bancaire DOUE LA FONTAINE;Place du Champ de Foire, 49700 DOUE LA FONTAINE;49700;;;Crédit Agricole - Anjou Maine
Agence bancaire DURTAL;Rue des Déportés, 49430 DURTAL;49430;;;Crédit Agricole - Anjou Maine
Agence bancaire ECOMMOY;20 Place de la République, 72220 ECOMMOY;72220;;;Crédit Agricole - Anjou Maine
Agence bancaire ERNEE;22 Avenue Carnot, 53500 ERNEE;53500;;;Crédit Agricole - Anjou Maine
Agence bancaire EVRON;1 place du Boulay, 53600 EVRON;53600;;;Crédit Agricole - Anjou Maine
Agence bancaire FOUGEROLLES DU PLESSIS;12 Rue de Bretagne, 53190 FOUGEROLLES DU PLESSIS;53190;;;Crédit Agricole - Anjou Maine
Agence bancaire FRESNAY SUR SARTHE;21 Avenue du Docteur Riant, 72130 FRESNAY SUR SARTHE;72130;;;Crédit Agricole - Anjou Maine
Agence bancaire GENNES;5 Place de l Étoile, 49350 GENNES VAL DE LOIRE;49350;;;Crédit Agricole - Anjou Maine
Agence bancaire GESTE;12 Rue du Centre, 49600 GESTE;49600;;;Crédit Agricole - Anjou Maine
Agence bancaire GORRON;9 Rue du Douanier Rousseau, 53120 Gorron;53120;;;Crédit Agricole - Anjou Maine
Agence bancaire GREZ EN BOUERE;20 Rue de la Libération, 53290 GREZ EN BOUERE;53290;;;Crédit Agricole - Anjou Maine
Agence bancaire INGRANDES SUR LOIRE;Route de Candé, 49123 INGRANDES SUR LOIRE;49123;;;Crédit Agricole - Anjou Maine
Agence bancaire JALLAIS;32 Rue Henri IV, 49510 JALLAIS;49510;;;Crédit Agricole - Anjou Maine
Agence bancaire JAVRON;36 Grande Rue, 53250 JAVRON les Chapelles;53250;;;Crédit Agricole - Anjou Maine
Agence bancaire L HUISSERIE;24 Place de l Eglise, 53970 L HUISSERIE;53970;;;Crédit Agricole - Anjou Maine
Agence bancaire LA CHARTRE SUR LE LOIR;27 Rue François Coudreux, 72340 LA CHARTRE SUR LE LOIR;72340;;;Crédit Agricole - Anjou Maine
Agence bancaire LA FERTE BERNARD;5 Promenade du Grand Mail, 72400 LA FERTE-BERNARD;72400;;;Crédit Agricole - Anjou Maine
Agence bancaire LA FLECHE;4 Grande Rue, 72200 LA FLECHE;72200;;;Crédit Agricole - Anjou Maine
Agence bancaire LA SEGUINIERE;1 Place Grignion de Montfort, 49280 La Séguinière;49280;;;Crédit Agricole - Anjou Maine
Agence bancaire LA SUZE SUR SARTHE;21-22 Place du Marche, 72210 LA SUZE SUR SARTHE;72210;;;Crédit Agricole - Anjou Maine
Agence bancaire LA TESSOUALLE;32 B Avenue Georges Clémenceau, 49300 LA TESSOUALLE;49300;47,0053134;-0,8511721;Crédit Agricole - Anjou Maine
Agence bancaire LAIGNE EN BELIN;5 Place Saint-Martin, 72220 Laigné-en-Belin;72220;;;Crédit Agricole - Anjou Maine
Agence bancaire LASSAY LES CHATEAUX;45 Grande Rue, BP 14, 53110 LASSAY LES CHATEAUX;53110;;;Crédit Agricole - Anjou Maine
Agence en ligne AGENCE MULTIMEDIA - MAYENNE;Pour toutes vos opérations et tous renseignements. Numéro d'appel cristal, non surtaxé., 53000 Laval;53000;48,0577756;-0,8041199;Crédit Agricole - Anjou Maine
Agence en ligne Agence ASSURANCES EN LIGNE - Mayenne;Pour vos opérations et renseignements ASSURANCES. Numéro non surtaxé., 53000 Laval;53000;48,041418;-0,802003;Crédit Agricole - Anjou Maine
Agence bancaire BANQUE PRIVEE LAVAL;18 Place du 11 Novembre, BP 505, 53000 LAVAL;53000;48,069179;-0,770979;Crédit Agricole - Anjou Maine
Agence bancaire CENTRE D AFFAIRES ENTREPRISES LAVAL;18 Bd Lucien Daniel, 53000 LAVAL;53000;48,053115;-0,794839;Crédit Agricole - Anjou Maine
Agence bancaire ESPACE PROFESSIONNEL LAVAL;18 Place du 11Novembre, BP 505, 53000 LAVAL;53000;48,069179;-0,770979;Crédit Agricole - Anjou Maine
Agence bancaire LAVAL - Habitat Conseil Energie;93 Avenue Robert Buron, 53000 Laval;53000;48,0749259;-0,7621462999999999;Crédit Agricole - Anjou Maine
Agence bancaire LAVAL AVESNIERES;16 Place d Avesnieres, 53000 LAVAL;53000;48,059655;-0,763475;Crédit Agricole - Anjou Maine
Agence bancaire LAVAL CATHEDRALE;14 Place Hardy de Lévaré, 53000 LAVAL;53000;48,0674662;-0,7734576;Crédit Agricole - Anjou Maine
Agence bancaire LAVAL CENTRE;18 Place du 11 Novembre, BP 505, 53000 LAVAL;53000;48,071005;-0,773341;Crédit Agricole - Anjou Maine
Agence bancaire LAVAL MURAT;10 Place des Victoires, 53000 LAVAL;53000;48,0619708;-0,7567929;Crédit Agricole - Anjou Maine
Agence bancaire LAVAL SAINT ETIENNE;18 avenue Robert Buron, 53000 LAVAL;53000;48,0721853;-0,7642161;Crédit Agricole - Anjou Maine
Agence bancaire LE BOURGNEUF LA FORET;6 Place de l Acacia, 53410 LE BOURGNEUF LA FORET;53410;;;Crédit Agricole - Anjou Maine
Agence bancaire LE GRAND LUCE;6 Place du Château, 72150 LE GRAND LUCE;72150;;;Crédit Agricole - Anjou Maine
Agence bancaire LE LION D ANGERS;Quai d Anjou, 49220 LE LION-D ANGERS;49220;;;Crédit Agricole - Anjou Maine
Agence bancaire LE LUDE;18 Rue du Boeuf, 72800 LE LUDE;72800;;;Crédit Agricole - Anjou Maine
Agence en ligne AGENCE MULTIMEDIA - SARTHE;Pour toutes vos opérations et tous renseignements. Numéro d'appel cristal, non surtaxé., 72000 Le Mans;72000;48,015466;0,153666;Crédit Agricole - Anjou Maine
Agence en ligne Agence ASSURANCES EN LIGNE - Sarthe;Pour vos opérations et renseignements ASSURANCES. Numéro non surtaxé., 72000 Le Mans;72000;48,015466;0,153666;Crédit Agricole - Anjou Maine
Agence bancaire Agence ASSURANCES EN LIGNE - Sarthe;77, Avenue Olivier Messiaen, 72083 Le Mans;72083;48,015249;0,153041700000017;Crédit Agricole - Anjou Maine
Agence bancaire BANQUE PRIVEE LE MANS;48 Place de la République, 72000 Le Mans;72000;48,0045555;0,197373;Crédit Agricole - Anjou Maine
Agence bancaire CENTRE D AFFAIRES ENTREPRISES LE MANS;7 Avenue Georges Auric, 72000 LE MANS;72000;48,0148206;0,1523968000000195;Crédit Agricole - Anjou Maine
Agence bancaire ESPACE PROFESSIONNEL LE MANS;48, place de la République, 72000 LE MANS;72000;48,004295;0,1973417;Crédit Agricole - Anjou Maine
Agence bancaire LE MANS - Habitat Conseil Energie;2 rue Héraclite Bâtiment A Uptown, 72000 Le Mans;72000;48,016762;0,153221;Crédit Agricole - Anjou Maine
Agence bancaire LE MANS BOLLEE;189 Avenue Bollee, 72000 LE MANS;72000;47,997946;0,214325;Crédit Agricole - Anjou Maine
Agence bancaire LE MANS CHASSE ROYALE;64 Rue des Jardins, 72000 LE MANS;72000;48,0141379;0,1872738;Crédit Agricole - Anjou Maine
Agence bancaire LE MANS FELIX GENESLAY;380 Avenue Félix Géneslay, 72100 LE MANS;72100;47,9688546;0,2038826;Crédit Agricole - Anjou Maine
Agence bancaire LE MANS LE RIBAY;7 Avenue Georges Auric, 72000 Le Mans;72000;48,0148206;0,1523968000000195;Crédit Agricole - Anjou Maine
Agence bancaire LE MANS LES MAILLETS;147 Rue des Maillets, 72000 LE MANS;72000;48,0152645;0,2123777;Crédit Agricole - Anjou Maine
Agence bancaire LE MANS LES SABLONS;65 Bd Winston Churchill, 72100 LE MANS;72100;47,9898694;0,2174471;Crédit Agricole - Anjou Maine
Agence bancaire LE MANS NOVAXIS;51 Boulevard Alexandre Oyon, 72100 LE MANS;72100;47,99498166736846;0,1906277833538752;Crédit Agricole - Anjou Maine
Agence bancaire LE MANS PATIS SAINT LAZARE;267 Avenue de la Liberation, 72000 LE MANS;72000;48,0007083;0,1834708;Crédit Agricole - Anjou Maine
Agence bancaire LE MANS PONTLIEUE;38 Bis Avenue du Dr Jean Mac, 72100 LE MANS;72100;47,979247;0,224555;Crédit Agricole - Anjou Maine
Agence bancaire LE MANS REPUBLIQUE;48, Place de la République, 72000 LE MANS;72000;48,004295;0,1973417;Crédit Agricole - Anjou Maine
Agence bancaire Votre AGENCE PROMOTION IMMOBILIERE LE MANS;77 avenue Olivier Messiaen, 72000 LE MANS;72000;48,0154051;0,1522968;Crédit Agricole - Anjou Maine
Agence bancaire LE MAY SUR EVRE;21 Rue Saint Louis, 49122 LE MAY-SUR-EVRE;49122;;;Crédit Agricole - Anjou Maine
Agence bancaire LES PONTS DE CE;14 Rue Charles de Gaulle, 49130 LES PONTS DE CE;49130;;;Crédit Agricole - Anjou Maine
Agence bancaire LOIRON;15 Rue du Docteur Rame, 53320 LOIRON;53320;;;Crédit Agricole - Anjou Maine
Agence bancaire LONGUE;2 Avenue du Marechal Foch, 49160 LONGUE;49160;;;Crédit Agricole - Anjou Maine
Agence bancaire LOUE;4 Rue du Gal Dunlap, 72540 LOUE;72540;;;Crédit Agricole - Anjou Maine
Agence bancaire LOUVERNE;Place Saint Martin, 53950 LOUVERNE;53950;;;Crédit Agricole - Anjou Maine
Agence bancaire MALICORNE;2 Rue Aristide Briand, 72270 MALICORNE;72270;;;Crédit Agricole - Anjou Maine
Agence bancaire MAMERS;28 Place de la République, 72600 MAMERS;72600;;;Crédit Agricole - Anjou Maine
Agence bancaire MANSIGNE;2 Rue du Louvre, 72510 MANSIGNE;72510;;;Crédit Agricole - Anjou Maine
Agence bancaire MAROLLES LES BRAULTS;6 Rue de Bonnetable, 72260 MAROLLES-LES-BRAULTS;72260;;;Crédit Agricole - Anjou Maine
Agence bancaire MARTIGNE BRIAND;Rue d Anjou, 49540 MARTIGNE BRIAND;49540;;;Crédit Agricole - Anjou Maine
Agence bancaire MARTIGNE;14 Place de l'Église, 53470 MARTIGNE-SUR-MAYENNE;53470;;;Crédit Agricole - Anjou Maine
Agence bancaire LA POMMERAYE;Place Fernand Esseul, 49620 Mauges-sur-Loire;49620;;;Crédit Agricole - Anjou Maine
Agence bancaire MAULEVRIER;3 Place du Château de Colbert, 49360 MAULEVRIER;49360;;;Crédit Agricole - Anjou Maine
Agence bancaire MAYENNE NOTRE-DAME;1 Rue Henri Gandais, 53100 MAYENNE;53100;48,3039293;-0,6201717;Crédit Agricole - Anjou Maine
Agence bancaire MAYENNE SAINT-MARTIN;1 Place du 9 juin, BP 110, 53100 MAYENNE;53100;48,3018733;-0,6127479;Crédit Agricole - Anjou Maine
Agence bancaire MAYET;5 Rue Eugène Termeau, 72360 MAYET;72360;;;Crédit Agricole - Anjou Maine
Agence bancaire MAZE;6 Rue Principale, 49630 MAZE;49630;;;Crédit Agricole - Anjou Maine
Agence bancaire MESLAY DU MAINE;5 Place de la Poste, BP 345, 53170 MESLAY DU MAINE;53170;;;Crédit Agricole - Anjou Maine
Agence bancaire MONTFAUCON - MONTIGNE;11, place Saint Maurice, 49230 MONTFAUCON - MONTIGNE;49230;;;Crédit Agricole - Anjou Maine
Agence bancaire MONTFORT LE GESNOIS;62 Grande Rue, 72450 MONTFORT LE GESNOIS;72450;;;Crédit Agricole - Anjou Maine
Agence bancaire MONTREUIL BELLAY;Rue de la Mairie, 49260 MONTREUIL BELLAY;49260;;;Crédit Agricole - Anjou Maine
Agence bancaire MONTREUIL JUIGNE;Centre Commercial La Musardière, 49460 MONTREUIL JUIGNE;49460;;;Crédit Agricole - Anjou Maine
Agence bancaire MONTSURS;89 Rue Saint Cénéré, BP 8, 53150 MONTSURS;53150;;;Crédit Agricole - Anjou Maine
Agence bancaire CHATEAU DU LOIR;5 Place de l Hotel de Ville, 72500 MONTVAL DU LOIR;72500;;;Crédit Agricole - Anjou Maine
Agence bancaire MULSANNE;Centre Commercial du Virage de Mulsanne, 72230 MULSANNE;72230;;;Crédit Agricole - Anjou Maine
Agence bancaire MURS ERIGNE;Centre Commercial le Grand Clos, Rue Valentin des Ormeaux, 49610 MURS ERIGNE;49610;;;Crédit Agricole - Anjou Maine
Agence bancaire NOYANT;32 Grande Rue, 49490 NOYANT;49490;;;Crédit Agricole - Anjou Maine
Agence bancaire NOYEN SUR SARTHE;28 Rue Pasteur, 72430 NOYEN-SUR-SARTHE;72430;;;Crédit Agricole - Anjou Maine
Agence bancaire POUANCE;1 Bd du Champ de Foire, 49420 OMBREE D ANJOU;49420;;;Crédit Agricole - Anjou Maine
Agence bancaire CHAMPTOCEAUX;Place Paul Deltombe, 49270 OREE D ANJOU;49270;;;Crédit Agricole - Anjou Maine
Agence bancaire PARIGNE L EVEQUE;34 Bis Avenue Abel Tirand, 72250 PARIGNE L EVEQUE;72250;;;Crédit Agricole - Anjou Maine
Agence bancaire PORT BRILLET;16 Rue des Forges, 53410 PORT BRILLET;53410;;;Crédit Agricole - Anjou Maine
Agence bancaire PRE EN PAIL;8 Place du Monument, 53140 PRE EN PAIL;53140;;;Crédit Agricole - Anjou Maine
Agence bancaire QUELAINES;7 Place de l Eglise, 53360 QUELAINES;53360;;;Crédit Agricole - Anjou Maine
Agence bancaire RENAZE;11 Bis Rue Victor Fourcault, 53800 RENAZE;53800;;;Crédit Agricole - Anjou Maine
Agence bancaire RUAUDIN;18 Rue Principale, 72230 RUAUDIN;72230;;;Crédit Agricole - Anjou Maine
Agence bancaire SABLE SUR SARTHE;11 Place Raphaël Elizé, 72300 SABLE-SUR-SARTHE;72300;;;Crédit Agricole - Anjou Maine
Agence bancaire SAINT BARTHELEMY D ANJOU;2 Route de Beaufort, BP 122, 49124 SAINT-BARTHELEMY-D ANJOU;49124;;;Crédit Agricole - Anjou Maine
Agence bancaire SAINT BERTHEVIN;8 Avenue de la Libération, 53940 SAINT-BERTHEVIN;53940;;;Crédit Agricole - Anjou Maine
Agence bancaire SAINT CALAIS;11 Place de l Hôtel de Ville, 72120 SAINT-CALAIS;72120;;;Crédit Agricole - Anjou Maine
Agence bancaire SAINT DENIS D ANJOU;5 Place Henri IV, 53290 SAINT-DENIS-D ANJOU;53290;;;Crédit Agricole - Anjou Maine
Agence bancaire SAINT FLORENT LE VIEIL;Rue de la Bellière, 49410 SAINT-FLORENT-LE-VIEIL;49410;;;Crédit Agricole - Anjou Maine
Agence bancaire SAINT GEORGES SUR LOIRE;7, place Monprofit, 49170 SAINT-GEORGES-SUR-LOIRE;49170;;;Crédit Agricole - Anjou Maine
Agence bancaire SAINT LAURENT DES AUTELS;Place de la Mairie, 49270 SAINT-LAURENT-DES-AUTELS;49270;;;Crédit Agricole - Anjou Maine
Agence bancaire SAINT MACAIRE EN MAUGES;2 Place Sainte Marguerite, 49450 SAINT-MACAIRE-EN-MAUGES;49450;;;Crédit Agricole - Anjou Maine
Agence bancaire SAINT-PIERRE LA COUR;PLACE DE LA POSTE, 53410 SAINT-PIERRE LA COUR;53410;;;Crédit Agricole - Anjou Maine
Agence bancaire SAINT PIERRE MONTLIMART;76 avenue de Bon Air, 49110 SAINT-PIERRE-MONTLIMART;49110;;;Crédit Agricole - Anjou Maine
Agence bancaire SAINT SYLVAIN D ANJOU;2 rue Pasteur, 49480 SAINT-SYLVAIN-D ANJOU;49480;;;Crédit Agricole - Anjou Maine
Agence bancaire SAINTE JAMME SUR SARTHE;ZAC de la Prairie des Moulins Rue du Sablon, 72380 SAINTE-JAMME-SUR-SARTHE;72380;;;Crédit Agricole - Anjou Maine
Agence bancaire SAUMUR BAGNEUX;68 Rue du Pont Fouchard, 49400 Saumur;49400;47,2491978;-0,09065669999995407;Crédit Agricole - Anjou Maine
Agence bancaire SAUMUR BEAUREPAIRE;21 - 23 Rue Beaurepaire, 49400 SAUMUR;49400;47,2600078;-0,0796884;Crédit Agricole - Anjou Maine
Agence bancaire SAUMUR LES PONTS;6 - 8 Avenue du Général de Gaulle, 49400 SAUMUR;49400;47,2636036;-0,0739894;Crédit Agricole - Anjou Maine
Agence bancaire SAVIGNE L EVEQUE;127 Grande Rue, 72460 SAVIGNE-L EVEQUE;72460;;;Crédit Agricole - Anjou Maine
Agence bancaire SEGRE;7 Rue David d Angers, 49500 SEGRE;49500;;;Crédit Agricole - Anjou Maine
Agence bancaire SEICHES SUR LE LOIR;19 Rue Pasteur, 49140 SEICHES-SUR-LE-LOIR;49140;;;Crédit Agricole - Anjou Maine
Agence bancaire SILLE LE GUILLAUME;18 Rue du Coq Hardi, 72140 SILLE-LE-GUILLAUME;72140;;;Crédit Agricole - Anjou Maine
Agence bancaire THOUARCE;Place du Champ de Foire, 49380 THOUARCE;49380;;;Crédit Agricole - Anjou Maine
Agence bancaire TIERCE;Rue de Longchamp, 49125 TIERCE;49125;;;Crédit Agricole - Anjou Maine
Agence bancaire TRELAZE;24 Bis Rue Jean Jaures, BP 5, 49800 TRELAZE;49800;;;Crédit Agricole - Anjou Maine
Agence bancaire TREMENTINES;74 rue du Général de Gaulle, 49340 TREMENTINES;49340;;;Crédit Agricole - Anjou Maine
Agence bancaire TUFFE;2 Rue des Roses, 72160 TUFFE;72160;;;Crédit Agricole - Anjou Maine
Agence bancaire VAIGES;Place de l Eglise, 53480 VAIGES;53480;;;Crédit Agricole - Anjou Maine
Agence bancaire VERNANTES;6 Place de la Mairie, 49390 VERNANTES;49390;;;Crédit Agricole - Anjou Maine
Agence bancaire VIBRAYE;46 Rue Xavier Boutet, 72320 VIBRAYE;72320;;;Crédit Agricole - Anjou Maine
Agence bancaire VIHIERS;15. 17. 19 Place de Gaulle, 49310 VIHIERS;49310;;;Crédit Agricole - Anjou Maine
Agence bancaire VILLAINES LA JUHEL;3 Rue Gervaiseau, 53700 VILLAINES-LA-JUHEL;53700;;;Crédit Agricole - Anjou Maine
Agence bancaire YVRE L EVEQUE;Avenue G. Bouriat, 72530 YVRE L EVEQUE;72530;;;Crédit Agricole - Anjou Maine
