nom;adresse;code_postal;latitude;longitude;region_source
Relais CA RELAIS CA TABAC PRESSE - ALENYA;2 Rue du Réart, 66200 ALENYA;66200;42,6423685;2,978591;Crédit Agricole - Sud Mediterranee
Agence bancaire AGENCE D'AMÉLIE-LES-BAINS;25, Avenue du Vallespir, 66110 AMELIE-LES-BAINS;66110;;;Crédit Agricole - Sud Mediterranee
Agence bancaire AGENCE D'ARGELÈS-SUR-MER;1, Route de Collioure, 66700 ARGELES-SUR-MER;66700;;;Crédit Agricole - Sud Mediterranee
Agence bancaire AGENCE D'ARLES-SUR-TECH;45, Rue Barri d Avall, 66150 ARLES-SUR-TECH;66150;;;Crédit Agricole - Sud Mediterranee
Relais CA RELAIS CA TABAC LA MUSETTE DE L'ARS - AULUS-LES-BAINS;Rue Principale, 09140 AULUS-LES-BAINS;09140;42,79006345283418;1,336443502917035;Crédit Agricole - Sud Mediterranee
Relais CA RELAIS CA SUPERETTE COELHO NICOLE - AUZAT;23 Rue des Pyrénées, 09220 AUZAT;09220;42,7664938;1,4801639;Crédit Agricole - Sud Mediterranee
Agence bancaire AGENCE D'AX-LES-THERMES;29, Avenue Théophile Delcassé, 09110 AX-LES-THERMES;09110;;;Crédit Agricole - Sud Mediterranee
Relais CA RELAIS CA TPCF LE TRAIN ROUGE - AXAT;3 B Place de la Gare, 11140 AXAT;11140;42,8029598;2,2283294;Crédit Agricole - Sud Mediterranee
Agence bancaire AGENCE DE BAGES;2, Rue du 14 Juillet, 66670 BAGES;66670;;;Crédit Agricole - Sud Mediterranee
Agence bancaire AGENCE DE BAIXAS;1, Rue des Cordiers, 66390 BAIXAS;66390;;;Crédit Agricole - Sud Mediterranee
Distributeur automatique de billets DISTRIBUTEUR DE BILLETS AIRE DU VILLAGE CATALAN;Aire du Village Catalan, 66300 BANYULS-DELS-ASPRES;66300;42,5759;2,84505;Crédit Agricole - Sud Mediterranee
Agence bancaire AGENCE DE BANYULS-SUR-MER;Avenue Pierre Fabre, 66650 BANYULS-SUR-MER;66650;;;Crédit Agricole - Sud Mediterranee
Relais CA RELAIS CA HÔTEL RESTAURANT DOMAINE RIBERACH - BELESTA;2 Route de Caladroy, 66720 BELESTA;66720;42,7180615;2,6074017;Crédit Agricole - Sud Mediterranee
Relais CA RELAIS CA BOWLING L'ÉLAN - BOLQUERE;4 Avenue du Serrat de l'Ours, 66210 BOLQUERE;66210;42,5163401;2,0601626;Crédit Agricole - Sud Mediterranee
Agence bancaire AGENCE DE BOMPAS;11, Avenue Pasteur, 66430 BOMPAS;66430;;;Crédit Agricole - Sud Mediterranee
Relais CA RELAIS CA BOULANGERIE MARTINEZ MATHIEU - BOULETERNERE;3 rue Cami Real, 66130 BOULETERNERE;66130;42,64997491257302;2,5856415;Crédit Agricole - Sud Mediterranee
Relais CA RELAIS CA TABAC PRESSE LA PORTE DES ASPRES - BROUILLA;4 bis Espace Ludovic Massé, 66620 BROUILLA;66620;42,5654391;2,8997704;Crédit Agricole - Sud Mediterranee
Agence bancaire AGENCE DE CABESTANY;2, Rue Dagobert, 66330 CABESTANY;66330;42,68015601;2,941074371;Crédit Agricole - Sud Mediterranee
Agence bancaire AGENCE GUÉRIDO;10, Rue Becquerel, 66330 CABESTANY;66330;42,69023615;2,92402491;Crédit Agricole - Sud Mediterranee
Relais CA RELAIS CA BISTROT LE PRESBYTÈRE - CALCE;Place de la République, 66600 CALCE;66600;42,7586679;2,7540133;Crédit Agricole - Sud Mediterranee
Agence bancaire AGENCE DE CANET PLAGE;6, Avenue de la Méditerranée, 66140 CANET-EN-ROUSSILLON;66140;42,69412679;3,034484982;Crédit Agricole - Sud Mediterranee
Agence bancaire AGENCE DE CANET VILLAGE;16-18, Rue des Trois Consuls, 66140 CANET-EN-ROUSSILLON;66140;42,7038242;3,0042138;Crédit Agricole - Sud Mediterranee
Agence bancaire AGENCE DE CANOHÈS;1, Rue de la Pourtalade, 66680 CANOHES;66680;;;Crédit Agricole - Sud Mediterranee
Relais CA RELAIS CA LE FOURNIL CASSAGNOL - CASSAGNES;1 Place des Chênes, 66720 CASSAGNES;66720;42,74041099999999;2,6113215;Crédit Agricole - Sud Mediterranee
Relais CA RELAIS CA BOULANGERIE AUX DÉLICES DES 4 VALLÉES - CASTILLON-EN-COUSERANS;57 Avenue Noël Peyrevidal, 09800 CASTILLON-EN-COUSERANS;09800;42,9115607;1,028875;Crédit Agricole - Sud Mediterranee
Agence bancaire AGENCE DE CÉRET;11, Avenue Georges Clemenceau, 66400 CERET;66400;;;Crédit Agricole - Sud Mediterranee
Relais CA RELAIS CA BAR TABAC DE L'UNION - CLAIRA;29 Avenue de l'Agly, 66530 CLAIRA;66530;42,7582163;2,955879;Crédit Agricole - Sud Mediterranee
Relais CA RELAIS CA TABAC EL'CLAIRANENC - CLAIRA;22 Avenue de la Salanque, 66530 CLAIRA;66530;42,7606207;2,9562993;Crédit Agricole - Sud Mediterranee
Agence bancaire AGENCE DE COLLIOURE;28, Rue Pasteur, 66190 COLLIOURE;66190;;;Crédit Agricole - Sud Mediterranee
Relais CA RELAIS CA BOULANGERIE LA CORNEILLETTE - CORNEILLA-DE-CONFLENT;9 Place de la République, 66820 CORNEILLA-DE-CONFLENT;66820;42,5669526;2,3811504;Crédit Agricole - Sud Mediterranee
Relais CA RELAIS CA BOUCHERIE MATILLAS - CORNEILLA-DEL-VERCOL;6 Mail de l'Aspre, 66200 CORNEILLA-DEL-VERCOL;66200;42,6262073;2,9524986;Crédit Agricole - Sud Mediterranee
Relais CA RELAIS CA CAFÉ DES SPORTS - CORNEILLA-LA-RIVIERE;1 La Clavé Verte, 66550 CORNEILLA-LA-RIVIERE;66550;42,6973136;2,7305865;Crédit Agricole - Sud Mediterranee
Agence bancaire AGENCE DE DAUMAZAN-SUR-ARIZE;Route de Toulouse, 09350 DAUMAZAN-SUR-ARIZE;09350;;;Crédit Agricole - Sud Mediterranee
Distributeur automatique de billets DISTRIBUTEUR DE BILLETS EGAT;Centre commercial Super U - 10, Rond-point d Egat, 66120 EGAT;66120;42,4981685;2,0125506;Crédit Agricole - Sud Mediterranee
Agence bancaire AGENCE D'ELNE;7 Boulevard Voltaire, 66200 Elne;66200;;;Crédit Agricole - Sud Mediterranee
Relais CA RELAIS CA SUPERETTE DUBOIS CHRISTOPHE - ESPIRA-DE-L'AGLY;4 Place de la République, 66600 ESPIRA-DE-L'AGLY;66600;42,77785;2,83579;Crédit Agricole - Sud Mediterranee
Agence bancaire AGENCE D'ESTAGEL;19, Boulevard Jean Jaurès, 66310 ESTAGEL;66310;;;Crédit Agricole - Sud Mediterranee
Relais CA RELAIS CA CAFÉ DE L'UNION - FILLOLS;Rue de l'Église, 66820 FILLOLS;66820;42,561488;2,409016;Crédit Agricole - Sud Mediterranee
Agence bancaire AGENCE DE FOIX;33, Cours Gabriel Fauré, 09000 FOIX;09000;;;Crédit Agricole - Sud Mediterranee
Agence bancaire AGENCE DE FONT-ROMEU;5, Avenue Dumayne - Résidence Dumayne, 66120 FONT-ROMEU;66120;;;Crédit Agricole - Sud Mediterranee
Distributeur automatique de billets DISTRIBUTEUR DE BILLETS FORMIGUÈRES;12 Route de Mont Louis, 66210 FORMIGUERES;66210;42,6129734;2,1042792;Crédit Agricole - Sud Mediterranee
Agence bancaire AGENCE D'ILLE-SUR-TÊT;8, Avenue Jean Jaurès, 66130 ILLE-SUR-TET;66130;;;Crédit Agricole - Sud Mediterranee
Agence bancaire AGENCE DE LA BASTIDE DE SÉROU;1, Place de la Mairie, 09240 LA BASTIDE DE SEROU;09240;;;Crédit Agricole - Sud Mediterranee
Relais CA RELAIS CA BOUCHERIE ESCOT - LA BASTIDE-SUR-L'HERS;2 Avenue du 11 Novembre 1918, 09600 LA BASTIDE-SUR-L'HERS;09600;42,956221;1,910398;Crédit Agricole - Sud Mediterranee
Relais CA RELAIS CA BOULANGERIE DU CAMBRE D'AZE - LA CABANASSE;16 Place Paul Cot, 66210 LA CABANASSE;66210;42,500427;2,11283;Crédit Agricole - Sud Mediterranee
Relais CA RELAIS CA ÉPICERIE FERRAND ROUCAIROL - LA LLAGONNE;Le Village, 66210 LA LLAGONNE;66210;42,52625;2,1208;Crédit Agricole - Sud Mediterranee
Relais CA RELAIS CA TABAC PRESSE - LA TOUR-DU-CRIEU;12 Lotissement la Palanque, 09100 LA TOUR-DU-CRIEU;09100;43,1031912;1,6504082;Crédit Agricole - Sud Mediterranee
Agence bancaire AGENCE DE LAROQUE D'OLMES;Avenue du 11 Novembre 1918, 09600 LAROQUE D OLMES;09600;;;Crédit Agricole - Sud Mediterranee
Relais CA RELAIS CA ÉPICERIE SALVI - LAROQUE-DES-ALBERES;3 Rue du Stade, 66740 LAROQUE-DES-ALBERES;66740;42,5241;2,93498;Crédit Agricole - Sud Mediterranee
Relais CA RELAIS CA ÉPICERIE LE CABAS COMBLÉ - LATOUR-DE-CAROL;Place des Commerces, 66760 LATOUR-DE-CAROL;66760;42,46576;1,88941;Crédit Agricole - Sud Mediterranee
Relais CA RELAIS CA BOULANGERIE MATILLAS LOUIS - LATOUR-DE-FRANCE;2 Rue Jean Jaurès, 66720 LATOUR-DE-FRANCE;66720;42,7690325;2,6536318;Crédit Agricole - Sud Mediterranee
Agence bancaire AGENCE DE LAVELANET;Place de l Europe, 09300 LAVELANET;09300;;;Crédit Agricole - Sud Mediterranee
Agence bancaire AGENCE DU BARCARÈS;111, Boulevard du Port, 66420 LE BARCARES;66420;;;Crédit Agricole - Sud Mediterranee
Agence bancaire AGENCE DU BOULOU;12, Avenue du Général de Gaulle, 66160 LE BOULOU;66160;;;Crédit Agricole - Sud Mediterranee
Agence bancaire AGENCE DU FOSSAT;Place du Monument aux Morts, 09130 LE FOSSAT;09130;;;Crédit Agricole - Sud Mediterranee
Agence bancaire AGENCE DE LE MAS D AZIL;Rue du Mouret, 09290 LE MAS D AZIL;09290;;;Crédit Agricole - Sud Mediterranee
Agence bancaire AGENCE DU SOLER;4, Rue de la Libération, 66270 LE SOLER;66270;;;Crédit Agricole - Sud Mediterranee
Agence bancaire AGENCE DES ANGLES;Avenue de Balcère, 66210 LES ANGLES;66210;;;Crédit Agricole - Sud Mediterranee
Relais CA RELAIS CA TABAC PRESSE ARIÈGE TRADITION - LES CABANNES;6 Rue Principale, 09310 LES CABANNES;09310;42,7848649;1,6873638;Crédit Agricole - Sud Mediterranee
Agence bancaire AGENCE DE LÉZAT-SUR-LÈZE;Avenue des Pyrénées, 09210 LEZAT-SUR-LEZE;09210;;;Crédit Agricole - Sud Mediterranee
Distributeur automatique de billets DISTRIBUTEUR DE BILLETS LLUPIA;Centre commercial Intermarché - Route de Thuir, 66300 LLUPIA;66300;42,6247344;2,7686133;Crédit Agricole - Sud Mediterranee
Relais CA RELAIS CA ÉPICERIE URSINE - LUZENAC;1 Rue Principale, 09250 LUZENAC;09250;42,761532;1,76138;Crédit Agricole - Sud Mediterranee
Relais CA RELAIS CA TABAC PRESSE LE CATALAN - MARQUIXANES;Route Nationale 116, 66320 MARQUIXANES;66320;42,64201;2,48394;Crédit Agricole - Sud Mediterranee
Relais CA RELAIS CA CAFÉ BAR LE GLOBE - MASSAT;22 Place de l'Église, 09320 MASSAT;09320;42,88957;1,34703;Crédit Agricole - Sud Mediterranee
Distributeur automatique de billets DISTRIBUTEUR DE BILLETS MAUREILLAS-LAS-ILLAS;18 Route nationale, 66480 MAUREILLAS-LAS-ILLAS;66480;42,4912312;2,8088011;Crédit Agricole - Sud Mediterranee
Relais CA RELAIS CA ÉPICERIE GELLY LAURENCE - MAURY;1 Rue Pasteur, 66460 MAURY;66460;42,81009;2,59214;Crédit Agricole - Sud Mediterranee
Agence bancaire AGENCE DE MAZÈRES;Rue du Martimor, 09270 MAZERES;09270;;;Crédit Agricole - Sud Mediterranee
Relais CA RELAIS CA TABAC CAFÉ RELAIS DU VOLP - MERIGON;Le Bourg, 09230 MERIGON;09230;43,088494;1,196126;Crédit Agricole - Sud Mediterranee
Agence bancaire AGENCE DE MILLAS;114, Rue Jean Jaurès, 66170 MILLAS;66170;;;Crédit Agricole - Sud Mediterranee
Agence bancaire AGENCE DE MIREPOIX;38, Cours Colonel Petitpied, 09500 MIREPOIX;09500;;;Crédit Agricole - Sud Mediterranee
Relais CA RELAIS CA RESTAURANT LE ROYAL - MOLITG-LES-BAINS;Route des Bains, 66500 MOLITG-LES-BAINS;66500;42,64716;2,389957;Crédit Agricole - Sud Mediterranee
Relais CA RELAIS CA TABAC PRESSE - MONT-LOUIS;1 Place d'Armes, 66210 MONT-LOUIS;66210;42,508001;2,122672;Crédit Agricole - Sud Mediterranee
Relais CA RELAIS CA ÉPICERIE LE MONTSÉGURIEN LIONEL SEGUÉLA - MONTSEGUR;115 Rue du Village, 09300 MONTSEGUR;09300;42,870755;1,833745;Crédit Agricole - Sud Mediterranee
Relais CA RELAIS CA L'ÉPICERIE MOSSETANE - MOSSET;1 Place Saint-Julien, 66500 MOSSET;66500;42,66775;2,34824;Crédit Agricole - Sud Mediterranee
Relais CA RELAIS CA BOULANGERIE ALAIN MARGAIL - ORTAFFA;9 Avenue de la Méditerranée, 66560 ORTAFFA;66560;42,58059839716586;2,926826646022258;Crédit Agricole - Sud Mediterranee
Relais CA RELAIS CA ÉPICERIE L'AIL Y OLI - ORTAFFA;8 Place Jean Moulin, 66560 ORTAFFA;66560;42,57919;2,92578;Crédit Agricole - Sud Mediterranee
Relais CA RELAIS CA ASSOCIATION CAL CAVALLER - OSSEJA;24 Avenue de Cerdagne, 66340 OSSEJA;66340;42,4176984;1,9798573;Crédit Agricole - Sud Mediterranee
Relais CA RELAIS CA ÉPICERIE VIVAL - OUST;Hameau de Roquemaurel, 09140 OUST;09140;42,8822662;1,2146118;Crédit Agricole - Sud Mediterranee
Relais CA RELAIS CA ÉPICERIE DUMONT JEAN-LUC - PAILHES;Place de la Mairie, 09130 PAILHES;09130;43,13656;1,43987;Crédit Agricole - Sud Mediterranee
Distributeur automatique de billets DISTRIBUTEUR DE BILLETS PALAU DEL VIDRE;1 place Docteur Parahy, 66690 PALAU DEL VIDRE;66690;42,5706272;2,9587906;Crédit Agricole - Sud Mediterranee
Agence bancaire AGENCE DE PAMIERS PYRESUD;Les Couverts St Antonin Route de Foix, 09100 PAMIERS;09100;43,102436;1,621896;Crédit Agricole - Sud Mediterranee
Agence bancaire AGENCE DE PAMIERS RÉPUBLIQUE;18, Place de la République, 09100 PAMIERS;09100;43,115864;1,610386;Crédit Agricole - Sud Mediterranee
Agence bancaire AGENCE DES ENTREPRENEURS 09;CENTRE D'AFFAIRES LIEU-DIT MOUCHET ROUTE DE MIREPOIX, 09100 PAMIERS;09100;43,10072947334302;1,633599149341663;Crédit Agricole - Sud Mediterranee
Agence bancaire AGENCE ENTREPRISES ARIÈGE;Centre d'Affaires Lieu-dit Mouchet - Route de Mirepoix, 09100 PAMIERS;09100;43,100657;1,633819;Crédit Agricole - Sud Mediterranee
Agence bancaire BANQUE PRIVÉE ARIÈGE;Centre d'Affaires Lieu-dit Mouchet - Route de Mirepoix, 09100 PAMIERS;09100;43,100657;1,633819;Crédit Agricole - Sud Mediterranee
Agence bancaire CENTRE D'AFFAIRES AGRI AGRO 09;Centre d'Affaires Lieu-dit Mouchet - Route de Mirepoix, 09100 PAMIERS;09100;1,633819;43,100657;Crédit Agricole - Sud Mediterranee
Agence bancaire CENTRE D'EXPERTISE FINANCEMENT IMMOBILIER 09;Centre d'Affaires Lieu-dit Mouchet - Route de Mirepoix, 09100 PAMIERS;09100;43,100657;1,633819;Crédit Agricole - Sud Mediterranee
Agence bancaire AGENCE DE PERPIGNAN AUCHAN;Centre commercial Auchan - 2000, Avenue d Espagne, 66000 PERPIGNAN;66000;42,66959402;2,88190484;Crédit Agricole - Sud Mediterranee
Agence bancaire AGENCE DE PERPIGNAN CATALOGNE;15, Place Jean Payra, 66000 PERPIGNAN;66000;42,698152;2,889033;Crédit Agricole - Sud Mediterranee
Agence bancaire AGENCE DE PERPIGNAN JOFFRE;152, Avenue Maréchal Joffre, 66000 PERPIGNAN;66000;42,712934;2,889445;Crédit Agricole - Sud Mediterranee
Agence bancaire AGENCE DE PERPIGNAN POLYGONE;2147, Avenue du Languedoc, 66000 PERPIGNAN;66000;42,7401872;2,8913856;Crédit Agricole - Sud Mediterranee
Agence bancaire AGENCE DE PERPIGNAN RUSCINO;13 Avenue des Pervenches, 66000 PERPIGNAN;66000;42,7014405;2,9049435;Crédit Agricole - Sud Mediterranee
Agence bancaire AGENCE DE PERPIGNAN ST ASSISCLE;5, Place Yves Du Manoir, 66000 PERPIGNAN;66000;42,69456148;2,872097343;Crédit Agricole - Sud Mediterranee
Agence bancaire AGENCE DE PERPIGNAN ST JACQUES;8, Boulevard Anatole France, 66000 PERPIGNAN;66000;42,69773825;2,904269099;Crédit Agricole - Sud Mediterranee
Agence bancaire AGENCE DE PERPIGNAN SUD-UNIVERSITÉ;21, Avenue Maréchal Koenig, 66100 PERPIGNAN;66100;42,686997;2,902178;Crédit Agricole - Sud Mediterranee
Agence bancaire AGENCE DES ENTREPRENEURS 66;Bâtiment Born Sanctuary 1er étage 243 rue du Docteur Parcé, 66000 Perpignan;66000;42,66525470000001;2,9034627;Crédit Agricole - Sud Mediterranee
Agence bancaire AGENCE ENTREPRISES PYRÉNÉES-ORIENTALES;Centre d'Affaires Rue Pierre Curie, 66000 PERPIGNAN;66000;42,6985307;2,88822413;Crédit Agricole - Sud Mediterranee
Agence bancaire AGENCE ILLICO;8, Place Jean Jaurès, 66000 PERPIGNAN;66000;42,69907476;2,893787026;Crédit Agricole - Sud Mediterranee
Agence Immobilière AGENCE IMMOBILIERE SQUARE HABITAT PERPIGNAN Square Habitat;49 Boulevard Georges Clemenceau, 66000 Perpignan;66000;42,6989809;2,8886183;Crédit Agricole - Sud Mediterranee
Agence bancaire BANQUE PRIVÉE PYRÉNEÉS-ORIENTALES;Centre d Affaires Rue Pierre Curie, 66000 PERPIGNAN;66000;42,6985307;2,888224125;Crédit Agricole - Sud Mediterranee
Agence bancaire CENTRE D'AFFAIRES AGRI AGRO 66;30, Rue Pierre Bretonneau, 66100 PERPIGNAN;66100;42,66853769999999;2,886318;Crédit Agricole - Sud Mediterranee
Agence bancaire CENTRE D'EXPERTISE FINANCEMENT IMMOBILIER 66;30, Rue Pierre Bretonneau, 66000 PERPIGNAN;66000;42,66853769999999;2,88631799999996;Crédit Agricole - Sud Mediterranee
Distributeur automatique de billets DISTRIBUTEUR DE BILLETS PERPIGNAN CC SUPER U;Centre commercial Super U - 21 Boulevard Docteur Joseph Desnoyes, 66000 PERPIGNAN;66000;42,71005479999999;2,8837449;Crédit Agricole - Sud Mediterranee
Distributeur automatique de billets DISTRIBUTEUR DE BILLETS PERPIGNAN G. LAFAYETTE;Galeries Lafayette - 1 Place de la Résistance, 66000 PERPIGNAN;66000;42,7008965;2,8928682;Crédit Agricole - Sud Mediterranee
Distributeur automatique de billets DISTRIBUTEUR DE BILLETS PERPIGNAN SQUARE HABITAT;1 Place de la République, 66000 PERPIGNAN;66000;42,69894;2,8952;Crédit Agricole - Sud Mediterranee
Relais CA RELAIS CA CHARCUTERIE THIBAUT ÉRIC - PERPIGNAN;23 Avenue de l'Aérodrome, 66000 PERPIGNAN;66000;42,72269259999999;2,8840631;Crédit Agricole - Sud Mediterranee
Relais CA RELAIS CA TABAC PRESSE LE RUBENS - PERPIGNAN;106 Rue Paul Rubens, 66000 PERPIGNAN;66000;42,6957587;2,918707300000051;Crédit Agricole - Sud Mediterranee
Agence bancaire SIÈGE ADMINISTRATIF;30, Rue Pierre Bretonneau, 66100 PERPIGNAN;66100;42,66853769999999;2,886318;Crédit Agricole - Sud Mediterranee
Agence bancaire AGENCE DE PEZILLA-LA-RIVIÈRE;83, Avenue de la République, 66370 PEZILLA-LA-RIVIERE;66370;;;Crédit Agricole - Sud Mediterranee
Agence bancaire AGENCE DE PIA;6, Rue Sainte-Anne, 66380 PIA;66380;;;Crédit Agricole - Sud Mediterranee
Agence bancaire AGENCE DE POLLESTRES;19, Avenue du Roussillon, 66450 POLLESTRES;66450;;;Crédit Agricole - Sud Mediterranee
Distributeur automatique de billets DISTRIBUTEUR DE BILLETS PONTEILLA;5 Place de la Poste, 66300 PONTEILLA;66300;42,625524;2,813755;Crédit Agricole - Sud Mediterranee
Relais CA RELAIS CA TABAC PRESSE RIBEIRO - PONTEILLA;14 Rue du Foyer Rural, 66300 PONTEILLA;66300;42,6257392;2,8136832;Crédit Agricole - Sud Mediterranee
Agence bancaire AGENCE DE PORT-VENDRES;3, Quai Pierre Forgas, 66660 PORT-VENDRES;66660;;;Crédit Agricole - Sud Mediterranee
Agence bancaire AGENCE DE PRADES;168, Avenue du Général de Gaulle, 66500 PRADES;66500;;;Crédit Agricole - Sud Mediterranee
Relais CA RELAIS CA CAFÉ TABAC PRESSE DU COUSERANS - PRAT-BONREPAUX;31 Rue Nationale, 09160 PRAT-BONREPAUX;09160;43,03158;1,02125;Crédit Agricole - Sud Mediterranee
Agence bancaire AGENCE DE PRATS-DE-MOLLO;12, Place du Foiral, 66230 PRATS-DE-MOLLO;66230;;;Crédit Agricole - Sud Mediterranee
Relais CA RELAIS CA VIGNERONS DE PLANÈZES RASIGUÈRES - RASIGUERES;5 Avenue de Caramany, 66720 RASIGUERES;66720;42,7653882;2,6097375;Crédit Agricole - Sud Mediterranee
Relais CA RELAIS CA ÉPICERIE GOY YANN - RIA SIRACH;13 Route Nationale, 66500 RIA SIRACH;66500;42,60709;2,402;Crédit Agricole - Sud Mediterranee
Relais CA RELAIS CA HÔTEL RESTAURANT DU BON ACCUEIL - RIMONT;Avenue de la Résistance, 09420 RIMONT;09420;42,99405;1,28066;Crédit Agricole - Sud Mediterranee
Agence bancaire AGENCE DE RIVESALTES;4, Avenue Ledru Rollin, 66600 RIVESALTES;66600;;;Crédit Agricole - Sud Mediterranee
Distributeur automatique de billets DISTRIBUTEUR DE BILLETS SAILLAGOUSE;27 Avenue des Comtes de Cerdagne, 66800 SAILLAGOUSE;66800;42,4564423;2,0371018;Crédit Agricole - Sud Mediterranee
Relais CA RELAIS CA BOULANGERIE L'AMIE DE MES ANCÊTRES - SAINT-ANDRE;26 Route Nationale, 66690 SAINT-ANDRE;66690;42,5514;2,97079;Crédit Agricole - Sud Mediterranee
Agence bancaire AGENCE DE SAINT-CYPRIEN PLAGE;15, Boulevard Maillol, 66750 SAINT-CYPRIEN;66750;42,6288304;3,0325607;Crédit Agricole - Sud Mediterranee
Agence bancaire AGENCE DE SAINT-CYPRIEN VILLAGE;53, Avenue du Roussillon, 66750 SAINT-CYPRIEN;66750;42,6190011;3,0091786;Crédit Agricole - Sud Mediterranee
Distributeur automatique de billets DISTRIBUTEUR DE BILLETS SAINT-CYPRIEN PORT;Quai Arthur Rimbaud, 66750 SAINT-CYPRIEN;66750;42,62185;3,03543;Crédit Agricole - Sud Mediterranee
Agence bancaire AGENCE DE SAINT-ESTÈVE;4, Avenue Mas del Rey, 66240 SAINT-ESTEVE;66240;;;Crédit Agricole - Sud Mediterranee
Relais CA RELAIS CA BAR TABAC PRESSE CHEZ JÉRÔME ET SYLVIE - SAINT-FÉLIU-D'AMONT;1 Avenue de Força Réal, 66170 SAINT-FÉLIU-D'AMONT;66170;42,6855812;2,722453;Crédit Agricole - Sud Mediterranee
Agence bancaire AGENCE DE SAINT-GÉNIS-DES-FONTAINES;6, Place Joseph Cavaillé, 66740 SAINT-GÉNIS-DES-FONTAINES;66740;;;Crédit Agricole - Sud Mediterranee
Agence bancaire AGENCE DE SAINT-GIRONS-PLAISANT;8, Avenue René Plaisant, 09200 SAINT-GIRONS;09200;;;Crédit Agricole - Sud Mediterranee
Relais CA RELAIS CA TABAC PRESSE MICHELLE MONNET - SAINT-JEAN-PLA-DE-CORTS;Square Guy Malé, 66490 SAINT-JEAN-PLA-DE-CORTS;66490;42,51175509999999;2,7912283;Crédit Agricole - Sud Mediterranee
Relais CA RELAIS CA AUBERGE DE L'ISARD - SAINT-LARY;Le Village, 09800 SAINT-LARY;09800;42,92921;0,89451;Crédit Agricole - Sud Mediterranee
Agence bancaire AGENCE DE SAINT-LAURENT-DE-CERDANS;13 Place Gabriel Péri, 66260 SAINT-LAURENT-DE-CERDANS;66260;;;Crédit Agricole - Sud Mediterranee
Agence bancaire AGENCE DE SAINT-LAURENT-DE-LA-SALANQUE;6, Avenue Urbain Paret, 66250 SAINT-LAURENT-DE-LA-SALANQUE;66250;;;Crédit Agricole - Sud Mediterranee
Distributeur automatique de billets DISTRIBUTEUR DE BILLETS SAINT-LIZIER;Centre commercial Intermarché - ROUTE DE TOULOUSE, 09190 SAINT-LIZIER;09190;43,01231;1,12891;Crédit Agricole - Sud Mediterranee
Distributeur automatique de billets DISTRIBUTEUR DE BILLETS SAINT-LIZIER;Centre commercial Intermarché - LIEU-DIT PONT BAUP, 09190 SAINT-LIZIER;09190;42,992376;1,141676;Crédit Agricole - Sud Mediterranee
Distributeur automatique de billets DISTRIBUTEUR DE BILLETS SAINT-NAZAIRE;Place de la République, 66570 SAINT-NAZAIRE;66570;42,668597;2,990084;Crédit Agricole - Sud Mediterranee
Relais CA RELAIS CA TABAC PRESSE SAUVAGE CHRISTOPHE - SAINT-NAZAIRE;1 Place Verdun, 66570 SAINT-NAZAIRE;66570;42,66948071794162;2,990949;Crédit Agricole - Sud Mediterranee
Agence bancaire AGENCE DE SAINT-PAUL-DE-FENOUILLET;13, Avenue Georges Pezières, 66220 SAINT-PAUL-DE-FENOUILLET;66220;;;Crédit Agricole - Sud Mediterranee
Relais CA RELAIS CA ÉPICERIE GALY COMBES - SAINT-PIERRE-DE-RIVIERE;Le Bourg, 09000 SAINT-PIERRE-DE-RIVIERE;09000;42,96078;1,55938;Crédit Agricole - Sud Mediterranee
Relais CA RELAIS CA RESTAURANT LE POULPE DU LAC - SAINTE-CROIX-VOLVESTRE;Rue de l'Église, 09230 SAINTE-CROIX-VOLVESTRE;09230;43,12513;1,17447;Crédit Agricole - Sud Mediterranee
Agence bancaire AGENCE DE SAINTE-MARIE-LA-MER;1, Rue Alfred Nobel, 66470 SAINTE-MARIE-LA-MER;66470;;;Crédit Agricole - Sud Mediterranee
Agence bancaire AGENCE DE SALEILLES;1, Avenue du Clair Soleil, 66280 SALEILLES;66280;;;Crédit Agricole - Sud Mediterranee
Agence bancaire AGENCE DE SALSES-LE-CHÂTEAU;15, Place de la République, 66600 SALSES-LE-CHATEAU;66600;;;Crédit Agricole - Sud Mediterranee
Agence bancaire AGENCE DE SAVERDUN;Allée du Balouard, 09700 SAVERDUN;09700;;;Crédit Agricole - Sud Mediterranee
Relais CA RELAIS CA TABAC PRESSE LE SALAT - SEIX;Rue Pujole, 09140 SEIX;09140;42,865454;1,1984226;Crédit Agricole - Sud Mediterranee
Relais CA RELAIS CA CAFÉ BAR CHEZ FLEUR - SERRALONGUE;16 Rue Abdon Poggi, 66230 SERRALONGUE;66230;42,3976886;2,5552323;Crédit Agricole - Sud Mediterranee
Agence bancaire AGENCE DE SORÈDE;6, Rue de la Caserne, 66690 SOREDE;66690;;;Crédit Agricole - Sud Mediterranee
Agence bancaire AGENCE DE TARASCON-SUR-ARIÈGE;Quartier de l Ayroule, 09400 TARASCON-SUR-ARIEGE;09400;;;Crédit Agricole - Sud Mediterranee
Relais CA RELAIS CA ÉPICERIE CHEZ DOMI - TAURINYA;20 Camí del Canigo, 66500 TAURINYA;66500;42,57918009999999;2,4272986;Crédit Agricole - Sud Mediterranee
Distributeur automatique de billets DISTRIBUTEUR DE BILLETS TAUTAVEL;18 Rue Jean Badia, 66720 TAUTAVEL;66720;42,81537230000001;2,7486006;Crédit Agricole - Sud Mediterranee
Relais CA RELAIS CA SUPERETTE PROXI AU PANIER DE TAUTAVEL - TAUTAVEL;1 rue Gambetta, 66720 TAUTAVEL;66720;42,81428;2,74593;Crédit Agricole - Sud Mediterranee
Agence bancaire AGENCE DE THUIR;5, Rue Vendôme, 66300 THUIR;66300;;;Crédit Agricole - Sud Mediterranee
Relais CA RELAIS CA TABAC PRESSE - TORREILLES;2 Place Jules Ferry, 66440 TORREILLES;66440;42,75478861915597;2,993415187182608;Crédit Agricole - Sud Mediterranee
Relais CA RELAIS CA TABAC PRESSE MACABOU - TORREILLES;Centre commercial La Playa Avenue de Barcelone, 66440 TORREILLES;66440;42,76514;3,03121;Crédit Agricole - Sud Mediterranee
Agence bancaire AGENCE DE TOULOUGES;3, Avenue du Stade, 66350 TOULOUGES;66350;;;Crédit Agricole - Sud Mediterranee
Relais CA RELAIS CA ÉPICERIE SUPERETTE VITAMINES - TROUILLAS;8 Rue Pavée, 66300 TROUILLAS;66300;42,61169499902088;2,808390840406556;Crédit Agricole - Sud Mediterranee
Agence bancaire AGENCE D'UR;Centre commercial les Arses, 66760 UR;66760;;;Crédit Agricole - Sud Mediterranee
Agence bancaire AGENCE DE VARILHES;51, Avenue Jacques Carrié, 09120 VARILHES;09120;;;Crédit Agricole - Sud Mediterranee
Distributeur automatique de billets DISTRIBUTEUR DE BILLETS VERNET-LES-BAINS;6 Boulevard Georges Clémenceau, 66820 VERNET-LES-BAINS;66820;42,54803;2,38874;Crédit Agricole - Sud Mediterranee
Distributeur automatique de billets DISTRIBUTEUR DE BILLETS VERNIOLLE;Centre commercial Super U Zone d'activités de la Crausette, 09340 VERNIOLLE;09340;43,0752365;1,6426481;Crédit Agricole - Sud Mediterranee
Relais CA RELAIS CA ÉPICERIE CHEZ JEANNE - VERNIOLLE;6 Place de l'Église, 09340 VERNIOLLE;09340;43,08141;1,6488;Crédit Agricole - Sud Mediterranee
Agence bancaire AGENCE DE VILLELONGUE-DE-LA-SALANQUE;27, Avenue de Perpignan, 66410 VILLELONGUE-DE-LA-SALANQUE;66410;;;Crédit Agricole - Sud Mediterranee
Agence bancaire AGENCE DE VILLENEUVE-DE-LA-RAHO;Place des Deux Catalognes, 66180 VILLENEUVE-DE-LA-RAHO;66180;;;Crédit Agricole - Sud Mediterranee
Agence bancaire AGENCE DE VINÇA;1, Place de la Liberté, 66320 VINCA;66320;;;Crédit Agricole - Sud Mediterranee
Relais CA RELAIS CA L'ÉPICERIE D'AQUÍ - VINGRAU;35 Rue Maréchal Joffre, 66600 VINGRAU;66600;42,84885;2,7777;Crédit Agricole - Sud Mediterranee
