nom;adresse;code_postal;latitude;longitude;region_source
Agence bancaire Agence Entreprise Tarbes;11 boulevard Kennedy, 65000 Agences Entreprises Pyrénées Gascogne;65000;43,2193014;0,0842366;Crédit Agricole - Pyrenees Gascogne
Agence bancaire Agence Entreprises d'Auch;Au Malartic route d'Agen, 32000 Agences Entreprises Pyrénées Gascogne;32000;43,685453;0,603229;Crédit Agricole - Pyrenees Gascogne
Agence bancaire Agence Entreprises de Bayonne;2 chemin de Marouette, 64100 Agences Entreprises Pyrénées Gascogne;64100;43,4828373;-1,490111;Crédit Agricole - Pyrenees Gascogne
Agence bancaire Agence Grandes Entreprises de Pau;Chemin de Devèzes, 64121 Agences Entreprises Pyrénées Gascogne;64121;43,37021098;-0,379071236;Crédit Agricole - Pyrenees Gascogne
Agence bancaire Aignan;1 rue Saint-Saturnin, 32290 AIGNAN;32290;;;Crédit Agricole - Pyrenees Gascogne
Agence bancaire Anglet Cinq Cantons;Rue Eugène Labaste, 64600 ANGLET;64600;43,495468;-1,530351;Crédit Agricole - Pyrenees Gascogne
Agence bancaire Anglet Le Busquet;66 avenue De Bayonne, 64600 ANGLET;64600;43,4824334;-1,505622;Crédit Agricole - Pyrenees Gascogne
Agence bancaire Anglet Maignon;Centre Commercial Aritxague Avenue du Professeur René Cuzacq, 64600 ANGLET;64600;43,476017;-1,493198;Crédit Agricole - Pyrenees Gascogne
Agence bancaire Bayonne Anglet Espace Pro;14 rue du Cadran, 64600 ANGLET;64600;43,48219;-1,5051204;Crédit Agricole - Pyrenees Gascogne
Agence bancaire Espace Habitat d'Anglet;14 Allée du Cadran, 64600 Anglet;64600;43,4820643;-1,5050549;Crédit Agricole - Pyrenees Gascogne
Agence bancaire Argelès;14 place Victoire, 65400 ARGELES-GAZOST;65400;;;Crédit Agricole - Pyrenees Gascogne
Agence bancaire Arreau;25 place de la Mairie, 65240 ARREAU;65240;;;Crédit Agricole - Pyrenees Gascogne
Agence bancaire Arthez;16 rue La Carrère, 64370 ARTHEZ-DE-BEARN;64370;;;Crédit Agricole - Pyrenees Gascogne
Agence bancaire Artix;42 rue des ecureuils, 64170 ARTIX;64170;;;Crédit Agricole - Pyrenees Gascogne
Agence bancaire Arudy;Place du Foirail, 64260 ARUDY;64260;;;Crédit Agricole - Pyrenees Gascogne
Agence bancaire Arzacq;Place du Marcadieu, 64410 ARZACQ-ARRAZIGUET;64410;;;Crédit Agricole - Pyrenees Gascogne
Agence bancaire Auch Alsace;1 avenue Alsace, 32000 AUCH;32000;43,6487293;0,5905526;Crédit Agricole - Pyrenees Gascogne
Agence bancaire Auch Gambetta;9 rue Gambetta, 32000 AUCH;32000;43,6476432;0,5849663;Crédit Agricole - Pyrenees Gascogne
Agence bancaire Auch Pyrénées;24 avenue des Pyrénées, 32000 AUCH;32000;43,638083;0,5841531;Crédit Agricole - Pyrenees Gascogne
Agence bancaire Banque Privée Gers;252 impasse du rond-point des Justes, 32000 AUCH;32000;43,64638;0,586709;Crédit Agricole - Pyrenees Gascogne
Agence bancaire Espace Pro d'Auch;Au Malartic route d'Agen, 32000 AUCH;32000;43,685453;0,603229;Crédit Agricole - Pyrenees Gascogne
Agence bancaire Bagnères-de-Bigorre;20 allée des Coustous, 65201 BAGNERES-DE-BIGORRE;65201;;;Crédit Agricole - Pyrenees Gascogne
Agence bancaire Barcelonne-du-Gers;Place de la Garlande, 32720 BARCELONNE-DU-GERS;32720;;;Crédit Agricole - Pyrenees Gascogne
Agence bancaire Banque Privée CA Pays Basque;Pôle Haristeguy, 64100 BAYONNE;64100;43,482837;-1,490111;Crédit Agricole - Pyrenees Gascogne
Agence bancaire Bayonne Bertaco;3 rue Port Bertaco, 64100 BAYONNE;64100;43,489674;-1,4753063;Crédit Agricole - Pyrenees Gascogne
Agence bancaire Bayonne Grand Basque;90 route de Navarre, 64100 BAYONNE;64100;43,5045367;-1,4457904;Crédit Agricole - Pyrenees Gascogne
Agence bancaire Bayonne Saint-Esprit;26 place de la République, 64100 BAYONNE;64100;43,495805;-1,469344;Crédit Agricole - Pyrenees Gascogne
Agence bancaire Bayonne Thiers;21 rue Thiers, 64100 BAYONNE;64100;43,4923606;-1,4766101;Crédit Agricole - Pyrenees Gascogne
Agence bancaire Bedous;17 D834, 64490 Bedous;64490;;;Crédit Agricole - Pyrenees Gascogne
Agence bancaire Bénéjacq;Centre Commercial Super U, 64800 BENEJACQ;64800;;;Crédit Agricole - Pyrenees Gascogne
Agence bancaire Banque Privée Pays Basque;1 Place Beau Rivage, 64200 Biarritz;64200;43,47345869999999;-1,5664646;Crédit Agricole - Pyrenees Gascogne
Agence bancaire Biarritz Clémenceau;10 place Georges Clémenceau, 64200 BIARRITZ;64200;43,4821229;-1,5607348;Crédit Agricole - Pyrenees Gascogne
Agence bancaire Biarritz Kennedy;42 avenue Kennedy, 64200 BIARRITZ;64200;43,4719879;-1,5554953;Crédit Agricole - Pyrenees Gascogne
Agence bancaire Espace Pro Biarritz Beaurivage;1 place Beaurivage, 64200 BIARRITZ;64200;43,4733598;-1,5663497;Crédit Agricole - Pyrenees Gascogne
Agence bancaire Bidache;56 Rue des Jardins, 64520 BIDACHE;64520;;;Crédit Agricole - Pyrenees Gascogne
Agence bancaire Bidart Centre;4 Avenue de la Grande Plage, 64210 BIDART;64210;43,4392906;-1,590533999999934;Crédit Agricole - Pyrenees Gascogne
Agence bancaire Bidart Gaïna;Avenue de Bayonne Centre commercial Intermarché, 64210 BIDART;64210;43,447632;-1,574174;Crédit Agricole - Pyrenees Gascogne
Agence bancaire Billère Lassansaa;11 Rue Jeanne Lassansaa, 64140 BILLERE;64140;43,3028057;-0,3950885;Crédit Agricole - Pyrenees Gascogne
Agence bancaire Espace Habitat de Pau;86 route de Bayonne, 64140 BILLERE;64140;43,3056029;-0,4015985;Crédit Agricole - Pyrenees Gascogne
Agence bancaire Bizanos;19 rue George Clémenceau, 64320 BIZANOS;64320;;;Crédit Agricole - Pyrenees Gascogne
Agence bancaire Boucau;Place Semard, 64340 BOUCAU;64340;;;Crédit Agricole - Pyrenees Gascogne
Agence bancaire Cambo-les-Bains;Place du Trinquet, 64250 CAMBO-LES-BAINS;64250;;;Crédit Agricole - Pyrenees Gascogne
Agence bancaire Castelnau Magnoac;34 place Estelette, 65230 CASTELNAU-MAGNOAC;65230;;;Crédit Agricole - Pyrenees Gascogne
Agence bancaire Castéra-Verduzan;6 place du 8 juillet 1977, 32310 CASTERA-VERDUZAN;32310;;;Crédit Agricole - Pyrenees Gascogne
Agence bancaire Cauterets;14 rue de Belfort, 65110 CAUTERETS;65110;;;Crédit Agricole - Pyrenees Gascogne
Agence bancaire Cazaubon;8 boulevard des Pyrénées, 32150 CAZAUBON;32150;;;Crédit Agricole - Pyrenees Gascogne
Agence bancaire Cologne;21-23 place de la Halle, 32430 COLOGNE;32430;;;Crédit Agricole - Pyrenees Gascogne
Agence bancaire Condom Bouquerie;Boulevard Saint-Jacques, 32100 CONDOM;32100;43,9568583;0,3655041;Crédit Agricole - Pyrenees Gascogne
Agence bancaire Condom Saint-Pierre;Place Saint-Pierre, 32100 CONDOM;32100;43,9576;0,373101;Crédit Agricole - Pyrenees Gascogne
Agence bancaire Eauze;Boulevard Saint-Blancat, 32800 EAUZE;32800;;;Crédit Agricole - Pyrenees Gascogne
Agence bancaire Espelette;395 Route Karrika Nagusia, 64250 ESPELETTE;64250;;;Crédit Agricole - Pyrenees Gascogne
Agence bancaire Fleurance;11 place de la République, 32500 FLEURANCE;32500;;;Crédit Agricole - Pyrenees Gascogne
Agence bancaire Gan;Avenue Henri IV, 64290 GAN;64290;;;Crédit Agricole - Pyrenees Gascogne
Agence bancaire Garlin;1 cours de la République, 64330 GARLIN;64330;;;Crédit Agricole - Pyrenees Gascogne
Agence bancaire Gimont;place du marché, 32200 Gimont;32200;;;Crédit Agricole - Pyrenees Gascogne
Agence bancaire Gondrin;45 Avenue Jean Moulin, 32330 Gondrin;32330;;;Crédit Agricole - Pyrenees Gascogne
Agence bancaire Hasparren;Rue du Docteur Lissar, 64240 HASPARREN;64240;;;Crédit Agricole - Pyrenees Gascogne
Agence bancaire Hendaya;3 Rue du Port, 64700 Hendaye;64700;43,3576617;-1,774754;Crédit Agricole - Pyrenees Gascogne
Agence bancaire Hendaye;3 rue du Port, 64700 HENDAYE;64700;43,3577333;-1,7747347;Crédit Agricole - Pyrenees Gascogne
Agence bancaire Idron;32 route de Tarbes, 64320 IDRON;64320;;;Crédit Agricole - Pyrenees Gascogne
Agence bancaire L'Isle-Jourdain;2 rue de la République, 32600 ISLE-JOURDAIN;32600;;;Crédit Agricole - Pyrenees Gascogne
Agence bancaire Jegun;Grande rue, 32360 JEGUN;32360;;;Crédit Agricole - Pyrenees Gascogne
Agence bancaire Jurançon;13 Avenue Henri IV, 64110 Jurançon;64110;;;Crédit Agricole - Pyrenees Gascogne
Agence bancaire Lannemezan;2 rue Victor Hugo, 65300 LANNEMEZAN;65300;;;Crédit Agricole - Pyrenees Gascogne
Agence bancaire Laruns;Place de la Mairie, 64440 LARUNS;64440;;;Crédit Agricole - Pyrenees Gascogne
Agence bancaire Lectoure;144 rue Nationale, 32700 LECTOURE;32700;;;Crédit Agricole - Pyrenees Gascogne
Agence bancaire Lembeye;18 place Marcadieu, 64350 LEMBEYE;64350;;;Crédit Agricole - Pyrenees Gascogne
Agence bancaire Lescar Lescourre;23 rue Sainte-Catherine, 64230 LESCAR;64230;;;Crédit Agricole - Pyrenees Gascogne
Agence bancaire Lourdes Centre;11 place Champ Commun, 65100 LOURDES;65100;43,0936063;-0,0461029;Crédit Agricole - Pyrenees Gascogne
Agence bancaire Lourdes Nord;21 avenue Alexandre Marqui, 65100 LOURDES;65100;43,1028324;-0,0431983;Crédit Agricole - Pyrenees Gascogne
Agence bancaire Loures Barousse;Route Nationale, 65370 LOURES-BAROUSSE;65370;;;Crédit Agricole - Pyrenees Gascogne
Agence bancaire Luz-Saint-Sauveur;18 avenue Saint-Sauveur, 65120 LUZ-SAINT-SAUVEUR;65120;;;Crédit Agricole - Pyrenees Gascogne
Agence bancaire Marciac;Place Hôtel de Ville, 32230 MARCIAC;32230;;;Crédit Agricole - Pyrenees Gascogne
Agence bancaire Masseube;8 rue du Général De Gaulle, 32140 MASSEUBE;32140;;;Crédit Agricole - Pyrenees Gascogne
Agence bancaire Maubourguet;17 allée du Foirail, 65700 MAUBOURGUET;65700;;;Crédit Agricole - Pyrenees Gascogne
Agence bancaire Mauléon;Place Croix Blanche, 64130 MAULEON SOULE;64130;;;Crédit Agricole - Pyrenees Gascogne
Agence bancaire Mauvezin;Place de la Libération, 32120 MAUVEZIN;32120;;;Crédit Agricole - Pyrenees Gascogne
Agence bancaire Miélan;1 place des Promenades, 32170 MIELAN;32170;;;Crédit Agricole - Pyrenees Gascogne
Agence bancaire Miradoux;Place Du Foirail, 32340 MIRADOUX;32340;;;Crédit Agricole - Pyrenees Gascogne
Agence bancaire Mirande;18 Rue de Rohan, 32300 MIRANDE;32300;;;Crédit Agricole - Pyrenees Gascogne
Agence bancaire Monein;4 place Henri Lacabanne, 64360 MONEIN;64360;;;Crédit Agricole - Pyrenees Gascogne
Agence bancaire Montréal;6 rue Tenareze, 32250 MONTREAL-DU-GERS;32250;;;Crédit Agricole - Pyrenees Gascogne
Agence bancaire Morlaàs;Rue Bourg Mayou, 64160 MORLAAS;64160;;;Crédit Agricole - Pyrenees Gascogne
Agence bancaire Mourenx;18-20 place Pierre et Marie Curie, 64150 MOURENX;64150;;;Crédit Agricole - Pyrenees Gascogne
Agence bancaire Navarrenx;Place des Armes, 64190 NAVARRENX;64190;;;Crédit Agricole - Pyrenees Gascogne
Agence bancaire Nay;23 rue Georges Clémenceau, 64800 NAY;64800;;;Crédit Agricole - Pyrenees Gascogne
Agence bancaire Nogaro;8 place des Capucins, 32110 NOGARO;32110;;;Crédit Agricole - Pyrenees Gascogne
Agence bancaire Oloron Légugnon;Avenue Alexander Fleming, 64400 OLORON-SAINTE-MARIE;64400;43,1972417;-0,6177528;Crédit Agricole - Pyrenees Gascogne
Agence bancaire Oloron Oustalots;Place Oustalots, 64400 OLORON-SAINTE-MARIE;64400;43,186978;-0,6181829;Crédit Agricole - Pyrenees Gascogne
Agence bancaire Orthez Castetarbe;Route de Bayonne, 64300 ORTHEZ;64300;43,4887962;-0,80448;Crédit Agricole - Pyrenees Gascogne
Agence bancaire Orthez Saint-Pierre;22 place Saint-Pierre, 64300 ORTHEZ;64300;43,491323;-0,775372;Crédit Agricole - Pyrenees Gascogne
Agence bancaire Banque Privée CA Béarn;36 Avenue Louis Sallenave, 64000 Pau;64000;43,314826;-0,3609711;Crédit Agricole - Pyrenees Gascogne
Agence bancaire Banque Privée Pau Béarn;8 Place Georges Clemenceau, 64000 Pau;64000;43,29575819999999;-0,3678517;Crédit Agricole - Pyrenees Gascogne
Agence bancaire Espace Pro de Pau;36 avenue Louis Sallenave, 64000 PAU;64000;43,3148686;-0,3611464;Crédit Agricole - Pyrenees Gascogne
Agence bancaire Pau Camou;28 Cours Camou, 64000 Pau;64000;43,3003769;-0,3770976;Crédit Agricole - Pyrenees Gascogne
Agence bancaire Pau Carnot;31 rue Carnot, 64000 PAU;64000;43,3014874;-0,369306;Crédit Agricole - Pyrenees Gascogne
Agence bancaire Pau Condorcet;36 avenue Louis Sallenave, 64000 PAU;64000;43,314901;-0,361045;Crédit Agricole - Pyrenees Gascogne
Agence bancaire Pau Hameau;157 boulevard de la Paix, 64000 PAU;64000;43,3187851;-0,34650385;Crédit Agricole - Pyrenees Gascogne
Agence bancaire Pau Lassence;9 rue Alfred de Lassence, 64000 PAU;64000;43,295005;-0,368968;Crédit Agricole - Pyrenees Gascogne
Agence bancaire Pau Mermoz;212 avenue Jean Mermoz, 64000 PAU;64000;43,3192953;-0,3785382;Crédit Agricole - Pyrenees Gascogne
Agence bancaire Pau Trespoey;82 avenue du Maréchal Leclerc, 64000 PAU;64000;43,3029999;-0,35166979;Crédit Agricole - Pyrenees Gascogne
Agence bancaire Plaisance;4 place du 11 novembre, 32160 PLAISANCE-DU-GERS;32160;;;Crédit Agricole - Pyrenees Gascogne
Agence bancaire Pontacq;18 rue Henri IV, 64530 PONTACQ;64530;;;Crédit Agricole - Pyrenees Gascogne
Agence bancaire Puyoô;Route de Bayonne, 64270 PUYOO;64270;;;Crédit Agricole - Pyrenees Gascogne
Agence bancaire Rabastens-de-Bigorre;35 place Centrale, 65140 RABASTENS-DE-BIGORRE;65140;;;Crédit Agricole - Pyrenees Gascogne
Agence bancaire Riscle;4 rue Lebrere, 32400 RISCLE;32400;;;Crédit Agricole - Pyrenees Gascogne
Agence bancaire Saint-Clar;Place de la Mairie, 32380 SAINT-CLAR;32380;;;Crédit Agricole - Pyrenees Gascogne
Agence bancaire Saint-Etienne-de-Baïgorry;8 gaztenerrekako bidea, 64430 SAINT-ETIENNE-DE-BAIGORRY;64430;;;Crédit Agricole - Pyrenees Gascogne
Agence bancaire Saint-Jean-de-Luz Espace Pro;22 rue Axular, 64500 SAINT-JEAN-DE-LUZ;64500;43,384898;-1,654227;Crédit Agricole - Pyrenees Gascogne
Agence bancaire Saint-Jean-de-Luz Halles;22 rue Maréchal Harispe, 64500 SAINT-JEAN-DE-LUZ;64500;43,3872336;-1,6608017;Crédit Agricole - Pyrenees Gascogne
Agence bancaire St Jean de Luz Chantaco;39 rue Axular, 64500 SAINT-JEAN-DE-LUZ;64500;43,3848169;-1,6534633;Crédit Agricole - Pyrenees Gascogne
Agence bancaire Saint-Jean-Pied-de-Port;9 Avenue Renaud, 64220 Saint-Jean-Pied-de-Port;64220;;;Crédit Agricole - Pyrenees Gascogne
Agence bancaire Saint-Lary-Soulan;1 allée Corps Franc Pommiès, 65170 SAINT-LARY;65170;;;Crédit Agricole - Pyrenees Gascogne
Agence bancaire Saint-Palais;6 avenue Garris, 64120 SAINT-PALAIS;64120;;;Crédit Agricole - Pyrenees Gascogne
Agence bancaire Saint-Pée-sur-Nivelle;Rue d'Arretxea, 64310 SAINT-PEE-SUR-NIVELLE;64310;;;Crédit Agricole - Pyrenees Gascogne
Agence bancaire Bayonne Ametzondo;Centre Commercial Ametzondo 2-4 route du Portou, 64990 SAINT-PIERRE-D'IRUBE;64990;43,481178;-1,443185;Crédit Agricole - Pyrenees Gascogne
Agence bancaire Saint-Pierre-d'Irube;25 Avenue de la Basse Navarre, 64990 Saint-Pierre-d'Irube;64990;43,47362649999999;-1,4518862;Crédit Agricole - Pyrenees Gascogne
Agence bancaire Salies de Béarn;Place Bayaa, 64270 SALIES-DE-BEARN;64270;;;Crédit Agricole - Pyrenees Gascogne
Agence bancaire Samatan;12 place du Marché, 32130 SAMATAN;32130;;;Crédit Agricole - Pyrenees Gascogne
Agence bancaire Saramon;Route de Gimont, 32450 SARAMON;32450;;;Crédit Agricole - Pyrenees Gascogne
Agence bancaire Sauveterre;8 place Royale, 64390 SAUVETERRE-DE-BEARN;64390;;;Crédit Agricole - Pyrenees Gascogne
Agence bancaire Seissan;Place Carnot, 32260 SEISSAN;32260;;;Crédit Agricole - Pyrenees Gascogne
Agence bancaire Séméac;6 avenue François Mitterrand, 65600 SEMEAC;65600;;;Crédit Agricole - Pyrenees Gascogne
Agence bancaire Agence pour clients résidant hors dépts 64-32-65;121 Chemin de Devezes, 64121 Serres-Castet;64121;43,36994139999999;-0,3784332;Crédit Agricole - Pyrenees Gascogne
Agence bancaire Espace Affaires Spécialisées;Chemin de Devèzes, 64121 SERRES-CASTET;64121;43,370408;-0,379363;Crédit Agricole - Pyrenees Gascogne
Agence bancaire Espace Conseil Salariés;121 chemin de Devèzes, 64121 SERRES-CASTET;64121;43,369531;-0,378708;Crédit Agricole - Pyrenees Gascogne
Agence bancaire PRO DIRECT;121 Chemin de Devezes, 64121 Serres-Castet;64121;43,369531;-0,378708;Crédit Agricole - Pyrenees Gascogne
Agence bancaire Serres-Castet;Place des 4 saisons, 64121 SERRES-CASTET;64121;43,3774;-0,378823;Crédit Agricole - Pyrenees Gascogne
Agence bancaire Soumoulou;1 allée des Platanes, 64420 SOUMOULOU;64420;;;Crédit Agricole - Pyrenees Gascogne
Agence bancaire Banque Privée Tarbes;11 Boulevard du Président Kennedy, 65003 Tarbes;65003;43,232951;0,078082;Crédit Agricole - Pyrenees Gascogne
Agence bancaire Espace Pro de Tarbes;11 Boulevard du Président Kennedy, 65000 Tarbes;65000;43,220034;0,083912;Crédit Agricole - Pyrenees Gascogne
Agence bancaire Tarbes Arsenal;20 Avenue des Forges, 65000 Tarbes;65000;43,240673;0,08121;Crédit Agricole - Pyrenees Gascogne
Agence bancaire Tarbes Echez;110 rue Corps Franc Pommiès, 65000 TARBES;65000;43,2370168;0,0521748;Crédit Agricole - Pyrenees Gascogne
Agence bancaire Tarbes Marcadieu;1 place Parmentier, 65000 TARBES;65000;43,2307145;0,0819161;Crédit Agricole - Pyrenees Gascogne
Agence bancaire Tarbes Pyrénées;72 avenue Aristide Briand, 65000 TARBES;65000;43,2210518;0,0607838;Crédit Agricole - Pyrenees Gascogne
Agence bancaire Tarbes Verdun;2 rue Despourrins, 65000 TARBES;65000;43,23358;0,0730514;Crédit Agricole - Pyrenees Gascogne
Agence bancaire Tardets;Place Centrale, 64470 TARDETS;64470;;;Crédit Agricole - Pyrenees Gascogne
Agence bancaire Tournay;10 place Astarac, 65190 TOURNAY;65190;;;Crédit Agricole - Pyrenees Gascogne
Agence bancaire Trie-sur-Baïse;32 rue Padouen, 65220 TRIE-SUR-BAISE;65220;;;Crédit Agricole - Pyrenees Gascogne
Agence bancaire Béhobie;46 Rue Charles Pucheu, 64122 Urrugne;64122;43,3447277;-1,7624834;Crédit Agricole - Pyrenees Gascogne
Agence bancaire Urrugne Kechiloa;Galerie Centre Leclerc route départementale 810, 64122 URRUGNE;64122;43,37435997;-1,677947044;Crédit Agricole - Pyrenees Gascogne
Agence bancaire Ustaritz;Route de Cambo, 64480 USTARITZ;64480;;;Crédit Agricole - Pyrenees Gascogne
Agence bancaire Valence-sur-Baïse;14 Grande Rue, 32310 VALENCE-SUR-BAISE;32310;;;Crédit Agricole - Pyrenees Gascogne
Agence bancaire Vic-en-Bigorre;26 boulevard Alsace, 65500 VIC-EN-BIGORRE;65500;;;Crédit Agricole - Pyrenees Gascogne
Agence bancaire Vic-Fezensac;Cours Delom, 32190 VIC-FEZENSAC;32190;;;Crédit Agricole - Pyrenees Gascogne
