nom;adresse;code_postal;latitude;longitude;region_source
Agence bancaire AGENCE DE VALS LES BAINS;12 rue Auguste Clément, 07600 AGENCE DE VALS LES BAINS;07600;;;Crédit Agricole - Sud Rhone Alpes
Relais CA Boucherie Charcuterie Valla - ALBA-LA-ROMAINE;26 Rue du Code, 07400 ALBA-LA-ROMAINE;07400;44,5549837;4,5983899;Crédit Agricole - Sud Rhone Alpes
Relais CA Tabac - Lobidel Christian - ALBA-LA-ROMAINE;Rue du Barry, 07400 ALBA-LA-ROMAINE;07400;44,5549161;4,5981576;Crédit Agricole - Sud Rhone Alpes
Agence bancaire AGENCE D'ALBOUSSIERE;Place de la Mairie, 07440 ALBOUSSIERE;07440;;;Crédit Agricole - Sud Rhone Alpes
Relais CA Tabac Presse - Muller Sandra - ALLEMOND;335 Route des Fonderies Royales, 38114 ALLEMOND;38114;45,127913;6,038149;Crédit Agricole - Sud Rhone Alpes
Agence bancaire AGENCE D'ALLEVARD;7 Boulevard Jules Ferry, 38580 ALLEVARD;38580;;;Crédit Agricole - Sud Rhone Alpes
Relais CA Le Tabac d'Allex - ALLEX;22 Route de Crest, 26400 ALLEX;26400;44,7619927;4,9200004;Crédit Agricole - Sud Rhone Alpes
Agence bancaire AGENCE DE L'ALPE D'HUEZ;Avenue de la Poste, 38750 ALPE D'HUEZ;38750;;;Crédit Agricole - Sud Rhone Alpes
Relais CA L'Epicerie de Mélanie - ANCONE;Rue Bernard Goujon, 26200 ANCONE;26200;44,5792921;4,7242669;Crédit Agricole - Sud Rhone Alpes
Agence bancaire AGENCE D'ANDANCE;58 Route de Saint-Joseph, 07340 ANDANCE;07340;;;Crédit Agricole - Sud Rhone Alpes
Agence bancaire AGENCE D'ANNEYRON;9, Place Rambaud, 26140 ANNEYRON;26140;;;Crédit Agricole - Sud Rhone Alpes
Relais CA Le Petit Commerce - ANTHON;2 Rue du Port, 38280 ANTHON;38280;45,791086;5,171453;Crédit Agricole - Sud Rhone Alpes
Relais CA Tabac d'y Sye - AOUSTE-SUR-SYE;28 Grande Rue, 26400 AOUSTE-SUR-SYE;26400;44,7155406;5,0573799;Crédit Agricole - Sud Rhone Alpes
Relais CA Chocolaterie - Dominique Riou - ARCENS;La Gare, 07310 ARCENS;07310;44,900015;4,326087;Crédit Agricole - Sud Rhone Alpes
Relais CA Le Bar Des Choix - ARLEBOSC;200 Rte de Lamastre, 07410 ARLEBOSC;07410;44,93438;4,48781;Crédit Agricole - Sud Rhone Alpes
Agence bancaire AGENCE D AUBENAS-MOULON;Le Moulon Route de Montelimar, 07200 AUBENAS;07200;44,615362;4,401226;Crédit Agricole - Sud Rhone Alpes
Agence bancaire AGENCE D AUBENAS-VILLE;18 bd de Vernon, 07200 AUBENAS;07200;44,620135;4,387678;Crédit Agricole - Sud Rhone Alpes
Relais CA Boulangerie - Modena - AUBRES;Le Village, 26110 AUBRES;26110;44,376965;5,170078999999999;Crédit Agricole - Sud Rhone Alpes
Relais CA Alimentation 8 à 8 - AURIS;Les Orgières, 38142 AURIS;38142;45,0564701;6,0795344;Crédit Agricole - Sud Rhone Alpes
Agence bancaire AGENCE D'AUTRANS;52 rue du Vercors - Immeuble Huilier Village, 38880 AUTRANS;38880;;;Crédit Agricole - Sud Rhone Alpes
Relais CA Tabac Les Meaudraises - AUTRANS MEAUDRE EN VERCORS;Le Village, 38880 AUTRANS MEAUDRE EN VERCORS;38880;45,1746213;5,5428439;Crédit Agricole - Sud Rhone Alpes
Relais CA Tabac Epicerie - Duburque Sebastien - BAIX;311 Avenue Jean Moulin, 07210 BAIX;07210;44,7114163;4,764861499999999;Crédit Agricole - Sud Rhone Alpes
Relais CA Au Petit Bar A Bières - BARBIERES;Grande Rue, 26300 BARBIERES;26300;44,9550177;5,1423135;Crédit Agricole - Sud Rhone Alpes
Relais CA L'Esteban - BARRAUX;241 Grande Rue, 38530 BARRAUX;38530;45,4349952;5,978332900000001;Crédit Agricole - Sud Rhone Alpes
Relais CA Tabac de l'Eyrieux - BEAUCHASTEL;22 Route nationale, 07800 BEAUCHASTEL;07800;44,8259027;4,8023523;Crédit Agricole - Sud Rhone Alpes
Relais CA Restaurant - Le Beaufortois - BEAUFORT;3 Chemin du Village, 38270 BEAUFORT;38270;45,326021;5,12115;Crédit Agricole - Sud Rhone Alpes
Agence bancaire AGENCE DE BEAUMONT LES VALENCE;3 rue du Billeton, 26760 BEAUMONT LES VALENCE;26760;;;Crédit Agricole - Sud Rhone Alpes
Relais CA Boulangerie - Ô Délices - BEAUMONT MONTEUX;Le Village, 26600 BEAUMONT MONTEUX;26600;45,018429;4,921499;Crédit Agricole - Sud Rhone Alpes
Agence bancaire AGENCE DE BEAUREPAIRE;18, Place Yves Pagneux, 38270 BEAUREPAIRE;38270;;;Crédit Agricole - Sud Rhone Alpes
Relais CA Auberge L'Ecole - BELSENTES;305 Grand Rue, 07160 BELSENTES;07160;44,918473;4,508538;Crédit Agricole - Sud Rhone Alpes
Relais CA Restaurant - L'Auberge Dauphinoise - BONNEFAMILLE;Le Village, 38090 BONNEFAMILLE;38090;45,59681364035772;5,130648540478133;Crédit Agricole - Sud Rhone Alpes
Relais CA Au Panier Gourmand - BOUCHET;1 place des Commerces, 26790 BOUCHET;26790;44,29924870682326;4,87414453478985;Crédit Agricole - Sud Rhone Alpes
Agence bancaire AGENCE DE BOURDEAUX;Route de Crest, 26460 BOURDEAUX;26460;;;Crédit Agricole - Sud Rhone Alpes
Agence bancaire AGENCE DE BOURG D'OISANS;Avenue de la République, 38520 BOURG D'OISANS;38520;;;Crédit Agricole - Sud Rhone Alpes
Agence bancaire AGENCE DE BOURG ST ANDEOL;4, 5 Place du Champ de Mars, 07700 BOURG ST ANDEOL;07700;;;Crédit Agricole - Sud Rhone Alpes
Agence bancaire AGENCE DE BOURG-DE-PEAGE;9, allée des Alpes, 26300 BOURG-DE-PEAGE;26300;;;Crédit Agricole - Sud Rhone Alpes
Agence bancaire AGENCE DE BOURG-LES-VALENCE;3, place des rencontres, 26500 BOURG-LES-VALENCE;26500;;;Crédit Agricole - Sud Rhone Alpes
Agence bancaire AGENCE DE BOURGOIN LA FOLATIERE;6, Esplanade du Centre Folatière, 38300 BOURGOIN-JALLIEU;38300;45,588509;5,280309;Crédit Agricole - Sud Rhone Alpes
Agence bancaire AGENCE DE BOURGOIN REPUBLIQUE;60, Rue de la République, 38300 BOURGOIN-JALLIEU;38300;45,5851842;5,2741123;Crédit Agricole - Sud Rhone Alpes
Agence bancaire AGENCE DE BOURGOIN-LA-GRIVE;1 rue des Castors - Parc de la Grive, 38300 BOURGOIN-JALLIEU;38300;45,6009928;5,234459;Crédit Agricole - Sud Rhone Alpes
Agence bancaire CENTRE D'AFFAIRES BOURGOIN LA GRIVE (CA SRA);1 rue des Castors - Parc de la Grive, 38300 BOURGOIN-JALLIEU;38300;45,59949;5,235205;Crédit Agricole - Sud Rhone Alpes
Agence bancaire AGENCE DE BUIS-LES-BARONNIES;17, boulevard Aristide-Briand, 26170 BUIS-LES-BARONNIES;26170;;;Crédit Agricole - Sud Rhone Alpes
Relais CA Tabac Bar Café - Cuer Caroline - BURZET;Grand Rue, 07450 BURZET;07450;44,73981200000001;4,244117999999999;Crédit Agricole - Sud Rhone Alpes
Agence bancaire AGENCE DE CHABEUIL;1 avenue du 11 novembre, 26120 CHABEUIL;26120;;;Crédit Agricole - Sud Rhone Alpes
Relais CA Vival - Micoud - CHABONS;82 Route de Grenoble, 38690 CHABONS;38690;45,4431966;5,422782499999999;Crédit Agricole - Sud Rhone Alpes
Relais CA Café de la Place - CHAMAGNIEU;Place de l'église, 38460 CHAMAGNIEU;38460;45,680068;5,168196;Crédit Agricole - Sud Rhone Alpes
Relais CA Supérette Champireoise - CHAMPIER;82 Allée des Acacias, 38260 CHAMPIER;38260;45,45536851587666;5,291474115617174;Crédit Agricole - Sud Rhone Alpes
Agence bancaire AGENCE DE CHAPONNAY;Rue Centrale, 69970 CHAPONNAY;69970;;;Crédit Agricole - Sud Rhone Alpes
Relais CA Tabac Presse - Andrée Chatain - CHARANTONNAY;Avenue du Dauphiné, 38790 CHARANTONNAY;38790;45,5349028;5,1135366;Crédit Agricole - Sud Rhone Alpes
Relais CA Tabac du Lac - CHARAVINES;Rue des Bains, 38850 CHARAVINES;38850;45,4331899;5,514948;Crédit Agricole - Sud Rhone Alpes
Agence bancaire AGENCE DE CHARMES SUR RHONE;Place Charles de Gaulle, 07800 CHARMES SUR RHONE;07800;;;Crédit Agricole - Sud Rhone Alpes
Relais CA PROXI - CHAROLS;40 Place Carrovolis, 26450 CHAROLS;26450;44,5915969;4,9539498;Crédit Agricole - Sud Rhone Alpes
Relais CA Comptoir de Charpey - CHARPEY;235 Route de Chabeuil, 26300 CHARPEY;26300;44,941167;5,087987;Crédit Agricole - Sud Rhone Alpes
Agence bancaire AGENCE DE CHARVIEU CHAVAGNEUX;2 Rue Charles Aznavour, 38230 CHARVIEU-CHAVAGNEUX;38230;;;Crédit Agricole - Sud Rhone Alpes
Agence bancaire CHASSIEU - CENTRE D'AFF. ENTR. ISERE LYO;20, Rue des Frères Montgolfier, 69680 CHASSIEU;69680;;;Crédit Agricole - Sud Rhone Alpes
Agence bancaire AGENCE DE CHATEAUNEUF SUR ISERE;4 avenue de Valence, 26300 CHATEAUNEUF SUR ISERE;26300;;;Crédit Agricole - Sud Rhone Alpes
Relais CA 8 à Huit - CHATILLON EN DIOIS;Rue du Reclus, 26410 CHATILLON EN DIOIS;26410;44,694476;5,48793;Crédit Agricole - Sud Rhone Alpes
"Relais CA Tabac Presse """"Chez La B"""" - CHATILLON SAINT JEAN";Zone d'activité les Flottes, 26750 CHATILLON SAINT JEAN;26750;45,081829;5,126713;Crédit Agricole - Sud Rhone Alpes
Relais CA PROXI - Bello - CHATONNAY;2 Rue des Tisserands, 38440 CHATONNAY;38440;45,4864809;5,2096828;Crédit Agricole - Sud Rhone Alpes
Relais CA Tabac - Le QG - CHIMILIN;8 chemin de la Vie, 38490 CHIMILIN;38490;45,57734810024183;5,599944413488747;Crédit Agricole - Sud Rhone Alpes
Agence bancaire AGENCE DE CHOMERAC;Route de Privas, 07210 CHOMERAC;07210;;;Crédit Agricole - Sud Rhone Alpes
Relais CA Visites Nature Vercors (VNV) - CHORANCHE;Site de Choranche, 38680 CHORANCHE;38680;45,41855080860157;5,34657424399418;Crédit Agricole - Sud Rhone Alpes
Relais CA Restaurant - Le Tempo - CHUZELLES;Impasse du Belvédère, 38200 CHUZELLES;38200;45,5858463;4,87826;Crédit Agricole - Sud Rhone Alpes
Agence bancaire AGENCE DE CLAIX - PALLADIUM;Centre Commercial du Grand Rochefort, 38640 CLAIX;38640;;;Crédit Agricole - Sud Rhone Alpes
Relais CA Comptoir De Campagne De Claveyson - CLAVEYSON;154 Route du Pilon, 26240 CLAVEYSON;26240;45,1797076;4,9299629;Crédit Agricole - Sud Rhone Alpes
Agence bancaire AGENCE DE CLEON D'ANDRAN;450 boulevard de provence, 26450 CLEON D'ANDRAN;26450;;;Crédit Agricole - Sud Rhone Alpes
Relais CA Aux Delices Du Palais - CLERIEUX;70 Rue de la Vallée, 26260 CLERIEUX;26260;45,0748045;4,9585624;Crédit Agricole - Sud Rhone Alpes
Relais CA Boucherie Valla - COLOMBIER LE VIEUX;Le Village, 07410 COLOMBIER LE VIEUX;07410;45,065699;4,694243;Crédit Agricole - Sud Rhone Alpes
Relais CA Bar Tabac - Daru Regis - COLONBIER-LE-JEUNE;4 Place des Commerces, 07270 COLONBIER-LE-JEUNE;07270;45,0105637;4,7021639;Crédit Agricole - Sud Rhone Alpes
Relais CA Bar - La Cremaillere - CONDORCET;2250 Route des Caritat, 26110 CONDORCET;26110;44,4071788;5,200704399999999;Crédit Agricole - Sud Rhone Alpes
Agence bancaire AGENCE DE CORBAS;Le Costel Avenue Salvador Allende, 69960 CORBAS;69960;;;Crédit Agricole - Sud Rhone Alpes
Relais CA Les Délices de Margot - CORRENCON EN VERCORS;Les Rambins, 38250 CORRENCON EN VERCORS;38250;45,029311;5,524402;Crédit Agricole - Sud Rhone Alpes
Agence bancaire AGENCE DE COUBLEVIE;Résidence les Mimosas 272 route de St Jean, 38500 COUBLEVIE;38500;;;Crédit Agricole - Sud Rhone Alpes
Agence bancaire AGENCE DE COUCOURON;114 Rue de la Ruralité, 07470 Coucouron;07470;;;Crédit Agricole - Sud Rhone Alpes
Relais CA Tabac Presse - Fabien Miot - COUR ET BUIS;5 Place Marchande, 38122 COUR ET BUIS;38122;45,440599;5,005246;Crédit Agricole - Sud Rhone Alpes
Relais CA Boucherie Charcuterie - Pascal Soton - CREPOL;Le Village, 26350 CREPOL;26350;45,17396300000001;5,071073999999999;Crédit Agricole - Sud Rhone Alpes
Agence bancaire AGENCE DE CREST;Avenue Georges Clemenceau, 26400 CREST;26400;;;Crédit Agricole - Sud Rhone Alpes
Relais CA Tabac Presse - Lilipuce - CRETS EN BELLEDONNE;37 Place de l'Hôtel de ville, 38830 CRETS EN BELLEDONNE;38830;45,3743261;6,0466846;Crédit Agricole - Sud Rhone Alpes
Agence bancaire AGENCE DE CREMIEU;162 Cours Baron Raverat, 38460 Crémieu;38460;;;Crédit Agricole - Sud Rhone Alpes
Agence bancaire AGENCE DE CROLLES;Place A.Berthet, 38920 CROLLES;38920;45,2859083;5,88489533;Crédit Agricole - Sud Rhone Alpes
Agence bancaire AGENCE DE CROLLES BELLEDONNE;1709 rue de Belledonne, 38920 CROLLES;38920;45,272166;5,893154;Crédit Agricole - Sud Rhone Alpes
Relais CA Boucherie Charcuterie - Moulin - CROS DE GEORAND;Cros de Géorand, 07510 CROS DE GEORAND;07510;44,793443;4,125233;Crédit Agricole - Sud Rhone Alpes
Agence bancaire AGENCE DE CRUAS;4 Place de la Liberté, 07350 CRUAS;07350;;;Crédit Agricole - Sud Rhone Alpes
Relais CA PROXI - Félix David - DESAIGNES;Le Village, 07570 DESAIGNES;07570;44,995272;4,516512;Crédit Agricole - Sud Rhone Alpes
Relais CA Restaurant Tabac - Au Bon Air - DEVESSET;360 Grand Rue, 07320 DEVESSET;07320;45,067721;4,387199;Crédit Agricole - Sud Rhone Alpes
Agence bancaire AGENCE DE DIE;Place de la République, 26150 DIE;26150;;;Crédit Agricole - Sud Rhone Alpes
Agence bancaire de DIEULEFIT;Rue Malautière, 26220 DIEULEFIT;26220;;;Crédit Agricole - Sud Rhone Alpes
Relais CA Tabac - Le Chalet - DOLOMIEU;3 Place Déodat Gratet de Dolomieu, 38110 DOLOMIEU;38110;45,6111243;5,4985037;Crédit Agricole - Sud Rhone Alpes
Agence bancaire AGENCE DE DOMENE;2 Rue Marius Charles, 38420 Domène;38420;;;Crédit Agricole - Sud Rhone Alpes
Agence bancaire AGENCE DE DONZERE;13 place du champ de mars, 26290 DONZERE;26290;;;Crédit Agricole - Sud Rhone Alpes
Agence bancaire AGENCE D'ECHIROLLES;36, avenue du 8 mai 1945, 38130 ECHIROLLES;38130;;;Crédit Agricole - Sud Rhone Alpes
Relais CA Huit A Huit - EMPURANY;Le Village, 07270 EMPURANY;07270;45,023847;4,608582999999999;Crédit Agricole - Sud Rhone Alpes
Agence bancaire AGENCE D'ETOILE;8 Place de la République, 26800 ETOILE SUR RHONE;26800;;;Crédit Agricole - Sud Rhone Alpes
Agence bancaire AGENCE D'EYBENS;108, Avenue Jean-Jaurès, 38320 EYBENS;38320;;;Crédit Agricole - Sud Rhone Alpes
Relais CA Les 3 Sens - EYZIN PINET;22 Rue du Stade, 38780 EYZIN PINET;38780;45,4739364;4,9995292;Crédit Agricole - Sud Rhone Alpes
Relais CA Bar - L'un Passe - FARAMANS;36 Rue Centrale, 38260 FARAMANS;38260;45,3933273;5,1670912;Crédit Agricole - Sud Rhone Alpes
Relais CA Tabac - La Causette - FLAVIAC;482 Rue du 11 Novembre 1918, 07000 FLAVIAC;07000;44,746374;4,673406;Crédit Agricole - Sud Rhone Alpes
Agence bancaire AGENCE DE FONTAINE;116, Avenue du Vercors, 38600 FONTAINE;38600;;;Crédit Agricole - Sud Rhone Alpes
Relais CA Auberge de Freyssenet - FREYSSENET;Le Village, 07000 FREYSSENET;07000;44,682919;4,5409689;Crédit Agricole - Sud Rhone Alpes
Agence bancaire AGENCE DE GENAS;12, Rue de la République, 69740 GENAS;69740;;;Crédit Agricole - Sud Rhone Alpes
Relais CA Bar Tabac de Génissieux - GENISSIEUX;480 Rue Frédéric Penelon, 26750 GENISSIEUX;26750;45,0802663;5,0851744;Crédit Agricole - Sud Rhone Alpes
Agence bancaire AGENCE DE GIERES;16, Grand' Rue, 38610 GIERES;38610;;;Crédit Agricole - Sud Rhone Alpes
Relais CA PROXI - Epicerie de Goncelin - GONCELIN;47 Avenue des Tirignons, 38570 GONCELIN;38570;45,3427764;5,977671700000001;Crédit Agricole - Sud Rhone Alpes
Relais CA Café - Le Panorama - GRENAY;8 Grande place, 38540 GRENAY;38540;45,6635677;5,0812911;Crédit Agricole - Sud Rhone Alpes
Agence en ligne L'AGENCE DIRECTE;12 Place de la Resistance, 38000 Grenoble;38000;45,2053613;5,700355699999999;Crédit Agricole - Sud Rhone Alpes
Agence bancaire AGENCE DE GRENOBLE BERRIAT;103, Cours Berriat, 38000 GRENOBLE;38000;45,18751167265901;5,708084106445312;Crédit Agricole - Sud Rhone Alpes
Agence bancaire AGENCE DE GRENOBLE CHAMPIONNET;2, Rue Turenne, 38000 GRENOBLE;38000;45,1850768;5,72224617;Crédit Agricole - Sud Rhone Alpes
Agence bancaire AGENCE DE GRENOBLE EAUX CLAIRES;63, Rue des Eaux-Claires, 38100 GRENOBLE;38100;45,1742492;5,7073112;Crédit Agricole - Sud Rhone Alpes
Agence bancaire AGENCE DE GRENOBLE ILE VERTE;19, Avenue Maréchal-RANDON, 38000 GRENOBLE;38000;45,1980443;5,7378102;Crédit Agricole - Sud Rhone Alpes
Agence bancaire AGENCE DE GRENOBLE LE STORE;5 Rue de la République, 38000 GRENOBLE;38000;45,1909409;5,7284919;Crédit Agricole - Sud Rhone Alpes
Agence bancaire AGENCE DE GRENOBLE LESDIGUIERES;6, Rue Lesdiguières, 38000 GRENOBLE;38000;45,1881743;5,7301707;Crédit Agricole - Sud Rhone Alpes
Agence bancaire AGENCE DE GRENOBLE MALHERBE;47 avenue Marcelin BERTHELOT, 38100 GRENOBLE;38100;45,1708216;5,7320669;Crédit Agricole - Sud Rhone Alpes
Agence bancaire AGENCE DE GRENOBLE PRESQU'ÎLE;CA PARTNERS, 6 Place de la Résistance, 38000 GRENOBLE;38000;45,2055094;5,6982301;Crédit Agricole - Sud Rhone Alpes
Agence bancaire AGENCE DE GRENOBLE RIVET;1 place Gustave Rivet, 38000 GRENOBLE;38000;45,182118;5,728315;Crédit Agricole - Sud Rhone Alpes
Agence bancaire AGENCE DE GRENOBLE VALLIER;2, Cours de la Libération, 38100 GRENOBLE;38100;45,1801094;5,7162314;Crédit Agricole - Sud Rhone Alpes
Agence bancaire AGENCE DE GRENOBLE VALMY;19 rue Jules Flandrin, 38100 GRENOBLE;38100;45,1869158;5,7447611;Crédit Agricole - Sud Rhone Alpes
Agence bancaire Centre de Service Pro-Agri Grenoble;12 Place de la Resistance, 38000 Grenoble;38000;45,2059315;5,7003759;Crédit Agricole - Sud Rhone Alpes
Agence bancaire GRENOBLE - AGENCE PROMOTION IMMOBILIERE;CA PARTNERS, 8 place de la Résistance, 38000 GRENOBLE;38000;45,2053613;5,70035570000005;Crédit Agricole - Sud Rhone Alpes
Agence bancaire GRENOBLE - CENTRE D'AFF. ENTR. SUD ISERE;CA PARTNERS, 8 place de la Résistance, 38000 GRENOBLE;38000;45,2053613;5,70035570000005;Crédit Agricole - Sud Rhone Alpes
Agence bancaire GRENOBLE-AGENCE COLLECTIVITES PUBLIQUES;CA PARTNERS, 8 Place de la résistance, 38000 GRENOBLE;38000;45,2053613;5,70035570000005;Crédit Agricole - Sud Rhone Alpes
Agence bancaire L'agence 100% en ligne;12 Place de la Resistance, 38000 Grenoble;38000;45,206122;5,700033899999999;Crédit Agricole - Sud Rhone Alpes
Relais CA Sport Evasion - GRESSE-EN-VERCORS;1898 Route du Grand-Veymont, 38650 GRESSE-EN-VERCORS;38650;44,8937102;5,548973;Crédit Agricole - Sud Rhone Alpes
Agence bancaire AGENCE DE GRIGNAN;2 Rue Sous Les Remparts, 26230 GRIGNAN;26230;;;Crédit Agricole - Sud Rhone Alpes
Relais CA Station Center 111 - GROSPIERRES;Quartier de la Gare, 07120 GROSPIERRES;07120;44,4063605891906;4,272969675663935;Crédit Agricole - Sud Rhone Alpes
Agence bancaire AGENCE DE GUILHERAND GRANGES;537, Avenue de la République, 07500 GUILHERAND GRANGES;07500;;;Crédit Agricole - Sud Rhone Alpes
Agence bancaire AGENCE D'HAUTERIVES;200 route de Romans, 26390 Hauterives;26390;;;Crédit Agricole - Sud Rhone Alpes
Agence bancaire AGENCE D'HEYRIEUX;7 Avenue de la République, 38540 HEYRIEUX;38540;;;Crédit Agricole - Sud Rhone Alpes
Relais CA Le Fromager - ISSANLAS;Quartier Mézeyrac, 07660 ISSANLAS;07660;44,765754;4,012147;Crédit Agricole - Sud Rhone Alpes
Relais CA Traiteur Charcuterie Joud - JARCIEU;1835 Route Départementale 519, 38270 JARCIEU;38270;45,3340499;4,940849;Crédit Agricole - Sud Rhone Alpes
Relais CA Tabac Presse - Prat Vignal - JAUJAC;Place du Champ de Mars, 07380 JAUJAC;07380;44,63665169999999;4,255563899999999;Crédit Agricole - Sud Rhone Alpes
Relais CA L'Echoppe Bio - JOYEUSE;32 rue des Ecoles, 07260 JOYEUSE;07260;44,48109669999999;4,2360527;Crédit Agricole - Sud Rhone Alpes
Relais CA Boulangerie Brunat - L'ALBENC;40 Place Jean Vinay, 38470 L'ALBENC;38470;45,2237115;5,4395076;Crédit Agricole - Sud Rhone Alpes
Agence bancaire AGENCE DE L'ISLE D'ABEAU;Immeuble Le Doupra Avenue du Bourg, 38080 L'ISLE D'ABEAU;38080;;;Crédit Agricole - Sud Rhone Alpes
Relais CA Tabac - Le Vesuve - LA BATIE MONTGASCON;59 Rue de la Soie, 38110 LA BATIE MONTGASCON;38110;45,57941;5,5281319;Crédit Agricole - Sud Rhone Alpes
Agence bancaire AGENCE DE LA CHAPELLE EN VERCORS;Avenue des Grands Goulets, 26420 LA CHAPELLE EN VERCORS;26420;;;Crédit Agricole - Sud Rhone Alpes
Agence bancaire AGENCE DE LA COTE ST ANDRE;22, Rue des Cordiers, 38260 LA COTE ST ANDRE;38260;;;Crédit Agricole - Sud Rhone Alpes
Relais CA Au Bistrot Du Sherpa - LA MORTE;Immeuble Le Grizzli III, 38350 LA MORTE;38350;45,0313973;5,8536932;Crédit Agricole - Sud Rhone Alpes
Relais CA Le Fournil De Damien - LA MOTTE CHALANCON;620 Grande Rue, 26470 LA MOTTE CHALANCON;26470;44,48468753832956;5,37986288278053;Crédit Agricole - Sud Rhone Alpes
Agence bancaire AGENCE DE LA MURE;2, Avenue Chion Ducollet, 38350 LA MURE;38350;;;Crédit Agricole - Sud Rhone Alpes
Agence bancaire AGENCE DE LA ROCHE DE GLUN;5, Place de la République, 26600 LA ROCHE DE GLUN;26600;;;Crédit Agricole - Sud Rhone Alpes
Agence bancaire AGENCE DE LA TOUR DU PIN;5, Place de la Nation, 38110 LA TOUR DU PIN;38110;;;Crédit Agricole - Sud Rhone Alpes
Agence bancaire AGENCE DE LA VERPILLIERE;465 Rue de la République, 38290 LA VERPILLIERE;38290;;;Crédit Agricole - Sud Rhone Alpes
Agence bancaire AGENCE DE LA VOULTE SUR RHONE;4, Rue Boissy d'Anglas, 07800 LA VOULTE SUR RHONE;07800;;;Crédit Agricole - Sud Rhone Alpes
Agence bancaire AGENCE DE LALEVADE;Place du 14 Juillet, 07380 LALEVADE;07380;;;Crédit Agricole - Sud Rhone Alpes
Relais CA Vival - LALLEY;77 Route de la Gare, 38930 LALLEY;38930;44,75795;5,678465999999999;Crédit Agricole - Sud Rhone Alpes
Agence bancaire AGENCE DE LAMASTRE;17 Place Rampon, 07270 Lamastre;07270;;;Crédit Agricole - Sud Rhone Alpes
Relais CA La Mie Ardechoise - LANARCE;N102, 07660 LANARCE;07660;44,7339474;3,9995797;Crédit Agricole - Sud Rhone Alpes
Agence bancaire AGENCE DE LARGENTIERE;20 Rue Camille Vielfaure, 07110 LARGENTIERE;07110;;;Crédit Agricole - Sud Rhone Alpes
Relais CA Coccimarket - LAVILLEDIEU;94 Place du Roure, 07170 LAVILLEDIEU;07170;44,574723;4,455172999999999;Crédit Agricole - Sud Rhone Alpes
Agence bancaire AGENCE LE CHEYLARD;6 rue du 5 juillet 1944, 07160 LE CHEYLARD;07160;;;Crédit Agricole - Sud Rhone Alpes
Relais CA Tabac des Pêcheurs - LE CHEYLAS;Rue de la Tour, 38570 LE CHEYLAS;38570;45,3710628;5,9895039;Crédit Agricole - Sud Rhone Alpes
Agence bancaire AGENCE LE GRAND LEMPS;18 place du château, 38690 LE GRAND LEMPS;38690;;;Crédit Agricole - Sud Rhone Alpes
Relais CA Tabac du Gua - LE GUA;2 place du Centre, 38450 LE GUA;38450;45,02057019999999;5,6241322;Crédit Agricole - Sud Rhone Alpes
Relais CA Garage - Gineys - LE LAC D'ISSARLES;Le Village, 07470 LE LAC D'ISSARLES;07470;44,821163;4,061739999999999;Crédit Agricole - Sud Rhone Alpes
Agence bancaire AGENCE LE PEAGE DU ROUSSILLON;96 rue de la République, 38550 LE PEAGE DU ROUSSILLON;38550;;;Crédit Agricole - Sud Rhone Alpes
Relais CA Coccimarket - LE POET LAVAL;1 Place Des Justes Parmi Les Nations, 26160 LE POET LAVAL;26160;44,53108203778726;5,01002837113354;Crédit Agricole - Sud Rhone Alpes
Agence bancaire AGENCE LE POUZIN;44, Avenue J.C. Dupau, 07250 LE POUZIN;07250;;;Crédit Agricole - Sud Rhone Alpes
Agence bancaire AGENCE LE TEIL;1 Chemin du Dépot, 07400 Le Teil;07400;;;Crédit Agricole - Sud Rhone Alpes
Agence bancaire AGENCE LE TOUVET;Les Balcons du Touvet Rue Priola, 38660 LE TOUVET;38660;;;Crédit Agricole - Sud Rhone Alpes
Relais CA Tabac - Corinne Genevet Fayan - LENS LESTANG;Place de la Bascule, 26210 LENS LESTANG;26210;45,2919724;5,0422978;Crédit Agricole - Sud Rhone Alpes
Agence bancaire AGENCE LES ABRETS;163, Rue Jean Jannin, 38490 LES ABRETS;38490;;;Crédit Agricole - Sud Rhone Alpes
Relais CA Librairie Des Sept Laux - LES ADRETS;Prapoutel, 38190 LES ADRETS;38190;45,2766;5,96043;Crédit Agricole - Sud Rhone Alpes
Agence bancaire AGENCE LES AVENIERES;Les Balcons du Centre 9, Avenue Perriollat, 38630 LES AVENIERES;38630;;;Crédit Agricole - Sud Rhone Alpes
Relais CA Vers Un Autre Pain - LES AVENIERES VEYRINS THUELLIN;21 Route du Dauphiné, 38630 LES AVENIERES VEYRINS THUELLIN;38630;45,6273723;5,538210599999999;Crédit Agricole - Sud Rhone Alpes
Agence bancaire AGENCE LES DEUX ALPES;Immeuble l'Eperon B 1, 38860 LES DEUX ALPES;38860;;;Crédit Agricole - Sud Rhone Alpes
Relais CA Le Fournil du Pont - LES OLLIERES SUR EYRIEUX;4 place du temple, 07360 LES OLLIERES SUR EYRIEUX;07360;44,80663999999999;4,612226;Crédit Agricole - Sud Rhone Alpes
Relais CA Vival - LES OLLIERES SUR EYRIEUX;Quartier de l'Église, 07360 LES OLLIERES SUR EYRIEUX;07360;44,8072024;4,6248679;Crédit Agricole - Sud Rhone Alpes
Agence bancaire AGENCE LES VANS;5 Avenue Ferdinand Nadal, 07140 LES VANS;07140;;;Crédit Agricole - Sud Rhone Alpes
Agence bancaire AGENCE DE LIVRON;30, Avenue Léon Aubin, 26250 LIVRON;26250;;;Crédit Agricole - Sud Rhone Alpes
Agence bancaire AGENCE DE LORIOL;9, Avenue du Général de Gaulle, 26270 LORIOL;26270;;;Crédit Agricole - Sud Rhone Alpes
Relais CA Restaurant Bar Tabac - Relai du Clap - LUC EN DIOIS;Place du Champ de Mars, 26310 LUC EN DIOIS;26310;44,6137714;5,45351;Crédit Agricole - Sud Rhone Alpes
Relais CA Garage - Aygon Mécanic' - LUSSAS;Chemin de Cremouillat, 07170 LUSSAS;07170;44,612075;4,472087999999999;Crédit Agricole - Sud Rhone Alpes
Relais CA Bar Tabac Presse Le Village - LUZINAY;30 Route du Plan, 38200 LUZINAY;38200;45,5892126;4,957016299999999;Crédit Agricole - Sud Rhone Alpes
Relais CA Boulangerie Souchon - MALISSARD;3 Avenue du Vercors, 26120 MALISSARD;26120;44,9010384;4,956395500000001;Crédit Agricole - Sud Rhone Alpes
Relais CA Vival - MARCILLOLES;19 Place Saint-Nicolas, 38260 MARCILLOLES;38260;45,3401033;5,1835098;Crédit Agricole - Sud Rhone Alpes
Relais CA Restaurant - Berthon Maxime - MARCOLLIN;40 Route de Lens Lestang, 38270 MARCOLLIN;38270;45,3051735;5,0864843;Crédit Agricole - Sud Rhone Alpes
Relais CA Au Pain d'Antan - MARIAC;710 RIVE DE LA DORNE, 07160 MARIAC;07160;44,8814407;4,3649285;Crédit Agricole - Sud Rhone Alpes
Relais CA Au Fournil - MARSANNE;Avenue Albin Davin, 26740 MARSANNE;26740;44,6437507;4,8736315;Crédit Agricole - Sud Rhone Alpes
Relais CA Presse - Le Marsannais - MARSANNE;10 Avenue René Chartron, 26740 MARSANNE;26740;44,643664;4,872783999999999;Crédit Agricole - Sud Rhone Alpes
Relais CA Tabac - Françoise Bouchet - MAUVES;6 Avenue Ozier, 07300 MAUVES;07300;45,0384051;4,8301698;Crédit Agricole - Sud Rhone Alpes
Agence bancaire AGENCE DU MENS;Rue du Pas de l'Aiguille, 38710 MENS;38710;;;Crédit Agricole - Sud Rhone Alpes
Relais CA Le Bois De Madelie - MEVOUILLON;2 Route de Pelleret, 26560 MEVOUILLON;26560;44,2280109;5,5056202;Crédit Agricole - Sud Rhone Alpes
Agence bancaire AGENCE DE MEYLAN;42 Avenue de la Plaine Fleurie, 38240 Meylan;38240;;;Crédit Agricole - Sud Rhone Alpes
Relais CA Boulangerie Perreton - MEYSSE;Le Village, 07400 MEYSSE;07400;44,608462;4,7223369;Crédit Agricole - Sud Rhone Alpes
Agence bancaire AGENCE DE MEYZIEU;15, 17 Rue Louis Saulnier, 69330 MEYZIEU;69330;;;Crédit Agricole - Sud Rhone Alpes
Relais CA Coccimarket - MIRABEL AUX BARONNIES;38 avenue de la Résistance, 26110 MIRABEL AUX BARONNIES;26110;44,3106617;5,098859099999999;Crédit Agricole - Sud Rhone Alpes
Relais CA BNH DISTRIBUTION - MIRABEL ET BLACONS;1155 Avenue Des 3 Becs, 26400 MIRABEL ET BLACONS;26400;44,7110368;5,0896979;Crédit Agricole - Sud Rhone Alpes
Agence bancaire AGENCE DE MOIRANS;102, Rue de la République, 38430 MOIRANS;38430;45,326595;5,563182;Crédit Agricole - Sud Rhone Alpes
Agence bancaire MOIRANS - CENTRE D'AFF. ENTR. SUD ISERE;Centr'Alp 122 rue du rocher Lorzier, 38430 MOIRANS;38430;5,591448;45,321279;Crédit Agricole - Sud Rhone Alpes
Agence bancaire VOIRON - AGENCE PATRIMOINE;CENTRALP 122 rue du rocher de Lorzier, 38430 MOIRANS;38430;45,321456;5,591885;Crédit Agricole - Sud Rhone Alpes
Relais CA Boulangerie - Aux Delices Du Dauphin - MOLLANS SUR OUVEZE;Avenue de Verdun, 26170 MOLLANS SUR OUVEZE;26170;44,23519599999999;5,188507;Crédit Agricole - Sud Rhone Alpes
Agence bancaire AGENCE DE MONESTIER DE CLERMONT;137, Grande Rue, 38650 MONESTIER DE CLERMONT;38650;;;Crédit Agricole - Sud Rhone Alpes
Relais CA Bar Tabac - Guillaud Elisabeth - MONTAGNIEU;8 route du Village, 38110 MONTAGNIEU;38110;45,524321;5,452416899999999;Crédit Agricole - Sud Rhone Alpes
Agence bancaire AGENCE DE MONTALIEU;Grande Rue, 38390 MONTALIEU;38390;;;Crédit Agricole - Sud Rhone Alpes
Agence bancaire AGENCE DE MONTBONNOT SAINT MARTIN;1323 avenue de l'Europe, 38330 MONTBONNOT;38330;;;Crédit Agricole - Sud Rhone Alpes
Agence bancaire AGENCE DE MONTBRUN-LES-BAINS;Le Village, 26570 MONTBRUN-LES-BAINS;26570;;;Crédit Agricole - Sud Rhone Alpes
Relais CA L'Epicerie - MONTELIER;51 Rue des Bouviers, 26120 MONTELIER;26120;44,94890179999999;4,9819772;Crédit Agricole - Sud Rhone Alpes
Agence bancaire AGENCE DE MONTELIMAR SAINT-JAMES;39, Avenue Jean-Jaurès, 26200 MONTELIMAR;26200;44,5490018;4,7469587;Crédit Agricole - Sud Rhone Alpes
Agence bancaire AGENCE DE MONTELIMAR SUD;Angle Boulevard R.Coty 116 Chemin des contrebandiers, 26200 MONTELIMAR;26200;44,5336021;4,7551892;Crédit Agricole - Sud Rhone Alpes
Agence bancaire AGENCE DE MONTELIMAR THEATRE;11, Place du Théâtre, 26200 MONTELIMAR;26200;44,5562568;4,7476075;Crédit Agricole - Sud Rhone Alpes
Agence bancaire MONTELIMAR - AGENCE PATRIMOINE;11 place du Théatre, 26200 MONTELIMAR;26200;44,555865;4,748187;Crédit Agricole - Sud Rhone Alpes
Agence bancaire MONTELIMAR - CENTRE D'AFF. ENTREPRISES;Angle Boulevard R.Coty116 Chemin des contrebandiers, 26200 MONTELIMAR;26200;44,5336021;4,7551892;Crédit Agricole - Sud Rhone Alpes
Relais CA Boulangerie Jaunet & Deville - MONTFERRAT;329 Rue du Bourg, 38620 MONTFERRAT;38620;45,4881128;5,592218099999999;Crédit Agricole - Sud Rhone Alpes
Relais CA Boulangerie Epicerie Mille et Une Pates - MONTJOUX;Le Village, 26220 MONTJOUX;26220;44,500121;5,096869000000001;Crédit Agricole - Sud Rhone Alpes
Agence bancaire AGENCE DE MONTMEYRAN;3 Place de la Poste, 26120 MONTMEYRAN;26120;;;Crédit Agricole - Sud Rhone Alpes
Relais CA Café Bar - JLS - MONTSEGUR SUR LAUZON;64 rond-point Charles De Gaulle, 26130 MONTSEGUR SUR LAUZON;26130;44,36041107571278;4,860143536583844;Crédit Agricole - Sud Rhone Alpes
Agence bancaire AGENCE DE MORESTEL;29, Place de l'Hôtel de Ville, 38510 MORESTEL;38510;;;Crédit Agricole - Sud Rhone Alpes
Agence bancaire AGENCE DE MOURS ROMANS;Chemin du Devienne 'Les Revols', 26540 MOURS;26540;;;Crédit Agricole - Sud Rhone Alpes
Relais CA Les Copains d'Abord - NIVOLAS VERMELLE;2724 D1085, 38300 NIVOLAS VERMELLE;38300;45,5572545;5,3046928;Crédit Agricole - Sud Rhone Alpes
Relais CA Epicerie Sylvain Montaland - NOZIERES;Place de l'Eglise, 07270 NOZIERES;07270;45,027819;4,542974;Crédit Agricole - Sud Rhone Alpes
Agence bancaire AGENCE DE NYONS;1, Place de la Libération, 26110 NYONS;26110;;;Crédit Agricole - Sud Rhone Alpes
Relais CA Vival - Bruguier Celine - ORGNAC L'AVEN;10 Rue des Écoles, 07150 ORGNAC L'AVEN;07150;44,3060511;4,4316384;Crédit Agricole - Sud Rhone Alpes
Relais CA Bar - Au P'tit Plus - OYTIER SAINT OBLAS;3620 Route de Saint-Oblas, 38780 OYTIER SAINT OBLAS;38780;45,576674;5,038482;Crédit Agricole - Sud Rhone Alpes
Relais CA Café de la Terrasse - PACT;Lieu Dit Le Bourg, 38270 PACT;38270;45,35282692449837;4,988414733177385;Crédit Agricole - Sud Rhone Alpes
Relais CA Restaurant - L'Amarante - PAILHARES;75 Route du Col du Marchand, 07410 PAILHARES;07410;45,079503;4,565615999999999;Crédit Agricole - Sud Rhone Alpes
Relais CA Epicerie Parnans - PARNANS;331 Route des Antonins, 26750 PARNANS;26750;45,1109464;5,1469018;Crédit Agricole - Sud Rhone Alpes
Relais CA Le Comptoir De Payzac - PAYZAC;19 route de Chambonas, 07230 PAYZAC;07230;44,4512629;4,1458984;Crédit Agricole - Sud Rhone Alpes
Agence bancaire AGENCE DE PIERRELATTE;Rue du Docteur Jaume, 26700 PIERRELATTE;26700;;;Crédit Agricole - Sud Rhone Alpes
Relais CA La Charmantyne - PLATS;Le Village, 07300 PLATS;07300;45,01047399999999;4,781547;Crédit Agricole - Sud Rhone Alpes
Agence bancaire AGENCE DE PONT DE BEAUVOISIN;4 avenue Dr Charles Gabriel Pravaz, 38480 PONT DE BEAUVOISIN;38480;;;Crédit Agricole - Sud Rhone Alpes
Agence bancaire AGENCE DE PONT DE CHERUY;33, Rue Centrale, 38230 PONT DE CHERUY;38230;;;Crédit Agricole - Sud Rhone Alpes
Agence bancaire AGENCE DE PONT DE CLAIX;12, Cours Saint-André, 38800 PONT DE CLAIX;38800;;;Crédit Agricole - Sud Rhone Alpes
Relais CA Boulangerie Festival - PONT DE LABEAUME;Le Village, 07380 PONT DE LABEAUME;07380;44,665298;4,288454;Crédit Agricole - Sud Rhone Alpes
Agence bancaire AGENCE DE PONT EVEQUE;143 Montée Lucien Magnat, 38780 Pont-Evêque;38780;;;Crédit Agricole - Sud Rhone Alpes
Agence bancaire AGENCE DE PONTCHARRA;293 Avenue de la Gare, 38530 Pontcharra;38530;;;Crédit Agricole - Sud Rhone Alpes
Agence bancaire AGENCE DE PORTES-LES-VALENCE;Immeuble le Millenium Rue Emile Zola, 26800 PORTES-LES-VALENCE;26800;;;Crédit Agricole - Sud Rhone Alpes
Relais CA SPAR - PRADONS;2945 Route de Ruoms, 07120 PRADONS;07120;44,4718049;4,3549061;Crédit Agricole - Sud Rhone Alpes
Agence bancaire AGENCE DE PRIVAS PALAIS;4, Cours du Palais, 07000 PRIVAS;07000;;;Crédit Agricole - Sud Rhone Alpes
Relais CA Citroën - Chapouan Claude - PUY SAINT MARTIN;1 Route de Crest, 26450 PUY SAINT MARTIN;26450;44,6289222;4,9747537;Crédit Agricole - Sud Rhone Alpes
Relais CA Comptoir Plus - PUY ST MARTIN;Le Village, 26450 PUY ST MARTIN;26450;44,62617583975227;4,968207333892938;Crédit Agricole - Sud Rhone Alpes
Relais CA Association Du Bourg - REAUVILLE;Grand Rue, 26230 REAUVILLE;26230;44,4452381;4,8427563;Crédit Agricole - Sud Rhone Alpes
Relais CA PROXI - RECOUBEAU JANSAC;204 Route De Gap, 26310 RECOUBEAU JANSAC;26310;44,6529488;5,399190700000001;Crédit Agricole - Sud Rhone Alpes
Relais CA Librairie Papeterie Presse Blanchard - RENAGE;1092 Rue de la République, 38140 RENAGE;38140;45,3318669;5,4858856;Crédit Agricole - Sud Rhone Alpes
Relais CA Boulangerie Patisserie Tabac Presse - Le Roy Yann - REVEL-TOURDAN;55 Chemin Neuf, 38270 REVEL-TOURDAN;38270;45,38385;5,0356116;Crédit Agricole - Sud Rhone Alpes
Agence bancaire AGENCE DE RIVES SUR FURE;Résidence ''Le Bourg Neuf'' 37 Rue A. Buttin, 38140 RIVES SUR FURE;38140;;;Crédit Agricole - Sud Rhone Alpes
Agence bancaire AGENCE DE ROMANS Jean Jaurès;27, 31 Place Jean-Jaurès, 26100 ROMANS;26100;;;Crédit Agricole - Sud Rhone Alpes
Agence bancaire AGENCE DE ROSIERES;50 Traverse des Vernades, 07260 ROSIERES;07260;;;Crédit Agricole - Sud Rhone Alpes
Agence bancaire AGENCE DE ROUSSILLON CITES;Rond point des cités Route Nationale 7, 38150 ROUSSILLON;38150;;;Crédit Agricole - Sud Rhone Alpes
Agence bancaire AGENCE DE RUOMS;97, Route Nationale, 07120 RUOMS;07120;;;Crédit Agricole - Sud Rhone Alpes
Agence bancaire AGENCE DE RUY MONTCEAU;1 Place du 8 Mai 1945, 38300 RUY MONTCEAU;38300;;;Crédit Agricole - Sud Rhone Alpes
Relais CA Bistrôt - Chez Lévêque - SAGNES-ET-GOUDOULET;41 Rue de L'Église, 07450 SAGNES-ET-GOUDOULET;07450;44,7911194;4,2263341;Crédit Agricole - Sud Rhone Alpes
Relais CA L'épicerie De Sylvie - SAHUNE;245 Route Du Village, 26510 SAHUNE;26510;44,41473;5,265312;Crédit Agricole - Sud Rhone Alpes
Relais CA Bistro Saillansons - SAILLANS;26 RUE DU DOCTEUR ILLAIRE, 26340 SAILLANS;26340;44,697997;5,19759;Crédit Agricole - Sud Rhone Alpes
Relais CA Le Geody - SAINT ALBAN AURIOLLES;35 Avenue Pasteur, 07120 SAINT ALBAN AURIOLLES;07120;44,4253014;4,2988808;Crédit Agricole - Sud Rhone Alpes
Relais CA Au Saint Barthelemy - SAINT BARTHELEMY GROZON;Place de la poste, 07270 SAINT BARTHELEMY GROZON;07270;44,9605109;4,628349;Crédit Agricole - Sud Rhone Alpes
Relais CA Le Bienvenu - SAINT BARTHELEMY LE PLAIN;125 rue de l'Eglise, 07300 SAINT BARTHELEMY LE PLAIN;07300;45,05473819657231;4,746514625124004;Crédit Agricole - Sud Rhone Alpes
Relais CA La Renaissance - SAINT CIRGUES EN MONTAGNE;PLACE DU BREUIL, 07510 SAINT CIRGUES EN MONTAGNE;07510;44,75553679999999;4,0928048;Crédit Agricole - Sud Rhone Alpes
Relais CA La Renaissance - SAINT CIRGUES EN MONTAGNE;Place Du Breuil, 07510 SAINT CIRGUES EN MONTAGNE;07510;44,75565101817842;4,092708238544974;Crédit Agricole - Sud Rhone Alpes
Relais CA Boulangerie Mamie - SAINT CLAIR DE LA TOUR;3 Avenue de Savoie, 38110 SAINT CLAIR DE LA TOUR;38110;45,5737152;5,4779037;Crédit Agricole - Sud Rhone Alpes
Relais CA PROXI - SAINT FORTUNAT SUR EYRIEUX;10A allée de la Mairie, 07360 SAINT FORTUNAT SUR EYRIEUX;07360;44,82836098976604;4,673570992958012;Crédit Agricole - Sud Rhone Alpes
Relais CA Aux Rotis Du Coin - SAINT GEOIRE EN VALDAINE;10 Place Andre Chaize, 38620 SAINT GEOIRE EN VALDAINE;38620;45,45596219999999;5,636447299999999;Crédit Agricole - Sud Rhone Alpes
Relais CA Tabac - Meyronin Thierry - SAINT GEORGES DE COMMIERS;222 Rue de la Gare, 38450 SAINT GEORGES DE COMMIERS;38450;45,04279289999999;5,702656999999999;Crédit Agricole - Sud Rhone Alpes
Relais CA Les Vignerons de Valléon - SAINT GERVAIS SUR ROUBION;20 Route De Montelimar, 26160 SAINT GERVAIS SUR ROUBION;26160;44,58159951189393;4,888765169288467;Crédit Agricole - Sud Rhone Alpes
Relais CA Maison Floran - SAINT ISMIER;1066 Route de Chambéry, 38330 SAINT ISMIER;38330;45,2450257;5,829901599999999;Crédit Agricole - Sud Rhone Alpes
Relais CA Boulangerie Modena - SAINT JALLE;Route de Saint Sauveur, 26110 SAINT JALLE;26110;44,343863;5,283499000000001;Crédit Agricole - Sud Rhone Alpes
Relais CA Station Service - SAINT JEAN DE GALAURE;460 Route de Saint Uze, 26240 SAINT JEAN DE GALAURE;26240;45,1949195;4,9013974;Crédit Agricole - Sud Rhone Alpes
Relais CA Saveurs Et Tentations - SAINT JULIEN EN SAINT ALBAN;1 Place Coeur d'Ouveze, 07000 SAINT JULIEN EN SAINT ALBAN;07000;44,75294064853153;4,694757457143799;Crédit Agricole - Sud Rhone Alpes
Relais CA Tabac - Lemberthe Jocelyne - SAINT LAURENT DE MURE;114 Avenue Jean Moulin, 69720 SAINT LAURENT DE MURE;69720;45,6873561;5,0476621;Crédit Agricole - Sud Rhone Alpes
Relais CA Tabac Presse Loto Michel Buttazzi - SAINT LAURENT DU PAPE;190 Grand Rue, 07800 SAINT LAURENT DU PAPE;07800;44,82253619999999;4,7650594;Crédit Agricole - Sud Rhone Alpes
Relais CA Articles De Plage Et De Camping - SAINT MARTIN D ARDECHE;Rue du Candèlas, 07700 SAINT MARTIN D ARDECHE;07700;44,3008633;4,5679889;Crédit Agricole - Sud Rhone Alpes
Relais CA Pharmacie de l'Ancolie - SAINT MARTIN D'URIAGE;41 Route d'Uriage, 38410 SAINT MARTIN D'URIAGE;38410;45,1518299;5,8384143;Crédit Agricole - Sud Rhone Alpes
Relais CA Bar - L'Ancolie - SAINT MARTIN EN VERCORS;Le Village, 26420 SAINT MARTIN EN VERCORS;26420;45,02108;5,442507;Crédit Agricole - Sud Rhone Alpes
Relais CA L'Epis Cerie - SAINT MARTIN SUR LAVEZON;3966 ROUTE DU COIRON, 07400 SAINT MARTIN SUR LAVEZON;07400;44,63410140000001;4,6553679;Crédit Agricole - Sud Rhone Alpes
Relais CA Alimentation - Belotti Marie Christine - SAINT MAURICE SUR EYGUES;Le Village, 26110 SAINT MAURICE SUR EYGUES;26110;44,29850099999999;5,008795999999999;Crédit Agricole - Sud Rhone Alpes
Relais CA Les Mama's Band - SAINT MICHEL DE CHABRILLANOUX;Impasse de l'Arcade, 07360 SAINT MICHEL DE CHABRILLANOUX;07360;44,84033322216146;4,60307668138767;Crédit Agricole - Sud Rhone Alpes
Relais CA Les Vignerons de Valléon - SAINT PANTALEON LES VIGNES;1 Route de Nyons, 26770 SAINT PANTALEON LES VIGNES;26770;44,3959561;5,0396654;Crédit Agricole - Sud Rhone Alpes
Relais CA Alimentation - Mottet Claude - SAINT PAUL LES ROMANS;Les Mingauds, 26750 SAINT PAUL LES ROMANS;26750;45,0752009;5,1169857;Crédit Agricole - Sud Rhone Alpes
Relais CA Tabac Presse - Margaron Steve - SAINT PAUL LES ROMANS;Route nationale, 26750 SAINT PAUL LES ROMANS;26750;45,0752009;5,1169857;Crédit Agricole - Sud Rhone Alpes
Relais CA Tabac - Meary Agnes - SAINT PIERRE DE BRESSIEUX;100 Route du Village, 38870 SAINT PIERRE DE BRESSIEUX;38870;45,3157498;5,2888243;Crédit Agricole - Sud Rhone Alpes
Relais CA Fromagerie - Charvoz Le Poul - SAINT PIERRE DE CHARTREUSE;Le Bois Des Lievres, 38380 SAINT PIERRE DE CHARTREUSE;38380;45,341365;5,815652;Crédit Agricole - Sud Rhone Alpes
Relais CA Tabac - Chez Flo - SAINT PIERREVILLE;Place Neuve, 07190 SAINT PIERREVILLE;07190;44,81567692774824;4,487419513470046;Crédit Agricole - Sud Rhone Alpes
Relais CA Tabac - Les Muguets - SAINT QUENTIN FALLAVIER;Rue des Muguets, 38070 SAINT QUENTIN FALLAVIER;38070;45,6380253;5,1082192;Crédit Agricole - Sud Rhone Alpes
Relais CA Le Dauphin - SAINT QUENTIN SUR ISERE;700 Rue du Vercors, 38210 SAINT QUENTIN SUR ISERE;38210;45,2807536;5,546556;Crédit Agricole - Sud Rhone Alpes
Relais CA Au P'tit Bonheur - SAINT ROMAIN DE LERPS;15 chemin du Pic, 07130 SAINT ROMAIN DE LERPS;07130;44,978007;4,7997;Crédit Agricole - Sud Rhone Alpes
Relais CA Bar - Des Cruzieres - SAINT SAUVEUR DE CRUZIERES;460 Rue Principale, 07460 SAINT SAUVEUR DE CRUZIERES;07460;44,30009931423354;4,252609148687037;Crédit Agricole - Sud Rhone Alpes
Relais CA Le Drop Café - SAINT SAVIN;150 Rue des Auberges, 38300 SAINT SAVIN;38300;45,6278567;5,3092907;Crédit Agricole - Sud Rhone Alpes
Relais CA Boulangerie - L&D Monteil - SAINT SORLIN EN VALLOIRE;Route de Châteauneuf, 26210 SAINT SORLIN EN VALLOIRE;26210;45,2874663;4,9522838;Crédit Agricole - Sud Rhone Alpes
Relais CA Jaco'Pain - SAINT THOMAS LES ROYANS;Le Village, 26190 SAINT THOMAS LES ROYANS;26190;44,8736853;5,1744903;Crédit Agricole - Sud Rhone Alpes
Relais CA Robin Traiteur - SAINT UZE;17 Rue Pierre Semard, 26240 SAINT UZE;26240;45,1844549;4,861330199999999;Crédit Agricole - Sud Rhone Alpes
Relais CA Tabac Presse - Perrat - SAINT VICTOR DE CESSIEU;19 Route du Clos Janin, 38110 SAINT VICTOR DE CESSIEU;38110;45,54378819999999;5,395696099999999;Crédit Agricole - Sud Rhone Alpes
Agence bancaire AGENCE DE ST CLAIR DU RHONE;Route de Condrieu, 38370 Saint-Clair-du-Rhône;38370;;;Crédit Agricole - Sud Rhone Alpes
Agence bancaire AGENCE DE ST GEORGES D'ESPERANCHE;34 Place Edmond Budillon, 38790 Saint-Georges-d'Espéranche;38790;;;Crédit Agricole - Sud Rhone Alpes
Agence bancaire AGENCE DE ST PAUL LE JEUNE;18, Rue des Portes de l'Ardèche, 07460 Saint-Paul-le-Jeune;07460;;;Crédit Agricole - Sud Rhone Alpes
Agence bancaire AGENCE DE ST PAUL TROIS CHATEAUX;23 Place de la Libération, 26130 Saint-Paul-Trois-Châteaux;26130;;;Crédit Agricole - Sud Rhone Alpes
Agence bancaire AGENCE DE ST VALLIER;1 Chemin de la Brassière - ZA Inter'Val, 26240 Saint-Vallier;26240;;;Crédit Agricole - Sud Rhone Alpes
Relais CA Ferme Café Rest La Source De La Loire - SAINTE EULALIE;Quartier Le Gerbier Des Joncs, 07510 SAINTE EULALIE;07510;44,84170513137018;4,218814965157652;Crédit Agricole - Sud Rhone Alpes
Relais CA Taxis - Moulin Nadine - SAINTE EULALIE;Le Village, 07510 SAINTE EULALIE;07510;44,7700516;4,166734;Crédit Agricole - Sud Rhone Alpes
Relais CA Le Kiosque - SAINTE MARIE D'ALLOIX;Place Du Seuil, 38660 SAINTE MARIE D'ALLOIX;38660;45,378662;5,965656999999999;Crédit Agricole - Sud Rhone Alpes
Agence bancaire AGENCE DE SALAISE SUR SANNE;5 rue Daniel Balavoine, 38150 SALAISE SUR SANNE;38150;;;Crédit Agricole - Sud Rhone Alpes
Agence bancaire AGENCE DE SARRAS;9 avenue du Vivarais, 07370 SARRAS;07370;;;Crédit Agricole - Sud Rhone Alpes
Agence bancaire AGENCE DE SASSENAGE;10, Avenue de Valence, 38360 SASSENAGE;38360;;;Crédit Agricole - Sud Rhone Alpes
Relais CA Tabac Presse - Nathalie Courbier - SAULCE SUR RHONE;Route Nationale 7, 26270 SAULCE SUR RHONE;26270;44,7046989;4,7998503;Crédit Agricole - Sud Rhone Alpes
Agence bancaire AGENCE DE SEDERON;19 grande rue, 26560 SEDERON;26560;;;Crédit Agricole - Sud Rhone Alpes
Agence bancaire AGENCE DE SEYSSINET;2, Rue de la Fauconnière, 38170 SEYSSINET;38170;;;Crédit Agricole - Sud Rhone Alpes
Relais CA L'atelier De Baptiste - SEYSSUEL;36 RUE DE L'EGLISE, 38200 SEYSSUEL;38200;45,559626942747;4,844965228829108;Crédit Agricole - Sud Rhone Alpes
Relais CA PROXI - SOLAIZE;26 Rue de la République, 69360 SOLAIZE;69360;45,6395551;4,8400785;Crédit Agricole - Sud Rhone Alpes
Agence bancaire AGENCE DE ST AGREVE;3, Rue du Docteur Tourasse, 07320 ST AGREVE;07320;;;Crédit Agricole - Sud Rhone Alpes
Agence bancaire AGENCE DE ST BONNET DE MURE;28 Route Nationale Résidence des Tilleuls, 69720 ST BONNET DE MURE;69720;;;Crédit Agricole - Sud Rhone Alpes
Agence bancaire AGENCE DE ST DONAT SUR L'HERBASSE;37 avenue du Commandant Corlu, 26260 ST DONAT SUR L'HERBASSE;26260;;;Crédit Agricole - Sud Rhone Alpes
Agence bancaire AGENCE DE ST EGREVE;63 ter avenue du Général de Gaulle, 38120 ST EGREVE;38120;;;Crédit Agricole - Sud Rhone Alpes
Agence bancaire AGENCE DE ST ETIENNE DE FONTBELLON;Les champs 490-1 Route d'Alès, 07200 ST ETIENNE DE FONTBELLON;07200;;;Crédit Agricole - Sud Rhone Alpes
Agence bancaire AGENCE DE ST ETIENNE DE ST GEOIRS;13, Grande Rue Octave Chenavas, 38590 ST ETIENNE DE ST GEOIRS;38590;;;Crédit Agricole - Sud Rhone Alpes
Agence bancaire AGENCE DE ST FELICIEN;Rue Charles Forot, 07410 ST FELICIEN;07410;;;Crédit Agricole - Sud Rhone Alpes
Agence bancaire AGENCE DE ST JEAN DE BOURNAY;8, Rue Hector Berlioz, 38440 ST JEAN DE BOURNAY;38440;;;Crédit Agricole - Sud Rhone Alpes
Agence bancaire AGENCE DE ST JEAN DE SOUDAIN;489 Route de Lyon, 38110 ST JEAN DE SOUDAIN;38110;;;Crédit Agricole - Sud Rhone Alpes
Agence bancaire AGENCE DE ST JEAN EN ROYANS;Place du Champ de Mars, 26190 ST JEAN EN ROYANS;26190;;;Crédit Agricole - Sud Rhone Alpes
Agence bancaire AGENCE DE ST JUST CHALEYSSIN;Centre Commercial 'les Mûriers' 70 rue Gaston Perrier, 38540 ST JUST CHALEYSSIN;38540;;;Crédit Agricole - Sud Rhone Alpes
Agence bancaire AGENCE DE ST JUST D'ARDECHE;485 route de Bourg St Andéol - ZA Creux de Boule, 07700 ST JUST D'ARDECHE;07700;;;Crédit Agricole - Sud Rhone Alpes
Agence bancaire AGENCE DE ST LAURENT DU PONT;4, place Aristide-Briand, 38380 ST LAURENT DU PONT;38380;;;Crédit Agricole - Sud Rhone Alpes
Agence bancaire AGENCE DE ST MARCEL LES VALENCE;50, Avenue de Provence, 26320 ST MARCEL LES VALENCE;26320;;;Crédit Agricole - Sud Rhone Alpes
Agence bancaire AGENCE DE ST MARCELLIN;14, 16 Boulevard Riondel, 38160 ST MARCELLIN;38160;;;Crédit Agricole - Sud Rhone Alpes
Agence bancaire AGENCE DE ST MARTIN D'HERES - CROIZAT;193, Avenue Ambroise Croizat, 38400 ST MARTIN D'HERES;38400;45,1811578;5,7643017;Crédit Agricole - Sud Rhone Alpes
Agence bancaire GRENOBLE EST - Agence des entrepreneurs;41 rue du Bourgamon 1er étage, 38400 ST MARTIN D'HERES;38400;45,165133;5,767761;Crédit Agricole - Sud Rhone Alpes
Agence bancaire AGENCE DE ST MARTIN DE VALAMAS;90 rue de la Poste, 07310 ST MARTIN DE VALAMAS;07310;;;Crédit Agricole - Sud Rhone Alpes
Agence bancaire AGENCE DE ST PERAY;Place de l'Hôtel de Ville, 07130 ST PERAY;07130;;;Crédit Agricole - Sud Rhone Alpes
Agence bancaire AGENCE DE ST PIERRE DE CHANDIEU;15, Place Charles-de-Gaulle, 69780 ST PIERRE DE CHANDIEU;69780;;;Crédit Agricole - Sud Rhone Alpes
Agence bancaire AGENCE DE ST PRIEST;13, Route d'Heyrieux, 69800 ST PRIEST;69800;;;Crédit Agricole - Sud Rhone Alpes
Agence bancaire AGENCE DE ST QUENTIN FALLAVIER;5, galerie marchande du Centre Commercial 'Les Muguets', 38070 ST QUENTIN FALLAVIER;38070;;;Crédit Agricole - Sud Rhone Alpes
Agence bancaire AGENCE DE ST RAMBERT D'ALBON;19 Place Gaston Oriol, 26140 ST RAMBERT D'ALBON;26140;;;Crédit Agricole - Sud Rhone Alpes
Agence bancaire AGENCE DE ST SAUVEUR DE MONTAGUT;35 rue des écoles, 07190 ST SAUVEUR DE MONTAGUT;07190;;;Crédit Agricole - Sud Rhone Alpes
Agence bancaire AGENCE DE ST SIMEON DE BRESSIEUX;154, Grande Rue, 38870 ST SIMEON DE BRESSIEUX;38870;;;Crédit Agricole - Sud Rhone Alpes
Agence bancaire AGENCE DE ST SYMPHORIEN D'OZON;9, Quai Hector Berlioz, 69360 ST SYMPHORIEN D'OZON;69360;;;Crédit Agricole - Sud Rhone Alpes
Relais CA Boulangerie Aracil - SUZE LA ROUSSE;477 Avenue des Côtes du Rhône, 26790 SUZE LA ROUSSE;26790;44,2891011;4,840018199999999;Crédit Agricole - Sud Rhone Alpes
Agence bancaire AGENCE DE TAIN-L'HERMITAGE;47 Avenue du Président Roosevelt, 26600 Tain-l'Hermitage;26600;;;Crédit Agricole - Sud Rhone Alpes
Agence bancaire AGENCE DE TAULIGNAN;Place de la Bourgade, 26770 TAULIGNAN;26770;;;Crédit Agricole - Sud Rhone Alpes
Relais CA Tabac Presse De Tencin - TENCIN;869 Avenue du Grésivaudan, 38570 TENCIN;38570;45,3083918;5,9580245;Crédit Agricole - Sud Rhone Alpes
Relais CA Tabac Presse Loto Theys - THEYS;Rue Le Bourg, 38570 THEYS;38570;45,301399;5,995832;Crédit Agricole - Sud Rhone Alpes
Relais CA Boucherie Michel Et Fils - THUEYTS;Avenue du Val d'Ardèche, 07330 THUEYTS;07330;44,675053;4,2215401;Crédit Agricole - Sud Rhone Alpes
Agence bancaire AGENCE DE TIGNIEU;Centre commercial Place du Dauphiné, Rue des Ardennes, 38230 TIGNIEU JAMEYZIEU;38230;;;Crédit Agricole - Sud Rhone Alpes
Relais CA Restaurant - La Grange - TORCHEFELON;24 Route Du Village, 38690 TORCHEFELON;38690;45,441137;5,329089;Crédit Agricole - Sud Rhone Alpes
Agence bancaire AGENCE DE TOURNON;30 quai Farconnet, 07300 TOURNON SUR RHONE;07300;;;Crédit Agricole - Sud Rhone Alpes
Relais CA Chez Costa - TREPT;1 Rue du Garnier, 38460 TREPT;38460;45,6868061;5,321295699999999;Crédit Agricole - Sud Rhone Alpes
Agence bancaire AGENCE DE TULETTE;RD94 LIEUDIT COSTEBELLE, 26790 TULETTE;26790;;;Crédit Agricole - Sud Rhone Alpes
Agence bancaire AGENCE DE TULLINS;Place Jean-Jaurès, 38210 TULLINS;38210;;;Crédit Agricole - Sud Rhone Alpes
Relais CA Tabac - Presse Domont - UPIE;1 Rue des Bouviers, 26120 UPIE;26120;44,8053611;4,9798161;Crédit Agricole - Sud Rhone Alpes
Agence bancaire AGENCE D'URIAGE;Allée des Thermes, 38410 URIAGE;38410;;;Crédit Agricole - Sud Rhone Alpes
Relais CA La Boulangerie Par Aracil - VALAURIE;Zone Artisanale Du Clavon, 26230 VALAURIE;26230;44,41865116597012;4,804007024075663;Crédit Agricole - Sud Rhone Alpes
Agence bancaire AGENCE DE VALENCE - CHATEAUVERT;116-118, Rue Châteauvert, 26000 VALENCE;26000;44,9204881;4,8993734;Crédit Agricole - Sud Rhone Alpes
Agence bancaire AGENCE DE VALENCE - HAUTES-FAVENTINES;290, Rue Faventines, 26000 VALENCE;26000;44,915994;4,909817;Crédit Agricole - Sud Rhone Alpes
Agence bancaire AGENCE DE VALENCE - HUGO;57, Avenue Victor Hugo, 26000 VALENCE;26000;44,9280567;4,890021;Crédit Agricole - Sud Rhone Alpes
Agence bancaire AGENCE DE VALENCE - PREFECTURE;77, Avenue Sadi Carnot, 26000 VALENCE;26000;44,9336842;4,8967896;Crédit Agricole - Sud Rhone Alpes
Relais CA La Boite A Clopes - VALENCE;109 Rue des Alpes, 26000 VALENCE;26000;44,9259972;4,9018203;Crédit Agricole - Sud Rhone Alpes
Agence bancaire VALENCE - AGENCE PATRIMOINE;290 Rue Faventines, 26950 Valence;26950;44,9161297;4,9093477;Crédit Agricole - Sud Rhone Alpes
Agence bancaire VALENCE - AGENCE PERSONNES PROTEGEES;290, Rue Faventines, 26950 VALENCE;26950;44,916024;4,909388;Crédit Agricole - Sud Rhone Alpes
Agence bancaire VALENCE - Agence des entrepreneurs;290 rue Faventines, 26000 VALENCE;26000;44,915766;4,909087;Crédit Agricole - Sud Rhone Alpes
Agence bancaire VALENCE - CENTRE D'AFF. ENTR. ISARDROME;290, Rue Faventines, 26000 VALENCE;26000;44,916131;4,909506;Crédit Agricole - Sud Rhone Alpes
Agence bancaire AGENCE DE VALLON PONT D'ARC;11 Rue Jean-Jaurès, 07150 VALLON PONT D'ARC;07150;;;Crédit Agricole - Sud Rhone Alpes
Relais CA Caveau Des Vignerons De Valvigneres - VALVIGNERES;315 Route De Saint Thome, 07400 VALVIGNERES;07400;44,50117833644445;4,577468111616136;Crédit Agricole - Sud Rhone Alpes
Agence bancaire AGENCE DE VARCES;Les Arcades 12 avenue Joliot Curie, 38760 VARCES;38760;;;Crédit Agricole - Sud Rhone Alpes
Relais CA Boulangerie Patisserie - Guillaume Tholin - VAULX MILIEU;5 Route De Four, 38090 VAULX MILIEU;38090;45,61218125832667;5,181276284654445;Crédit Agricole - Sud Rhone Alpes
Relais CA Petite Fleur - VERCHENY;La Plaine, 26340 VERCHENY;26340;44,76101033951662;5,356289371139154;Crédit Agricole - Sud Rhone Alpes
Relais CA Cav'aux Vernes Pro - VERNIOZ;1 Place de la Taillanderie, 38150 VERNIOZ;38150;45,42644199999999;4,883074;Crédit Agricole - Sud Rhone Alpes
Relais CA La Fontaine - VERNIOZ;15 Route Du Pilat, 38150 VERNIOZ;38150;45,42736924023004;4,880639496997585;Crédit Agricole - Sud Rhone Alpes
Agence bancaire AGENCE DE VERNOUX;26 Avenue Vincent d'Indy, 07240 VERNOUX EN VIVARAIS;07240;;;Crédit Agricole - Sud Rhone Alpes
Relais CA Tabac Presse Loto - VEZERONCE CURTIN;123 Rue des Vieux Métiers, 38510 VEZERONCE CURTIN;38510;45,6519437;5,471299;Crédit Agricole - Sud Rhone Alpes
Agence bancaire AGENCE DE VIENNE - ESTRESSIN;7, Avenue Marcellin Berthelot, 38200 VIENNE;38200;45,5391206;4,87089157;Crédit Agricole - Sud Rhone Alpes
Agence bancaire AGENCE DE VIENNE - MIREMONT;9, Place Miremont, 38200 VIENNE;38200;45,5241599;4,874875;Crédit Agricole - Sud Rhone Alpes
Agence bancaire AGENCE DE VIENNE ST GERMAIN;ESPACE ST GERMAIN, 30 AVENUE GÉNÉRAL LECLERC, 38200 Vienne;38200;45,5072103;4,858556;Crédit Agricole - Sud Rhone Alpes
Agence bancaire VIENNE - AGENCE PATRIMOINE;1 Rue du Musée, 38200 VIENNE;38200;45,5237674;4,8748996;Crédit Agricole - Sud Rhone Alpes
Agence bancaire AGENCE DE VIF;9, Avenue de Rivalta, 38450 VIF;38450;;;Crédit Agricole - Sud Rhone Alpes
Relais CA Le Panier De Fanny - VIGNIEU;4 Rue du Lion d'Or, 38890 VIGNIEU;38890;45,6276881;5,4240227;Crédit Agricole - Sud Rhone Alpes
Agence bancaire AGENCE DE BRIGNOUD;36 bis Boulevard de la Libération, 38190 Villard Bonnot;38190;;;Crédit Agricole - Sud Rhone Alpes
Agence bancaire AGENCE DE VILLARD DE LANS;Avenue du Général de Gaulle, 38250 VILLARD DE LANS;38250;;;Crédit Agricole - Sud Rhone Alpes
Relais CA Villard Reculas Tourisme - VILLARD RECULAS;1 Route des Pistes, 38114 VILLARD RECULAS;38114;45,0939865;6,0312961;Crédit Agricole - Sud Rhone Alpes
Agence bancaire AGENCE DE VILLENEUVE DE BERG;Place de l'Esplanade, 07170 VILLENEUVE DE BERG;07170;;;Crédit Agricole - Sud Rhone Alpes
Agence bancaire AGENCE DE VINAY;13, Place de l'Hôtel de Ville, 38470 VINAY;38470;;;Crédit Agricole - Sud Rhone Alpes
Agence bancaire AGENCE DE VIRIEU SUR BOURBRE;16, rue Carnot, 38730 VIRIEU SUR BOURBRE;38730;;;Crédit Agricole - Sud Rhone Alpes
Agence bancaire AGENCE DE VIRIVILLE;Place des Buttes, 38980 VIRIVILLE;38980;;;Crédit Agricole - Sud Rhone Alpes
Agence bancaire AGENCE DE VIVIERS;Faubourg St Jacques, 07220 VIVIERS;07220;;;Crédit Agricole - Sud Rhone Alpes
Agence bancaire AGENCE DE VIZILLE;35, Rue de la République, 38220 VIZILLE;38220;;;Crédit Agricole - Sud Rhone Alpes
Agence bancaire AGENCE DE VOIRON;1, place général-Leclerc, 38500 VOIRON;38500;45,3660979;5,5912597;Crédit Agricole - Sud Rhone Alpes
Agence bancaire AGENCE DE VOIRON LES BLANCHISSERIES;Carré des Blanchisseries, rue Jean Monnet, 38500 VOIRON;38500;45,384876;5,578084;Crédit Agricole - Sud Rhone Alpes
Agence bancaire AGENCE DE VOREPPE;Immeuble Alexandre DEBELLE Avenue de Stalingrad, 38340 VOREPPE;38340;;;Crédit Agricole - Sud Rhone Alpes
