nom;adresse;code_postal;latitude;longitude;region_source
Agence bancaire ANGLURE;17 Rue de la Gare, 51260 Anglure;51260;;;Crédit Agricole - Nord Est
Agence bancaire ANIZY LE CHATEAU;7 Rue Carnot, 02320 ANIZY LE CHATEAU;02320;;;Crédit Agricole - Nord Est
Agence bancaire ASFELD;8 Rue Basse, 08190 Asfeld;08190;;;Crédit Agricole - Nord Est
Agence bancaire ATTIGNY;18 Place Charlemagne, 08130 Attigny;08130;;;Crédit Agricole - Nord Est
Agence bancaire AVIZE;43 Rue Ernest Vallé, 51190 AVIZE;51190;;;Crédit Agricole - Nord Est
Agence bancaire AY CHAMPAGNE;70 Rue Roger Sondag, 51160 AY CHAMPAGNE;51160;;;Crédit Agricole - Nord Est
Agence bancaire BAZANCOURT;44 Rue Jean Jaurès, 51110 BAZANCOURT;51110;;;Crédit Agricole - Nord Est
Agence bancaire BEAURIEUX;2 Rue Paul Vincenot, 02160 BEAURIEUX;02160;;;Crédit Agricole - Nord Est
Agence bancaire BETHENIVILLE;3 Place du 8 Mai 1945, 51490 BETHENIVILLE;51490;;;Crédit Agricole - Nord Est
Agence bancaire BETHENY;20 Place des Fleurs, 51450 BETHENY;51450;;;Crédit Agricole - Nord Est
Agence en ligne APY;26 Rue André Pingat, 51100 Reims;51100;49,2601337;4,0228397;Crédit Agricole - Nord Est
Agence bancaire BEZANNES;48 Cours Christian Lange, 51430 BEZANNES;51430;49,222331;3,974003;Crédit Agricole - Nord Est
Agence bancaire BEZANNES - CA DEVELOPPEMENT DU TERRITOIRE;43 Rue Louis Victor de Broglie, 51430 BEZANNES;51430;49,2181617;3,9970527;Crédit Agricole - Nord Est
Agence bancaire CAE INSTITUTIONNELS;43 Rue Louis Victor de Broglie, 51430 BEZANNES;51430;49,2181617;3,9970527;Crédit Agricole - Nord Est
Agence bancaire CAE PROMOTION IMMOBILIERE;43 Rue Louis Victor de Broglie, 51430 BEZANNES;51430;49,2181617;3,9970527;Crédit Agricole - Nord Est
Agence bancaire CENTRE D AFFAIRES ENTREPRISES - REIMS;43 Rue Louis Victor de Broglie, 51430 BEZANNES;51430;49,2192298;3,9945656;Crédit Agricole - Nord Est
Agence bancaire COLLECTIVITES PUBLIQUES NORD EST;43 Rue Louis Victor de Broglie, 51430 BEZANNES;51430;49,2181617;3,9970527;Crédit Agricole - Nord Est
Agence bancaire BOHAIN;37 Rue du Château, 02110 BOHAIN EN VERMANDOIS;02110;;;Crédit Agricole - Nord Est
Agence bancaire BOUZY;1 Rue Pasteur, 51150 BOUZY;51150;;;Crédit Agricole - Nord Est
Agence bancaire BRAINE;16 Rue du Martroy, 02220 BRAINE;02220;;;Crédit Agricole - Nord Est
Agence bancaire BUZANCY;1 Rue de la Petite Barre, 08240 BUZANCY;08240;;;Crédit Agricole - Nord Est
Agence bancaire CARIGNAN;8 Place du Docteur Gairal, 08110 CARIGNAN;08110;;;Crédit Agricole - Nord Est
Agence bancaire CA ENTREPRISES - CHALONS-EN-CHAMPAGNE;1 Rue Thomas Martin, 51000 CHALONS-EN-CHAMPAGNE;51000;48,9547253;4,362465499999985;Crédit Agricole - Nord Est
Agence bancaire CENTRE D AFFAIRES AGRI-VITI - CHALONS-EN-CHAMPAGNE;Complexe du Mont Bernard - Route de Suippes, 51000 CHALONS-EN-CHAMPAGNE;51000;48,982154;4,38148;Crédit Agricole - Nord Est
Agence bancaire CENTRE D AFFAIRES PRO - CHALONS-EN-CHAMPAGNE;1 Rue Thomas Martin, 51000 CHALONS-EN-CHAMPAGNE;51000;48,954823;4,362823;Crédit Agricole - Nord Est
Agence bancaire CHALONS-EN-CHAMPAGNE - REPUBLIQUE;1 Rue Thomas Martin, 51000 CHALONS-EN-CHAMPAGNE;51000;48,954823;4,362823;Crédit Agricole - Nord Est
Agence bancaire CHALONS-EN-CHAMPAGNE - RIVE GAUCHE;32 Avenue de Paris, 51000 CHALONS-EN-CHAMPAGNE;51000;48,951756;4,347709;Crédit Agricole - Nord Est
Agence bancaire LA BANQUE PRIVEE - CHALONS-EN-CHAMPAGNE;1 Rue Thomas Martin, 51000 CHALONS-EN-CHAMPAGNE;51000;48,954823;4,362823;Crédit Agricole - Nord Est
Agence bancaire CENTRE D'AFFAIRES AGRI-VITI - CHAMPIGNY;ZA Les Bonnières La Charme - BAT E - Allée Jean Marie Amelin, 51370 CHAMPIGNY;51370;49,265725;3,963677;Crédit Agricole - Nord Est
Agence bancaire CENTRE D'AFFAIRES PRO - CHAMPIGNY;Parc activités 2 reims Champigny - 4 rue de la Garenne, 51370 champigny;51370;49,26297024;3,962663412;Crédit Agricole - Nord Est
Agence bancaire CHAMPIGNY;4 Rue de la Garenne, 51370 Champigny;51370;49,26295681;3,962975871;Crédit Agricole - Nord Est
Agence bancaire CENTRE D AFFAIRES AGRI-VITI - CHARLEVILLE;1 Rue Jacquemart Templeux, 08000 CHARLEVILLE MEZIERES;08000;49,771941;4,726051;Crédit Agricole - Nord Est
Agence bancaire CENTRE D AFFAIRES ENTREPRISES - CHARLEVILLE;1 Cours Briand, 08000 CHARLEVILLE MEZIERES;08000;49,762085;4,726096;Crédit Agricole - Nord Est
Agence bancaire CENTRE D AFFAIRES PRO - CHARLEVILLE-MEZIERES;1 Cours Briand, 08000 CHARLEVILLE MEZIERES;08000;49,77056;4,718995;Crédit Agricole - Nord Est
Agence bancaire CHARLEVILLE MEZIERES - MOHON;45 Rue Jean Moulin, 08000 CHARLEVILLE MEZIERES;08000;49,752203;4,728588;Crédit Agricole - Nord Est
Agence bancaire CHARLEVILLE-MEZIERES - MANCHESTER;1 Rue du Docteur Guérin, 08000 CHARLEVILLE MEZIERES;08000;49,763369;4,696866;Crédit Agricole - Nord Est
Agence bancaire CHARLEVILLE-MEZIERES - POINT CENTRAL;1 Cours Briand, 08000 CHARLEVILLE MEZIERES;08000;49,77056;4,718995;Crédit Agricole - Nord Est
Agence bancaire CHARLEVILLE-MEZIERES -FOREST;50 Avenue Forest, 08000 CHARLEVILLE MEZIERES;08000;49,77182;4,725547;Crédit Agricole - Nord Est
Agence bancaire LA BANQUE PRIVEE - CHARLEVILLE MEZIERES;3 rue Jacquemart Templeux, 08000 CHARLEVILLE MEZIERES;08000;49,77182;4,725547;Crédit Agricole - Nord Est
Agence bancaire MEZIERES - ARCHES;10 Avenue d Arches, 08000 CHARLEVILLE MEZIERES;08000;49,762579;4,719384;Crédit Agricole - Nord Est
Agence bancaire CHARLY-SUR-MARNE;13 - 15 Rue Emile Morlot, 02310 CHARLY-SUR-MARNE;02310;;;Crédit Agricole - Nord Est
Agence bancaire CENTRE D AFFAIRES PRO - CHATEAU THIERRY JOUSSAUME;2 Avenue Joussaume Latour, 02400 CHATEAU THIERRY;02400;49,044845;3,403746;Crédit Agricole - Nord Est
Agence bancaire CENTRE D'AFFAIRES AGRI-VITI - CHATEAU THIERRY;68 Avenue d'Essômes, 02400 CHATEAU THIERRY;02400;49,037504;3,384351;Crédit Agricole - Nord Est
Agence bancaire CHATEAU-THIERRY - ESSOMES;68 Avenue d'Essômes, 02400 CHATEAU THIERRY;02400;49,037504;3,384351;Crédit Agricole - Nord Est
Agence bancaire CHATEAU-THIERRY - J.LATOUR;2 Avenue Joussaume Latour, 02400 CHATEAU THIERRY;02400;49,044708;3,404032;Crédit Agricole - Nord Est
Agence bancaire LA BANQUE PRIVEE - CHATEAU-THIERRY;2 Avenue Joussaume Latour, 02400 CHATEAU THIERRY;02400;49,044759;3,401668;Crédit Agricole - Nord Est
Agence bancaire CHAUNY;29 Rue Pasteur, 02300 CHAUNY;02300;;;Crédit Agricole - Nord Est
Agence bancaire CORMONTREUIL;11 A Place de la République, 51350 CORMONTREUIL;51350;49,22357;4,052561;Crédit Agricole - Nord Est
Agence bancaire CORMONTREUIL - CARREFOUR;Route de Louvois, 51350 Cormontreuil;51350;49,2105027;4,0509671;Crédit Agricole - Nord Est
Agence bancaire COURTISOLS;Rue Jean Mermoz, 51460 COURTISOLS;51460;;;Crédit Agricole - Nord Est
Agence bancaire CRECY-SUR-SERRE;20 Avenue du Général De Gaulle, 02270 CRECY SUR SERRE;02270;;;Crédit Agricole - Nord Est
Agence bancaire DAMERY;45 Rue Paul Douce, 51480 DAMERY;51480;;;Crédit Agricole - Nord Est
Agence bancaire CENTRE D AFFAIRES AGRI-VITI - DORMANS;16 Place du Luxembourg, 51700 DORMANS;51700;49,076631;3,641247;Crédit Agricole - Nord Est
Agence bancaire DORMANS;17 Place du Luxembourg, 51700 DORMANS;51700;49,076631;3,641247;Crédit Agricole - Nord Est
Agence bancaire CENTRE D'AFFAIRES AGRI-VITI - EPERNAY;8 Avenue Ernest Vallé, 51200 EPERNAY;51200;49,046934;3,952135;Crédit Agricole - Nord Est
Agence bancaire CENTRE D'AFFAIRES PRO - EPERNAY;8 - 18 Avenue Ernest Vallé, 51200 EPERNAY;51200;49,043623;3,955817;Crédit Agricole - Nord Est
Agence bancaire EPERNAY VALLE;8 - 18 Avenue Ernest Vallé, 51200 EPERNAY;51200;49,04739;3,953872;Crédit Agricole - Nord Est
Agence bancaire LA BANQUE PRIVEE - EPERNAY;8 - 18 Avenue Ernest Vallé, 51200 EPERNAY;51200;49,04739;3,953872;Crédit Agricole - Nord Est
Agence bancaire ESTERNAY;6 Rue de la Paix, 51310 ESTERNAY;51310;;;Crédit Agricole - Nord Est
Agence bancaire ETREUX;107 Rue du 2 Septembre, 02510 ETREUX;02510;;;Crédit Agricole - Nord Est
Agence bancaire FAGNIERES;Centre Commercial Centre Ouest - Route d Epernay, 51510 FAGNIERES;51510;;;Crédit Agricole - Nord Est
Agence bancaire FERE-CHAMPENOISE;171 Rue du Mal de Lattre de Tassigny, 51230 FERE CHAMPENOISE;51230;;;Crédit Agricole - Nord Est
Agence bancaire FERE-EN-TARDENOIS;13 - 15 Rue des Marchands, 02130 FERE EN TARDENOIS;02130;;;Crédit Agricole - Nord Est
Agence bancaire FISMES;5 Rue des écoles, 51170 FISMES;51170;;;Crédit Agricole - Nord Est
Agence bancaire FLAVY-LE-MARTEL;32 Rue Roosevelt, 02520 FLAVY LE MARTEL;02520;;;Crédit Agricole - Nord Est
Agence bancaire FLIZE;Route de Sedan, 08160 FLIZE;08160;;;Crédit Agricole - Nord Est
Agence bancaire GIVET - CENTRE;1 Rue Méhul, 08600 GIVET;08600;;;Crédit Agricole - Nord Est
Agence bancaire GUIGNICOURT;20 Avenue Général de Gaulle, 02190 GUIGNICOURT;02190;;;Crédit Agricole - Nord Est
Agence bancaire GUISE;71 Rue des Docteurs Devillers, 02120 GUISE;02120;;;Crédit Agricole - Nord Est
Agence bancaire HERMONVILLE;9 Rue de Reims, 51220 HERMONVILLE;51220;;;Crédit Agricole - Nord Est
Agence bancaire HIRSON - CH. DE GAULE;123 Rue Charles de Gaulle, 02500 HIRSON;02500;;;Crédit Agricole - Nord Est
Agence bancaire JUNIVILLE;63 Rue Alfred Doury, 08310 JUNIVILLE;08310;;;Crédit Agricole - Nord Est
Agence bancaire LA CAPELLE;24 - 26 Avenue du Général de Gaulle, 02260 LA CAPELLE;02260;;;Crédit Agricole - Nord Est
Agence bancaire LA FERE;25 Place Paul Doumer, 02800 LA FERE;02800;;;Crédit Agricole - Nord Est
Agence bancaire CENTRE D AFFAIRES AGRI-VITI - LAON;44 Boulevard Pierre Brossolette, 02000 Laon;02000;49,569394;3,617063;Crédit Agricole - Nord Est
Agence bancaire CENTRE D AFFAIRES ENTREPRISES - AISNE;44 Boulevard Pierre Brossolette, 02000 Laon;02000;49,569394;3,617063;Crédit Agricole - Nord Est
Agence bancaire CENTRE D AFFAIRES PRO - LAON;44 Boulevard Pierre Brossolette, 02000 Laon;02000;49,569394;3,617063;Crédit Agricole - Nord Est
Agence bancaire LA BANQUE PRIVEE - LAON;44 Boulevard Pierre Brossolette, 02000 Laon;02000;49,569394;3,617063;Crédit Agricole - Nord Est
Agence bancaire LAON - BROSSOLETTE;50 - 52 Boulevard Pierre Brossolette, 02000 LAON;02000;49,569384;3,615535;Crédit Agricole - Nord Est
Agence bancaire LAON - CHAMPAGNE;15 Avenue de l Europe, 02000 LAON;02000;49,564026;3,643024;Crédit Agricole - Nord Est
Agence bancaire LE NOUVION-EN-THIERARCHE;34 Place du Général de Gaulle, 02170 LE NOUVION EN THIERACHE;02170;;;Crédit Agricole - Nord Est
Agence bancaire LIART;7 Rue du 328ème RI d'Infanterie, 08290 LIART;08290;;;Crédit Agricole - Nord Est
Agence bancaire MARLE;175 Rue Desains, 02250 Marle;02250;;;Crédit Agricole - Nord Est
Agence bancaire MONTCORNET;12 Rue de la Gare, 02340 MONTCORNET;02340;;;Crédit Agricole - Nord Est
Agence bancaire MONTHERME;10 Rue du Docteur Lemaire, 08800 MONTHERME;08800;;;Crédit Agricole - Nord Est
Agence bancaire MONTMIRAIL;31 Place Remy Petit, 51210 MONTMIRAIL;51210;;;Crédit Agricole - Nord Est
Agence bancaire CENTRE D'AFFAIRES AGRI-VITI - MONTMORT LUCY;25 Rue de la Libération, 51270 MONTMORT LUCY;51270;48,924043;3,806716;Crédit Agricole - Nord Est
Agence bancaire MONTMORT-LUCY;25 Rue de la Libération, 51270 MONTMORT LUCY;51270;48,924043;3,806716;Crédit Agricole - Nord Est
Agence bancaire MOURMELON-LE-GRAND;5 Place Georges Clémenceau, 51400 MOURMELON LE GRAND;51400;;;Crédit Agricole - Nord Est
Agence bancaire NEUILLY-ST-FRONT;4 Rue de la Chapelle, 02470 NEUILLY SAINT FRONT;02470;;;Crédit Agricole - Nord Est
Agence en ligne Nord Est mobility;26 Rue André Pingat, 51100 Reims;51100;49,2602032;4,0228899;Crédit Agricole - Nord Est
Agence bancaire CAE GRANDES CLIENTELES REIMS;25 Rue Libergier, 51100 REIMS;51100;49,2521452;4,0303414;Crédit Agricole - Nord Est
Agence bancaire CENTRE D AFFAIRES AGRI-VITI - REIMS FARMAN;9 Rue Gabriel Voisin, 51100 REIMS;51100;49,233272;4,06785;Crédit Agricole - Nord Est
Agence bancaire CENTRE D AFFAIRES ARTISANS COMMERCANTS - REIMS;9 Place du forum, 51100 REIMS;51100;49,256265;4,032438;Crédit Agricole - Nord Est
Agence bancaire LA BANQUE DU DIRIGEANT REIMS;58 Rue de Talleyrand, 51100 Reims;51100;49,2569033;4,0285261;Crédit Agricole - Nord Est
Agence bancaire LA BANQUE PRIVEE - REIMS;56 Rue de Talleyrand, 51100 REIMS;51100;49,2568525;4,02851;Crédit Agricole - Nord Est
Agence bancaire NORD EST MOBILITY;26 Rue André Pingat, 51100 Reims;51100;49,2601337;4,0228397;Crédit Agricole - Nord Est
Agence bancaire PROFESSIONS LIBERALES - REIMS;56 Rue de Talleyrand, 51100 Reims;51100;49,2568525;4,02851;Crédit Agricole - Nord Est
Agence bancaire REIMS - AGENCE LIBERGIER;25 Rue Libergier, 51100 REIMS;51100;49,252155;4,030366;Crédit Agricole - Nord Est
Agence bancaire REIMS - CITE GAUTHIER;399 Avenue de Laon, 51100 REIMS;51100;49,277598;4,015434;Crédit Agricole - Nord Est
Agence bancaire REIMS - ETAPE;22 Rue de l Etape, 51100 REIMS;51100;49,255593;4,027874;Crédit Agricole - Nord Est
Agence bancaire REIMS - FARMAN;9 Rue Gabriel Voisin, 51100 REIMS;51100;49,233272;4,06785;Crédit Agricole - Nord Est
Agence bancaire REIMS - GAMBETTA;141 Rue Gambetta, 51100 REIMS;51100;49,246678;4,039295;Crédit Agricole - Nord Est
Agence bancaire REIMS - JEAN JAURES;113 Avenue Jean Jaurès, 51100 REIMS;51100;49,260637;4,047379;Crédit Agricole - Nord Est
Agence bancaire REIMS - NORD EST HABITAT;14 Rue André Pingat, 51100 Reims;51100;49,26027879999999;4,0226238;Crédit Agricole - Nord Est
Agence bancaire REIMS - PORTE PARIS;23 Rue du Colonel Fabien, 51100 REIMS;51100;49,249198;4,018088;Crédit Agricole - Nord Est
Agence bancaire REIMS - SAINT MARCEAUX;49 Rue Houzeau Muiron, 51100 REIMS;51100;49,255623;4,046162;Crédit Agricole - Nord Est
Agence bancaire REIMS - SAINT THOMAS;62 Avenue de Laon, 51100 REIMS;51100;49,265244;4,026302;Crédit Agricole - Nord Est
Agence bancaire REIMS - SAINTE ANNE;2 Rue d Estienne d Orves, 51100 REIMS;51100;49,238639;4,030697;Crédit Agricole - Nord Est
Agence bancaire REIMS - SUD;7 Avenue Léon Blum, 51100 REIMS;51100;49,225876;4,010516;Crédit Agricole - Nord Est
Agence bancaire CENTRE D AFFAIRES AGRI-VITI - RETHEL;1 Rue Georges Bizet, 08300 Rethel;08300;49,51349020000001;4,3612698;Crédit Agricole - Nord Est
Agence bancaire CENTRE D AFFAIRES PRO - SUD ARDENNES;1 Rue Georges Bizet, 08300 Rethel;08300;49,51349020000001;4,3612698;Crédit Agricole - Nord Est
Agence bancaire RETHEL;3 Place de la République, 08300 RETHEL;08300;49,508237;4,365786;Crédit Agricole - Nord Est
Agence bancaire REVIN;23 Rue Gambetta, 08500 REVIN;08500;;;Crédit Agricole - Nord Est
Agence bancaire RIBEMONT;62 Rue Blondel, 02240 RIBEMONT;02240;;;Crédit Agricole - Nord Est
Agence bancaire RILLY-LA-MONTAGNE;1 Rue de la République, 51500 RILLY LA MONTAGNE;51500;;;Crédit Agricole - Nord Est
Agence bancaire ROCROI;11 Place d Armes, 08230 ROCROI;08230;;;Crédit Agricole - Nord Est
Agence bancaire SAINT MEMMIE;Centre commercial du Corbusier - Rue de Poix, 51470 SAINT MEMMIE;51470;48,952786;4,382742;Crédit Agricole - Nord Est
Agence bancaire SAINT MEMMIE ROOSEVELT;77 Avenue du Président Roosevelt, 51470 SAINT MEMMIE;51470;48,944893;4,382957;Crédit Agricole - Nord Est
Agence bancaire CENTRE D AFFAIRES AGRI-VITI - SAINT QUENTIN;4 Rue des Suzannes, 02100 SAINT QUENTIN;02100;49,846908;3,293229;Crédit Agricole - Nord Est
Agence bancaire CENTRE D'AFFAIRES PRO - SAINT QUENTIN;130 Bis Rue du Général Leclerc, 02100 SAINT QUENTIN;02100;49,836346;3,3054;Crédit Agricole - Nord Est
Agence bancaire LA BANQUE PRIVEE - SAINT QUENTIN;17 Place de l'Hôtel de Ville, 02100 SAINT QUENTIN;02100;49,846099;3,286184;Crédit Agricole - Nord Est
Agence bancaire ST QUENTIN - EUROPE;48 Avenue Robert Schumann, 02100 SAINT QUENTIN;02100;49,860659;3,299186;Crédit Agricole - Nord Est
Agence bancaire ST QUENTIN - FAUBOURG D'ISLE;130 Rue du Général Leclerc, 02100 SAINT QUENTIN;02100;49,83864;3,302394;Crédit Agricole - Nord Est
Agence bancaire ST QUENTIN - HOTEL-DE-VILLE;17 Place de l Hôtel de Ville, 02100 SAINT QUENTIN;02100;49,846096;3,288373;Crédit Agricole - Nord Est
Agence bancaire ST QUENTIN - SUZANNES;4 Rue des Suzannes, 02100 SAINT QUENTIN;02100;49,846957;3,292833;Crédit Agricole - Nord Est
Agence bancaire SAINTE MENEHOULD;5 Rue Drouet, 51800 SAINTE MENEHOULD;51800;;;Crédit Agricole - Nord Est
Agence bancaire CENTRE D'AFFAIRES PRO - SEDAN;5 Rue de la République, 08200 SEDAN;08200;49,700147;4,945501;Crédit Agricole - Nord Est
Agence bancaire SEDAN - CENTRE;5 Rue de la République, 08200 SEDAN;08200;49,700147;4,945501;Crédit Agricole - Nord Est
Agence bancaire SEDAN - TORCY;8 Boulevard Chanzy, 08200 SEDAN;08200;49,701316;4,926973;Crédit Agricole - Nord Est
Agence bancaire SERMAIZE LES BAINS;4 Rue de Saint Dizier, 51250 SERMAIZE LES BAINS;51250;;;Crédit Agricole - Nord Est
Agence bancaire CENTRE D AFFAIRES AGRI-VITI - SEZANNE;ZI de l Ormelot - 44 Rue de la Maladrerie, 51120 SEZANNE;51120;48,723399;3,723083;Crédit Agricole - Nord Est
Agence bancaire CENTRE D AFFAIRES PRO - SEZANNE;ZI de l Ormelot - 44 Rue de la Maladrerie, 51120 SEZANNE;51120;48,723399;3,723083;Crédit Agricole - Nord Est
Agence bancaire SEZANNE;32 Place de la République, 51120 SEZANNE;51120;48,723399;3,723083;Crédit Agricole - Nord Est
Agence bancaire SIGNY L ABBAYE;25 Rue de Thin, 08460 SIGNY L'ABBAYE;08460;;;Crédit Agricole - Nord Est
Agence bancaire SIGNY LE PETIT;10 Place de l'Église, 08380 Signy-le-Petit;08380;;;Crédit Agricole - Nord Est
Agence bancaire CENTRE D'AFFAIRES AGRI-VITI - SOISSONS;5 Place de la République, 02200 SOISSONS;02200;49,376256;3,330329;Crédit Agricole - Nord Est
Agence bancaire CENTRE D'AFFAIRES PRO - SOISSONS;5 Place de la République, 02200 SOISSONS;02200;49,376256;3,330329;Crédit Agricole - Nord Est
Agence bancaire LA BANQUE PRIVEE - SOISSONS;5 place de la République, 02200 SOISSONS;02200;49,37675956;3,330054512;Crédit Agricole - Nord Est
Agence bancaire SOISSONS - CENTRE;1 Rue du Commerce, 02200 Soissons;02200;49,3814042;3,3276706;Crédit Agricole - Nord Est
Agence bancaire SOISSONS - REPUBLIQUE;5 Place de la République, 02200 SOISSONS;02200;49,375308;3,328366;Crédit Agricole - Nord Est
Agence bancaire SUIPPES;4 Rue Chevallot-Aubert, 51600 SUIPPES;51600;;;Crédit Agricole - Nord Est
Agence bancaire TERGNIER;2 Boulevard Gustave Grégoire, 02700 TERGNIER;02700;;;Crédit Agricole - Nord Est
Agence bancaire TINQUEUX;53 Avenue Sarah Bernhardt, 51430 TINQUEUX;51430;;;Crédit Agricole - Nord Est
Agence bancaire CENTRE D AFFAIRES AGRI-VITI - VERTUS;35 Boulevard Paul Goerg, 51130 VERTUS;51130;48,903698;4,004631;Crédit Agricole - Nord Est
Agence bancaire VERTUS;35 Boulevard Paul Goerg, 51130 VERTUS;51130;48,903627;4,004367;Crédit Agricole - Nord Est
Agence bancaire CENTRE D AFFAIRES AGRI-VITI - VERVINS;12 Ter Rue Dusolon, 02140 VERVINS;02140;49,835375;3,911028;Crédit Agricole - Nord Est
Agence bancaire CENTRE D AFFAIRES PRO - THIERACHE;12 Ter Rue Dusolon, 02140 VERVINS;02140;49,835375;3,911028;Crédit Agricole - Nord Est
Agence bancaire VERVINS;12 Ter Rue Dusolon, 02140 VERVINS;02140;49,835375;3,911028;Crédit Agricole - Nord Est
Agence bancaire VERZY;5 Rue Chanzy, 51380 VERZY;51380;;;Crédit Agricole - Nord Est
Agence bancaire VIC SUR AISNE;13 Rue Saint Christophe, 02290 VIC SUR AISNE;02290;;;Crédit Agricole - Nord Est
Agence bancaire VILLERS-COTTERETS;43 Rue du Général Mangin, 02600 VILLERS COTTERETS;02600;;;Crédit Agricole - Nord Est
Agence bancaire CENTRE D AFFAIRES AGRI-VITI - VITRY-LE-FRANCOIS;1 Rue Aristide Briand, 51300 Vitry-le-François;51300;48,7236046;4,5834625;Crédit Agricole - Nord Est
Agence bancaire CENTRE D AFFAIRES PRO - VITRY-LE-FRANCOIS;22 Place de la Halle, 51300 Vitry-le-François;51300;48,7271423;4,584927899999999;Crédit Agricole - Nord Est
Agence bancaire VITRY-LE-FRANCOIS - LES HALLES;22 Place de la Halle, 51300 Vitry-le-François;51300;48,7271423;4,5849279;Crédit Agricole - Nord Est
Agence bancaire CENTRE D AFFAIRES AGRI-VITI - VOUZIERS;28 - 30 Place Carnot, 08400 VOUZIERS;08400;49,398129;4,701055;Crédit Agricole - Nord Est
Agence bancaire VOUZIERS;28 - 30 Place Carnot, 08400 VOUZIERS;08400;49,397934;4,701241;Crédit Agricole - Nord Est
Agence bancaire VRIGNE AUX BOIS;25 Place de la République, 08330 VRIGNE AUX BOIS;08330;;;Crédit Agricole - Nord Est
Agence bancaire WITRY-LES-REIMS;2 Place Jacques Brel, 51420 WITRY LES REIMS;51420;;;Crédit Agricole - Nord Est
