nom;adresse;code_postal;latitude;longitude;region_source
Agence bancaire AUFFAY;2 Rue Roger Fossé, 76720 Auffay;76720;;;Crédit Agricole - Normandie Seine
Agence bancaire AUMALE;2 Rue René Gicquel, 76390 Aumale;76390;;;Crédit Agricole - Normandie Seine
Agence bancaire BACQUEVILLE EN CAUX;22 Place du Général de Gaulle, 76730 Bacqueville-en-Caux;76730;;;Crédit Agricole - Normandie Seine
Agence bancaire BARENTIN VILLE;8 Rue du Général Giraud, 76360 Barentin;76360;;;Crédit Agricole - Normandie Seine
Agence bancaire BEAUMONT LE ROGER;49 Rue Saint-Nicolas, 27170 Beaumont-le-Roger;27170;;;Crédit Agricole - Normandie Seine
Agence bancaire BERNAY;Rue de Cosnier, 27300 Bernay;27300;49,0880789;0,5884525000000167;Crédit Agricole - Normandie Seine
Agence bancaire PÔLE PROFESSIONNEL BERNAY;Rue de Cosnier, 27300 Bernay;27300;49,0880789;0,5884525000000167;Crédit Agricole - Normandie Seine
Agence bancaire BEUZEVILLE;97 Rue de Verdun, 27210 Beuzeville;27210;;;Crédit Agricole - Normandie Seine
Agence bancaire BLANGY SUR BRESLE;18 Grande Rue François Mitterand, 76340 Blangy-sur-Bresle;76340;;;Crédit Agricole - Normandie Seine
Agence bancaire BOIS-GUILLAUME MAIRIE;338 Rue de la République, 76230 Bois-Guillaume;76230;49,47095818048991;1,115821519846918;Crédit Agricole - Normandie Seine
Agence bancaire Secteur digital;Cité de l'Agriculture, 76230 Bois-Guillaume;76230;49,47526;1,114612;Crédit Agricole - Normandie Seine
Agence bancaire BOLBEC;1 Place Félix Faure, 76210 Bolbec;76210;;;Crédit Agricole - Normandie Seine
Agence bancaire BOOS;100 Rue d'Uelzen, 76520 Boos;76520;;;Crédit Agricole - Normandie Seine
Agence bancaire BOSC LE HARD;82 Rue du Grand Tendos, 76850 Bosc-le-Hard;76850;;;Crédit Agricole - Normandie Seine
Agence bancaire BOURG ACHARD;405 Grande Rue, 27310 Bourg-Achard;27310;;;Crédit Agricole - Normandie Seine
Agence bancaire GRAND BOURGTHEROULDE;Grande Rue, 27520 Bourgtheroulde-Infreville;27520;;;Crédit Agricole - Normandie Seine
Agence bancaire BRETEUIL;8 Rue Aristide Briand, 27160 Breteuil;27160;;;Crédit Agricole - Normandie Seine
Agence bancaire BRIONNE;15 Rue de la Soie, 27800 Brionne;27800;;;Crédit Agricole - Normandie Seine
Agence bancaire BROGLIE;12 Rue Augustin Fresnel, 27270 Broglie;27270;;;Crédit Agricole - Normandie Seine
Agence bancaire BUCHY;118 Route de Forges, 76750 Buchy;76750;;;Crédit Agricole - Normandie Seine
Agence bancaire CANTELEU;8 Avenue du Président Allende, 76380 Canteleu;76380;;;Crédit Agricole - Normandie Seine
Agence bancaire CANY BARVILLE;39 Place Robert Gabel, 76450 Cany-Barville;76450;;;Crédit Agricole - Normandie Seine
Agence bancaire CONCHES EN OUCHE;30 Place Carnot, 27190 Conches-en-Ouche;27190;;;Crédit Agricole - Normandie Seine
Agence bancaire CORMEILLES;1 Place du Général de Gaulle, 27260 Cormeilles;27260;;;Crédit Agricole - Normandie Seine
Agence bancaire CRIEL SUR MER;34 Rue de la Libération, 76910 Criel-sur-Mer;76910;;;Crédit Agricole - Normandie Seine
Agence bancaire CRIQUETOT L ESNEVAL;6 Place du Général Leclerc, 76280 Criquetot-l'Esneval;76280;;;Crédit Agricole - Normandie Seine
Agence bancaire MESNILS SUR ITON;2 Place de la Halle, 27240 Damville;27240;;;Crédit Agricole - Normandie Seine
Agence bancaire DARNETAL;66 Rue Sadi Carnot, 76160 Darnétal;76160;;;Crédit Agricole - Normandie Seine
Agence bancaire DEVILLE LES ROUEN;284 Route de Dieppe, 76250 Déville-lès-Rouen;76250;;;Crédit Agricole - Normandie Seine
Agence bancaire DIEPPE;200 Grande Rue, 76200 Dieppe;76200;49,9250936;1,075044700000035;Crédit Agricole - Normandie Seine
Agence bancaire DIEPPE BELVEDERE;Centre Commercial du Belvédère - Avenue des Canadiens, 76200 Dieppe;76200;49,90952206796756;1,078752232922739;Crédit Agricole - Normandie Seine
Agence bancaire NEUVILLE LES DIEPPE;2 Place Henri Dunant, 76200 Dieppe;76200;49,9286109;1,10163829999999;Crédit Agricole - Normandie Seine
Agence bancaire PÔLE PROFESSIONNEL DIEPPE;200 Grande Rue, 76200 Dieppe;76200;49,9250936;1,075044700000035;Crédit Agricole - Normandie Seine
Agence bancaire DOUDEVILLE;10 Rue de L Hôtel de ville, 76560 Doudeville;76560;;;Crédit Agricole - Normandie Seine
Agence bancaire DUCLAIR;360 Quai de la Libération, 76480 Duclair;76480;;;Crédit Agricole - Normandie Seine
Agence bancaire ELBEUF;50 Rue des Martyrs, 76500 Elbeuf;76500;;;Crédit Agricole - Normandie Seine
Agence bancaire ENVERMEU;7 PLACE DU MARCHE, 76630 Envermeu;76630;;;Crédit Agricole - Normandie Seine
Agence bancaire EU;10 Place Guillaume le Conquérant, 76260 Eu;76260;;;Crédit Agricole - Normandie Seine
Agence en ligne Crédit Agricole Normandie-Seine;5 Rue de la Rochette, 27000 Évreux;27000;49,0269919;1,1434575;Crédit Agricole - Normandie Seine
Agence bancaire BANQUE PRIVÉE ÉVREUX;5 Rue de la Rochette, 27000 Evreux;27000;49,027164;1,1433274;Crédit Agricole - Normandie Seine
Agence bancaire Centre d'Affaires EVREUX;5 Rue de la Rochette, 27000 Evreux;27000;49,027164;1,1433274;Crédit Agricole - Normandie Seine
Agence bancaire EVREUX CENTRE;1 Rue Chartraine, 27000 Evreux;27000;49,026349;1,148139899999933;Crédit Agricole - Normandie Seine
Agence bancaire EVREUX ROCHETTE;5 Rue de la Rochette, 27000 Evreux;27000;49,0274169;1,1433724;Crédit Agricole - Normandie Seine
Agence bancaire EVREUX SUD;75 B Rue Jean Moulin, 27000 Evreux;27000;49,01003619999999;1,152153399999975;Crédit Agricole - Normandie Seine
Agence bancaire PÔLE PROFESSIONNEL ÉVREUX;1 Rue Chartraine, 27000 Evreux;27000;49,026349;1,148139899999933;Crédit Agricole - Normandie Seine
Agence bancaire ETRETAT;2 Rue Prosper Brindejont, 76790 Étretat;76790;;;Crédit Agricole - Normandie Seine
Agence bancaire ETREPAGNY;18 Rue du Maréchal Foch, 27150 Étrépagny;27150;;;Crédit Agricole - Normandie Seine
Agence bancaire EZY SUR EURE;2 Rue Octave Lenoir, 27530 Ézy-sur-Eure;27530;;;Crédit Agricole - Normandie Seine
Agence bancaire FECAMP;63 Rue Jacques Huet, 76400 Fécamp;76400;49,7571463;0,3779007000000547;Crédit Agricole - Normandie Seine
Agence bancaire Pôle PRO-AGRI YVETOT-FECAMP;63 Rue Jacques Huet, 76400 Fécamp;76400;49,7571463;0,3779007000000547;Crédit Agricole - Normandie Seine
Agence bancaire FLEURY SUR ANDELLE;20 Rue Pouyer Quertier, 27380 Fleury-sur-Andelle;27380;;;Crédit Agricole - Normandie Seine
Agence bancaire FONTAINE LE DUN;94 Rue Louis Pasteur, 76740 Fontaine-le-Dun;76740;;;Crédit Agricole - Normandie Seine
Agence bancaire FORGES LES EAUX;11 Place Brevière, 76440 Forges-les-Eaux;76440;;;Crédit Agricole - Normandie Seine
Agence bancaire FRANQUEVILLE SAINT PIERRE;1228 Route de Paris, 76520 Franqueville-Saint-Pierre;76520;;;Crédit Agricole - Normandie Seine
Agence bancaire GAILLON;25 Avenue du Maréchal Leclerc, 27600 Gaillon;27600;;;Crédit Agricole - Normandie Seine
Agence bancaire GASNY;Route de Fourges, 27620 Gasny;27620;;;Crédit Agricole - Normandie Seine
Agence bancaire GISORS;18 Rue Général de Gaulle, 27140 Gisors;27140;;;Crédit Agricole - Normandie Seine
Agence bancaire GODERVILLE;5 Place Godard des Vaux, 76110 Goderville;76110;;;Crédit Agricole - Normandie Seine
Agence bancaire GOURNAY EN BRAY;17 Place nationale, 76220 Gournay-en-Bray;76220;49,48189598340047;1,72388027927741;Crédit Agricole - Normandie Seine
Agence bancaire PÔLE PROFESSIONNEL GOURNAY-EN-BRAY;17 Place nationale, 76220 Gournay-en-Bray;76220;49,4818803;1,723987399999942;Crédit Agricole - Normandie Seine
Agence bancaire GRAND COURONNE;67 Rue Georges Clemenceau, 76530 Grand-Couronne;76530;;;Crédit Agricole - Normandie Seine
Agence bancaire GRAVIGNY;109 Avenue Aristide Briand, 27930 Gravigny;27930;;;Crédit Agricole - Normandie Seine
Agence bancaire HARFLEUR;22 Rue de la République, 76700 Harfleur;76700;;;Crédit Agricole - Normandie Seine
Agence bancaire Centre d'Affaires ROUEN;Immeuble Victoria 375 ctre Allée - Route de Neufchatel, 76230 Isneauville;76230;49,49006661552673;1,1413406420711;Crédit Agricole - Normandie Seine
Agence bancaire ISNEAUVILLE;40, Allée du Manoir Domaine du Manoir, 76230 ISNEAUVILLE;76230;49,49571289329411;1,149487495422363;Crédit Agricole - Normandie Seine
Agence bancaire POLE ASSISTANCE PRO AGRI BP;375 Contre-Allée Route de Neufchâtel, 76230 Isneauville;76230;49,48969899999999;1,141622;Crédit Agricole - Normandie Seine
Agence bancaire IVRY LA BATAILLE;100 Rue Henri 4, 27540 Ivry-la-Bataille;27540;;;Crédit Agricole - Normandie Seine
Agence bancaire LA BARRE EN OUCHE;28 Rue Grande Rue, 27330 La Barre-en-Ouche;27330;;;Crédit Agricole - Normandie Seine
Agence bancaire GRAND QUEVILLY;108 Avenue des Provinces, 76120 Le Grand-Quevilly;76120;;;Crédit Agricole - Normandie Seine
Agence bancaire BANQUE PRIVÉE LE HAVRE;62 Rue Marceau, 76600 Le Havre;76600;49,4889728;0,1349242;Crédit Agricole - Normandie Seine
Agence bancaire Centre d'Affaires HAVRE-FECAMP;62 rue Marceau, 76600 Le Havre;76600;49,49266020328331;0,1197843758006911;Crédit Agricole - Normandie Seine
Agence bancaire LE HAVRE CAUCRIAUVILLE;221 Avenue du 8 Mai 1945, 76610 Le Havre;76610;49,51182130000001;0,1751693999999588;Crédit Agricole - Normandie Seine
Agence bancaire LE HAVRE COLBERT;12 Cours Commandant Fratacci, 76600 Le Havre;76600;49,4913932;0,1238651;Crédit Agricole - Normandie Seine
Agence bancaire LE HAVRE COTY;29 Avenue René Coty, 76600 Le Havre;76600;49,496347;0,1097614999999905;Crédit Agricole - Normandie Seine
Agence bancaire LE HAVRE GRAVILLE;181 Rue de Verdun, 76600 Le Havre;76600;49,502428;0,162053;Crédit Agricole - Normandie Seine
Agence bancaire LE HAVRE LES HALLES;56 Rue Bernardin de Saint-Pierre, 76600 Le Havre;76600;49,4912919;0,1053473;Crédit Agricole - Normandie Seine
Agence bancaire LE HAVRE MONT GAILLARD;Centre Commercial Grand Cap, ZAC du Mont Gaillard, 76620 Le Havre;76620;49,52162236376505;0,1109271581708526;Crédit Agricole - Normandie Seine
Agence bancaire LE HAVRE SAINTE CECILE;2 Place de la Liberté, 76610 Le Havre;76610;49,5055656;0,1429454000000305;Crédit Agricole - Normandie Seine
Agence bancaire LE HAVRE SANVIC;2 Rue Irène Joliot Curie, 76620 Le Havre;76620;49,5059851;0,1008558999999423;Crédit Agricole - Normandie Seine
Agence bancaire PÔLE PROFESSIONNEL LE HAVRE;62 rue Marceau, 76600 Le Havre;76600;49,4924708;0,1173499999999876;Crédit Agricole - Normandie Seine
Agence bancaire MESNIL ESNARD;80 Route de Paris, 76240 Le Mesnil-Esnard;76240;;;Crédit Agricole - Normandie Seine
Agence bancaire LE NEUBOURG;38 Rue de la République, 27110 Le Neubourg;27110;;;Crédit Agricole - Normandie Seine
Agence bancaire PETIT QUEVILLY;76 avenue jean jaurès, 76140 Le Petit-Quevilly;76140;;;Crédit Agricole - Normandie Seine
Agence bancaire LE TRAIT;650 Rue Raymond Breteche, 76580 Le Trait;76580;;;Crédit Agricole - Normandie Seine
Agence bancaire LE TREPORT;41-42 Quai François 1er, 76470 Le Tréport;76470;;;Crédit Agricole - Normandie Seine
Agence bancaire LE VAUDREUIL;6 Rue du Général de Gaulle, 27100 Le Vaudreuil;27100;;;Crédit Agricole - Normandie Seine
Agence bancaire LES ANDELYS;7 Place Nicolas Poussin, 27700 Les Andelys;27700;;;Crédit Agricole - Normandie Seine
Agence bancaire LES GRANDES VENTES;35 Route de Dieppe, 76950 Les Grandes-Ventes;76950;;;Crédit Agricole - Normandie Seine
Agence bancaire LIEUREY;7 Grande Rue, 27560 Lieurey;27560;;;Crédit Agricole - Normandie Seine
Agence bancaire LILLEBONNE;11 Place du Général de Gaulle, 76170 Lillebonne;76170;;;Crédit Agricole - Normandie Seine
Agence bancaire LONDINIERES;1 Rue Maréchal Leclerc, 76660 Londinières;76660;;;Crédit Agricole - Normandie Seine
Agence bancaire LONGUEVILLE SUR SCIE;Rue Berthet Burlet, 76590 Longueville-sur-Scie;76590;;;Crédit Agricole - Normandie Seine
Agence bancaire LOUVIERS;1 Rue Delamare, 27400 Louviers;27400;49,214156;1,165745000000015;Crédit Agricole - Normandie Seine
Agence bancaire POLE PRO-AGRI DE LOUVIERS;1 Rue Delamare, 27400 Louviers;27400;49,2144325;1,165734;Crédit Agricole - Normandie Seine
Agence bancaire LUNERAY;14 Rue du Général de Gaulle, 76810 Luneray;76810;;;Crédit Agricole - Normandie Seine
Agence bancaire MAROMME;17 Rue des Martyrs de la Résistance, 76150 Maromme;76150;;;Crédit Agricole - Normandie Seine
Agence bancaire MONT SAINT AIGNAN;2a Place des Coquets, 76130 Mont-Saint-Aignan;76130;49,4627712;1,0802314;Crédit Agricole - Normandie Seine
Agence bancaire PÔLE PROFESSIONNEL BOIS-GUILLAUME;13 Route d'Houppeville, 76130 Mont-Saint-Aignan;76130;49,4733611;1,092195599999968;Crédit Agricole - Normandie Seine
Agence bancaire MONTFORT SUR RISLE;57 Rue Saint-Pierre, 27290 Montfort-sur-Risle;27290;;;Crédit Agricole - Normandie Seine
Agence bancaire MONTIVILLIERS;9 Rue René Coty, 76290 Montivilliers;76290;;;Crédit Agricole - Normandie Seine
Agence bancaire MONTVILLE;2 Place de la République, 76710 Montville;76710;;;Crédit Agricole - Normandie Seine
Agence bancaire NEUFCHATEL EN BRAY;9 Grande Rue Notre Dame, 76270 Neufchâtel-en-Bray;76270;;;Crédit Agricole - Normandie Seine
Agence bancaire NONANCOURT;18 Place Aristide Briand, 27320 Nonancourt;27320;;;Crédit Agricole - Normandie Seine
Agence bancaire OCTEVILLE SUR MER;37 Rue Félix Faure, 76930 Octeville-sur-Mer;76930;;;Crédit Agricole - Normandie Seine
Agence bancaire OFFRANVILLE;15 Place Jean Dasnias, 76550 Offranville;76550;;;Crédit Agricole - Normandie Seine
Agence bancaire OISSEL;2 Place de la République, 76350 Oissel;76350;;;Crédit Agricole - Normandie Seine
Agence bancaire PACY SUR EURE;93 Rue Edouard Isambard, 27120 Pacy-sur-Eure;27120;;;Crédit Agricole - Normandie Seine
Agence bancaire PAVILLY;22 Rue Jean Maillard, 76570 Pavilly;76570;;;Crédit Agricole - Normandie Seine
Agence bancaire PETIT COURONNE;1231 Rue Aristide Briand, 76650 Petit-Couronne;76650;;;Crédit Agricole - Normandie Seine
Agence bancaire PONT AUDEMER;2 Rue du Général Leclerc, 27500 Pont-Audemer;27500;49,3545448;0,5130183999999645;Crédit Agricole - Normandie Seine
Agence bancaire PÔLE PROFESSIONNEL PONT-AUDEMER;2 Rue du Général Leclerc, 27500 Pont-Audemer;27500;49,3545448;0,5130183999999645;Crédit Agricole - Normandie Seine
Agence bancaire PONT DE L'ARCHE;3 Rue Alphonse Samain, 27340 Pont-de-l'Arche;27340;;;Crédit Agricole - Normandie Seine
Agence bancaire PONT SAINT PIERRE;6 Grande Rue, 27360 Pont-Saint-Pierre;27360;;;Crédit Agricole - Normandie Seine
Agence bancaire RIVES EN SEINE;Rue de la Vicomte, 76490 Rives-en-Seine;76490;;;Crédit Agricole - Normandie Seine
Agence bancaire BANQUE PRIVÉE ROUEN;37 Rue Jeanne d'Arc, 76000 Rouen;76000;49,4425798;1,090717899999959;Crédit Agricole - Normandie Seine
Agence bancaire PÔLE EXPERT - PROFESSIONS MÉDICALES;74 route de Lyons-La-Forêt, Immeuble Rouen Innovation Santé, 76000 Rouen;76000;49,4425964;1,110582199999953;Crédit Agricole - Normandie Seine
Agence bancaire PÔLE PROFESSIONNEL ROUEN;37 Rue Jeanne d'Arc, 76000 Rouen;76000;49,4425798;1,090717899999959;Crédit Agricole - Normandie Seine
Agence bancaire ROUEN GARE;103 Rue Jeanne d'Arc, 76000 Rouen;76000;49,4473832;1,093557000000032;Crédit Agricole - Normandie Seine
Agence bancaire ROUEN JEANNE D'ARC;37 Rue Jeanne d'Arc, 76000 Rouen;76000;49,4425798;1,090717899999959;Crédit Agricole - Normandie Seine
Agence bancaire ROUEN SAINT MARC;1001 Place Saint-Marc, 76000 Rouen;76000;49,4381105;1,100600399999962;Crédit Agricole - Normandie Seine
Agence bancaire ROUEN SAINT SEVER;31 Rue Saint-Sever, 76100 Rouen;76100;49,4339419;1,089086100000031;Crédit Agricole - Normandie Seine
Agence bancaire RUGLES;2 Rue des Forges, 27250 Rugles;27250;;;Crédit Agricole - Normandie Seine
Agence bancaire RY;33 Rue Grand' Rue, 76116 Ry;76116;;;Crédit Agricole - Normandie Seine
Agence bancaire SAINT ANDRE DE L'EURE;23 Rue du Chanoine Boulogne, 27220 Saint-André-de-l'Eure;27220;;;Crédit Agricole - Normandie Seine
Agence bancaire SAINT ETIENNE DU ROUVRAY;38 Rue Lazare Carnot, 76800 Saint-Étienne-du-Rouvray;76800;49,3793237;1,107552899999973;Crédit Agricole - Normandie Seine
Agence bancaire SAINT ETIENNE DU ROUVRAY LE MADRILLET;93 Rue du Madrillet, 76800 Saint-Étienne-du-Rouvray;76800;49,3994578;1,074621200000024;Crédit Agricole - Normandie Seine
Agence bancaire SAINT MARCEL;27 Rue des Prés, 27950 Saint-Marcel;27950;;;Crédit Agricole - Normandie Seine
Agence bancaire SAINT NICOLAS D'ALIERMONT;1 Rue Robert Lefranc, 76510 Saint-Nicolas-d'Aliermont;76510;;;Crédit Agricole - Normandie Seine
Agence bancaire SAINT PIERRE LES ELBEUF;7 Allée Louise Michel, 76320 Saint-Pierre-lès-Elbeuf;76320;;;Crédit Agricole - Normandie Seine
Agence bancaire SAINT ROMAIN DE COLBOSC;1 Avenue Gén de Gaulle, 76430 Saint-Romain-de-Colbosc;76430;;;Crédit Agricole - Normandie Seine
Agence bancaire SAINT SAENS;3 Place Maintenon, 76680 Saint-Saëns;76680;;;Crédit Agricole - Normandie Seine
Agence bancaire SAINT VALERY EN CAUX;16 Quai d'Amont, 76460 Saint-Valery-en-Caux;76460;;;Crédit Agricole - Normandie Seine
Agence bancaire SOTTEVILLE JARDIN DES PLANTES;1 Place des Martyrs de la Résistance, 76300 Sotteville-lès-Rouen;76300;49,4197509;1,0787014;Crédit Agricole - Normandie Seine
Agence bancaire SOTTEVILLE LES ROUEN;36 Place de l'Hôtel de ville, 76300 Sotteville-lès-Rouen;76300;49,414495;1,09053670000003;Crédit Agricole - Normandie Seine
Agence bancaire TERRES DE CAUX;775 Rue Bernard Thelu, 76640 Terres-de-Caux;76640;;;Crédit Agricole - Normandie Seine
Agence bancaire THIBERVILLE;36 Rue de Bernay, 27230 Thiberville;27230;;;Crédit Agricole - Normandie Seine
Agence bancaire TOTES;8 Rue Guy de Maupassant, 76890 Totes;76890;;;Crédit Agricole - Normandie Seine
Agence bancaire VAL DE REUIL;483 Chaussée de la Voie Blanche, 27100 Val-de-Reuil;27100;;;Crédit Agricole - Normandie Seine
Agence bancaire VERNEUIL D AVRE ET D ITON;408 Rue de la Madeleine, 27130 Verneuil d'Avre et d'Iton;27130;;;Crédit Agricole - Normandie Seine
Agence bancaire PÔLE PROFESSIONNEL VERNON;2 place d'evreux, 27200 Vernon;27200;49,0916694;1,481876000000057;Crédit Agricole - Normandie Seine
Agence bancaire VERNON;2 place d'evreux, 27200 Vernon;27200;49,09233018191134;1,481734639215347;Crédit Agricole - Normandie Seine
Agence bancaire YERVILLE;2 Rue Maître Halley, 76760 Yerville;76760;;;Crédit Agricole - Normandie Seine
Agence bancaire Bureau pôle PRO-AGRI YVETOT-FECAMP;29 Le Mail, 76190 Yvetot;76190;49,616504;0,754101999999989;Crédit Agricole - Normandie Seine
Agence bancaire YVETOT;29 Le Mail, 76190 Yvetot;76190;49,616504;0,754101999999989;Crédit Agricole - Normandie Seine
