nom,adresse,code_postal,latitude,longitude
AGENCE CHENOVE - BNP PARIBAS,"73 avenue Roland Carraz, 21300  Chenove",21300,47.295983691045,5.0185570699752
AGENCE DIJON FACULTES - BNP PARIBAS,"12 boulevard De L'Universite, 21000  Dijon",21000,47.3131261,5.0537461
AGENCE DIJON DARCY - BNP PARIBAS,"1 place Darcy, 21000  Dijon",21000,47.3230159,5.0346294
Cash Services - Dijon 3 PLACE FRANCOIS RUDE,"3 PLACE FRANCOIS RUDE, 21000  Dijon",21000,47.322362,5.038798
AGENCE DIJON REPUBLIQUE - BNP PARIBAS,"7-9 place De La Republique, 21000  Dijon",21000,47.327351776239,5.0443682239426
Cash Services - Dijon 50 BOULEVARD JEANNE D ARC,"50 BOULEVARD JEANNE D ARC, 21000  Dijon",21000,47.317294,5.065297
AGENCE QUETIGNY GRAND MARCHE - BNP PARIBAS,"22 boulevard Du Champ Aux Metiers, 21800  Quetigny",21800,47.307935989748,5.1009258325409
AGENCE DIJON TOISON D OR - BNP PARIBAS,"85 avenue De Langres, Le Calypso, 21000  Dijon",21000,47.3467447255,5.0449074459407
Cash Services - St Apollinaire 605 ROUTE DE GRAY,"605 ROUTE DE GRAY, 21850  St Apollinaire",21850,47.336703,5.102324
Cash Services - Beaune 14 RUE GUSTAVE EIFFEL,"14 RUE GUSTAVE EIFFEL, 21200  Beaune",21200,47.040953,4.844771
Cash Services - Auxonne 104 RUE EMILE GRUET,"104 RUE EMILE GRUET, 21130  Auxonne",21130,47.192835,5.389197
AGENCE BEAUNE - BNP PARIBAS,"26 place Carnot, 21200  Beaune",21200,47.0221409,4.8384383
Cash Services - Pouilly En Auxois 11 AVENUE GENERAL DE GAULLE,"11 AVENUE GENERAL DE GAULLE, 21320  Pouilly En Auxois",21320,47.262969,4.55539
AGENCE DOLE - BNP PARIBAS,"41 Grande Rue, 39100  Dole",39100,47.092409091234,5.4931867294304
Cash Services - Gray 7 QUAI MAVIA,"7 QUAI MAVIA, 70100  Gray",70100,47.448403,5.586371
Cash Services - Gray PLACE DU GENERAL DE GAULLE,"PLACE DU GENERAL DE GAULLE, 70100  Gray",70100,47.445537,5.592195
AGENCE GRAY - BNP PARIBAS,"4 place Du 4 Septembre, 70100  Gray",70100,47.448530333615,5.5911738280334
AGENCE CHALON SUR SAONE AVENUE DE PARIS - BNP PARIBAS,"141 avenue De Paris, 71100  Chalon Sur Saone",71100,46.797441108557,4.8473493147499
AGENCE CHALON SUR SAONE REPUBLIQUE - BNP PARIBAS,"6 boulevard De La Republique, 71100  Chalon Sur Saone",71100,46.7842554,4.8515692
Cash Services - St Marcel 30 ROUTE DE DOLE,"30 ROUTE DE DOLE, 71380  St Marcel",71380,46.776502,4.8967
AGENCE CHALON MAISON DES PROFESSIONNELS - BNP PARIBAS,"30 avenue Georges Pompidou, 71100  Chalon-Sur-Saone",71100,46.7812894,4.8444614
Cash Services - Marnay 2 RUE FERNAND PERROT,"2 RUE FERNAND PERROT, 70150  Marnay",70150,47.289556,5.763521
Cash Services - Montbard PLACE LEON GAMBETTA,"PLACE LEON GAMBETTA, 21500  Montbard",21500,47.62313,4.338995
AGENCE AUTUN - BNP PARIBAS,"5 avenue Charles De Gaulle, 71400  Autun",71400,46.950581608337,4.2981988257776
AGENCE LE CREUSOT - BNP PARIBAS,"65 rue Du Marechal Foch, 71200  Le Creusot",71200,46.804944059337,4.43873448158
AGENCE CHATILLON SUR SEINE - BNP PARIBAS,"18 rue Du Mal De Lattre De Tassigny, 21400  Chatillon Sur Seine",21400,47.859527154436,4.5723807449833
Cash Services - Chatillon Sur Seine 5 PLACE MARMONT,"5 PLACE MARMONT, 21400  Chatillon Sur Seine",21400,47.861768,4.575072
Cash Services - Poligny 18 PLACE DES DEPORTES,"18 PLACE DES DEPORTES, 39800  Poligny",39800,46.833802,5.708915
Cash Services - Chatillon Sur Seine CHAUSSEE DE L EUROPE,"CHAUSSEE DE L EUROPE, 21400  Chatillon Sur Seine",21400,47.867477,4.570922
AGENCE BESANCON TREPILLOT - BNP PARIBAS,"22 rue Auguste Jouchoux, 25000  Besancon",25000,47.240253249347,5.9871191834245
AGENCE BESANCON LA BOUCLE - BNP PARIBAS,"34 Grande Rue, 25000  Besancon",25000,47.2384565054,6.0228363100482
Cash Services - Besancon 4 RUE DE LA PREFECTURE,"4 RUE DE LA PREFECTURE, 25000  Besancon",25000,47.235922,6.026047
Cash Services - Besancon 11 CHEMIN DE PRABEY,"11 CHEMIN DE PRABEY, 25000  Besancon",25000,47.271203,6.028338
AGENCE BESANCON - BNP PARIBAS,"1 rue De La Prefecture, 25000  Besancon",25000,47.235901374032,6.0262970018714
Cash Services - Besancon 121 RUE DE BELFORT,"121 RUE DE BELFORT, 25000  Besancon",25000,47.252578,6.036277
AGENCE LONS LE SAUNIER - BNP PARIBAS,"22 rue Saint-Desire, 39000  Lons-Le-Saunier",39000,46.673422,5.5511878
AGENCE BESANCON PALENTE - BNP PARIBAS,"50 chemin De Charigney, 25000  Besancon",25000,47.261218087223,6.04890864683
AGENCE TOURNUS - BNP PARIBAS,"2 place De L Hotel De Ville, 71700  Tournus",71700,46.561954267609,4.9127380181428
AGENCE MONTCEAU LES MINES - BNP PARIBAS,"48 rue Carnot, 71300  Montceau Les Mines",71300,46.6720671,4.3613039
AGENCE AVALLON - BNP PARIBAS,"9 bis place Vauban, 89200  Avallon",89200,47.489756802122,3.9084118738234
Cash Services - Champagnole RUE DE CHEVRU,"RUE DE CHEVRU, 39300  Champagnole",39300,46.748773,5.915836
AGENCE VESOUL - BNP PARIBAS,"4 rue Du Commandant Girardot, 70000  Vesoul",70000,47.618451177042,6.1539247766171
Cash Services - Perrecy Les Forges 5 PLACE DE L HOTEL DE VILLE,"5 PLACE DE L HOTEL DE VILLE, 71420  Perrecy Les Forges",71420,46.614415,4.215636
Cash Services - Vesoul 33 RUE DE LA VAUGINE,"33 RUE DE LA VAUGINE, 70000  Vesoul",70000,47.641894,6.144566
Cash Services - Vesoul 26 RUE DE PONTARCHER,"26 RUE DE PONTARCHER, 70000  Vesoul",70000,47.630845,6.168167
AGENCE CLUNY - BNP PARIBAS,"2 rue Merciere, 71250  Cluny",71250,46.43371448619,4.6581437438375
AGENCE CORBIGNY - BNP PARIBAS,"avenue Saint Jean, 58800  Corbigny",58800,47.255402560328,3.6811773826581
AGENCE TONNERRE - BNP PARIBAS,"3 rue De L Hotel De Ville, 89700  Tonnerre",89700,47.855865680383,3.9736651772758
AGENCE GUEUGNON - BNP PARIBAS,"32 rue De La Liberte, 71130  Gueugnon",71130,46.600780242107,4.0620897552253
AGENCE CHABLIS - BNP PARIBAS,"16 rue Porte Noel, 89800  Chablis",89800,47.81483226576,3.8008997804632
AGENCE CHARNAY LES MACON - BNP PARIBAS,"133 place Mommessin, Espace Mommessin Bat A, 71850  Charnay Les Macon",71850,46.3095135097,4.8126070618812
AGENCE MACON - BNP PARIBAS,"24 rue Philibert Laguiche, 71000  Macon",71000,46.305653995581,4.8338598170013
Cash Services - Pontarlier 6 RUE EUGENE THEVENIN,"6 RUE EUGENE THEVENIN, 25300  Pontarlier",25300,46.900483,6.337161
AGENCE PONTARLIER - BNP PARIBAS,"5 place Roger Salengro, 25300  Pontarlier",25300,46.903661006374,6.3521883156792
AGENCE CLAMECY - BNP PARIBAS,"3 place Emile Zola, 58500  Clamecy",58500,47.459642414261,3.5210683803566
AGENCE PARAY LE MONIAL - BNP PARIBAS,"31-33 avenue Charles De Gaulle, 71600  Paray Le Monial",71600,46.4491081,4.1171292
Cash Services - St Loup Sur Semouse 25 RUE HENRY GUY,"25 RUE HENRY GUY, 70800  St Loup Sur Semouse",70800,47.88446,6.274258
AGENCE DIGOIN - BNP PARIBAS,"5 rue Du Centre, 71160  Digoin",71160,46.480434713278,3.9783643857925
AGENCE BOURBON LANCY - BNP PARIBAS,"3 place De La Republique, 71140  Bourbon Lancy",71140,46.620598005529,3.772069664418
AGENCE HAUT - JURA - BNP PARIBAS,"385 rue Pasteur, 39220  Les Rousses",39220,46.484096646851,6.0605308846557
AGENCE LUXEUIL LES BAINS - BNP PARIBAS,"16 rue Jules Jeanneney, 70300  Luxeuil Les Bains",70300,47.8150237,6.3812025
AGENCE LURE - BNP PARIBAS,"49 avenue De La Republique, 70200  Lure",70200,47.685898516946,6.495256792625
AGENCE LA CLAYETTE - BNP PARIBAS,"35 Rue Centrale, 71800  La Clayette",71800,46.291561,4.3061972
AGENCE AUXERRE ARQUEBUSE - BNP PARIBAS,"1 place De L Arquebuse, 89000  Auxerre",89000,47.791500401949,3.5667325507916
AGENCE AUXERRE - BNP PARIBAS,"1bis-1ter Rue De La Laicite, 89000  Auxerre",89000,47.791488863676,3.5666625430611
Cash Services - Auxerre 11 BIS AVENUE CHARLES DE GAULLE,"11 BIS AVENUE CHARLES DE GAULLE, 89000  Auxerre",89000,47.802443,3.567106
AGENCE MORTEAU - BNP PARIBAS,"2 Grande Rue, 25500  Morteau",25500,47.0556108,6.6064649
AGENCE SAINT FLORENTIN - BNP PARIBAS,"3 rue Dilo, 89600  St Florentin",89600,48.001585934352,3.7295529466221
Cash Services - Fougerolles St Valbert 6 RUE DE LA GARE,"6 RUE DE LA GARE, FOUGEROLLES, 70220  Fougerolles St Valbert",70220,47.886809,6.405979
AGENCE DECIZE - BNP PARIBAS,"21 place Saint Just, 58300  Decize",58300,46.828901471774,3.4639807110451
Cash Services - Decize 9 PLACE DU CHAMP DE FOIRE,"9 PLACE DU CHAMP DE FOIRE, BP 10064, 58302  Decize",58302,46.8301,3.462197
Cash Services - Ronchamp 16 PLACE DU 14 JUILLET,"16 PLACE DU 14 JUILLET, BP 24, 70250  Ronchamp",70250,47.699339,6.63048
AGENCE MIGENNES - BNP PARIBAS,"10 place Du 19 Mars 1962, Les Halles Du Canal, 89400  Migennes",89400,47.962229800421,3.5149425285945
AGENCE MONTBELIARD - BNP PARIBAS,"27 rue Cuvier, 25200  Montbeliard",25200,47.51002075776,6.7994849707989
AGENCE AUDINCOURT - BNP PARIBAS,"57 Grande Rue, 25400  Audincourt",25400,47.483296978435,6.8393461392711
Cash Services - Exincourt 4 RUE PHILIPPE GOUDEY,"4 RUE PHILIPPE GOUDEY, 25400  Exincourt",25400,47.496876,6.837004
Cash Services - Migennes LES LATTEUX,"LES LATTEUX, 89400  Migennes",89400,48.004384,3.459471
AGENCE NEVERS - BNP PARIBAS,"2 Avenue Saint Just, 58000  Nevers",58000,46.9904853,3.1580018
AGENCE JOIGNY - BNP PARIBAS,"15 quai Henri Ragobert, 89300  Joigny",89300,47.981488696445,3.3974981416404
Cash Services - Joigny 2 AVENUE GAMBETTA,"2 AVENUE GAMBETTA, 89300  Joigny",89300,47.980394,3.395272
Cash Services - Danjoutin 7 RUE D ANDELNANS,"7 RUE D ANDELNANS, 90400  Danjoutin",90400,47.615348,6.86289
AGENCE BELFORT FAUBOURG DES VOSGES - BNP PARIBAS,"194 avenue Jean Jaures, 90000  Belfort",90000,47.65433328887,6.8485701112102
AGENCE BELFORT - BNP PARIBAS,"14 C Faubourg De Montbeliard, 90000  Belfort",90000,47.636197,6.8576692
Cash Services - Belfort 114 AVENUE JEAN JAURES,"114 AVENUE JEAN JAURES, 90000  Belfort",90000,47.649664,6.85318
AGENCE LA CHARITE SUR LOIRE - BNP PARIBAS,"6-8 Grande Rue Francois Mitterand, 58400  La Charite-Sur-Loire",58400,47.1771212,3.0170062
AGENCE COSNE COURS SUR LOIRE - BNP PARIBAS,"1 place Georges Clemenceau, 58200  Cosne Cours Sur Loire",58200,47.4097731,2.9259264
AGENCE CHARNY - BNP PARIBAS,"12 Grande Rue, 89120  Charny Oree De Puisaye",89120,47.885915364717,3.0954307559685
AGENCE SENS - BNP PARIBAS,"73 Grande Rue, 89100  Sens",89100,48.197184969385,3.2805168228253
