nom,adresse,code_postal,latitude,longitude
AGENCE BRIGNOLES - BNP PARIBAS,"51 boulevard Bernard Long, Zi Les Consacs, 83170  Brignoles",83170,43.406757636219,6.0549476497375
Cash Services - Le Luc 13 PLACE DE LA LIBERTE,"13 PLACE DE LA LIBERTE, 83340  Le Luc",83340,43.394497,6.31267
AGENCE SAINT MAXIMIN LA SAINTE BAUME - BNP PARIBAS,"14 avenue Albert 1Er, 83470  Saint Maximin La Sainte Baume",83470,43.453453400104,5.8595070122685
Cash Services - St Maximin La Ste Baume RUE DE LA CROIX ROUGE,"RUE DE LA CROIX ROUGE, 83470  St Maximin La Ste Baume",83470,43.447191,5.861204
AGENCE ROCBARON - BNP PARIBAS,"zac Du Fray Redon, 83136  Rocbaron",83136,43.315636367812,6.0767118811355
AGENCE LE CANNET DES MAURES - BNP PARIBAS,"1675 route Departementale 7, 83340  Le Cannet Des Maures",83340,43.4049261,6.4031818
AGENCE DRAGUIGNAN - BNP PARIBAS,"13-15 boulevard Du Marechal Foch, 83300  Draguignan",83300,43.539012516584,6.4626717209529
Cash Services - Draguignan 11 AVENUE LAZARE CARNOT,"11 AVENUE LAZARE CARNOT, 83300  Draguignan",83300,43.535894,6.466021
Cash Services - Les Arcs 600 ROUTE DEPARTEMENTALE 555,"600 ROUTE DEPARTEMENTALE 555, 83460  Les Arcs",83460,43.463956,6.480306
Cash Services - Cuers 1 RUE PAUL BERT,"1 RUE PAUL BERT, 83390  Cuers",83390,43.23808,6.072674
AGENCE CUERS - BNP PARIBAS,"6 place De La Convention, 83390  Cuers",83390,43.237965498286,6.0728742559128
AGENCE LE MUY - BNP PARIBAS,"40 boulevard De La Liberation, 83490  Le Muy",83490,43.470852055864,6.5619010877663
AGENCE TRETS - BNP PARIBAS,"30 avenue Jean Jaures, 13530  Trets",13530,43.448104220837,5.6873093755313
AGENCE SOLLIES PONT - BNP PARIBAS,"2 Rue De La Republique, Residence Les Cerises, 83210  Sollies-Pont",83210,43.1932008,6.0410673
AGENCE MANOSQUE LE FORUM - BNP PARIBAS,"341 Avenue Du Moulin Neuf, 04100  Manosque",04100,43.8296508,5.796088
AGENCE ROUSSET - BNP PARIBAS,"18 avenue Francis Perrin, 27 Parc Club, 13790  Rousset",13790,43.465717193942,5.6096772422932
Cash Services - Grimaud PARKING,"PARKING, PORT GRIMAUD, 83310  Grimaud",83310,43.274387,6.52189
AGENCE LA CRAU - BNP PARIBAS,"6 avenue De La Gare, 83260  La Crau",83260,43.147571772925,6.0699738857199
AGENCE LA DESTROUSSE - BNP PARIBAS,"122 avenue Des Marronniers, Immeuble Ferrato, 13112  La Destrousse",13112,43.388442949794,5.5996131235412
Cash Services - La Destrousse 53 AVENUE DES MARRONNIERS,"53 AVENUE DES MARRONNIERS, 13112  La Destrousse",13112,43.387526,5.599861
AGENCE COGOLIN - BNP PARIBAS,"rue Marceau / Angle Rue Hoche, 83310  Cogolin",83310,43.250297858326,6.5321727431863
AGENCE LE BEAUSSET - BNP PARIBAS,"1 place Du General De Gaulle, 83330  Le Beausset",83330,43.197495103649,5.8018044968547
Cash Services - Le Beausset PLACE CHARLES DE GAULLE,"PLACE CHARLES DE GAULLE, 83330  Le Beausset",83330,43.197202,5.80204
AGENCE PUGET SUR ARGENS - BNP PARIBAS,"622 rue Du General De Gaulle, 83480  Puget Sur Argens",83480,43.452631506727,6.6908097814953
AGENCE LA VALETTE DU VAR - BNP PARIBAS,"124 avenue Anatole France, 83160  La Valette Du Var",83160,43.136905862874,5.9802188442382
Cash Services - Grimaud CAMP LES PRAIRIES,"CAMP LES PRAIRIES, PORT GRIMAUD, 83310  Grimaud",83310,43.280995,6.582732
AGENCE HYERES - BNP PARIBAS,"3 Avenue Du Docteur Jean-jacques Perron, 83400  Hyeres",83400,43.1196819,6.1282214
AGENCE HYERES GARE - BNP PARIBAS,"60 avenue Godillot, 83400  Hyeres",83400,43.110063610894,6.1242833533604
AGENCE SAINTE MAXIME - BNP PARIBAS,"1 Avenue Du 8 Mai 1945, 83120  Ste Maxime",83120,43.3099086,6.6342396
Cash Services - Toulon 555 BOULEVARD MARECHAL JOFFRE,"555 BOULEVARD MARECHAL JOFFRE, 83100  Toulon",83100,43.124363,5.95474
AGENCE LE LAVANDOU - BNP PARIBAS,"33 rue Du General De Gaulle, 83980  Le Lavandou",83980,43.138689123078,6.3694364842331
AGENCE TOULON OPERA - BNP PARIBAS,"21 boulevard De Strasbourg, 83000  Toulon",83000,43.124869013981,5.9318887425034
AGENCE LE PRADET - BNP PARIBAS,"100 avenue De La 1Ere Dfl, 83220  Le Pradet",83220,43.106768094942,6.020941267814
AGENCE OLLIOULES - BNP PARIBAS,"53 rue Nationale, 83190  Ollioules",83190,43.138254661267,5.8486754962952
AGENCE TOULON LE MOURILLON - BNP PARIBAS,"345 Boulevard De Bazeilles, Immeuble Le Panama, 83000  Toulon",83000,43.1118308,5.9363064
AGENCE FREJUS - BNP PARIBAS,"232 rue Jean Jaures, 83600  Frejus",83600,43.433911430893,6.7370284322403
Cash Services - Hyeres PORT ST PIERRE,"PORT ST PIERRE, 83400  Hyeres",83400,43.085634,6.157771
Cash Services - Ollioules 1256 AVENUE JEAN MONNET,"1256 AVENUE JEAN MONNET, 83190  Ollioules",83190,43.127103,5.861041
AGENCE SAINT TROPEZ - BNP PARIBAS,"105 Rue Du General Allard, 83990  Saint-Tropez",83990,43.269865,6.6366515
AGENCE FREJUS TOUR DE MARE - BNP PARIBAS,"21 avenue Des Emeraudes, Le Cournillier, 83600  Frejus",83600,43.450053901947,6.7553838540844
Cash Services - Frejus 26 AVENUE DE PORT FREJUS,"26 AVENUE DE PORT FREJUS, 83600  Frejus",83600,43.423319,6.747336
AGENCE VENELLES - BNP PARIBAS,"place Du Ventoux, Residence Le Ventoux Batiment 2, 13770  Venelles",13770,43.596281100495,5.4845675592736
AGENCE CAVALAIRE SUR MER - BNP PARIBAS,"81 Av. Pierre Rameil, 83240  Cavalaire-Sur-Mer",83240,43.1732556,6.5294621
AGENCE SAINT CYR SUR MER - BNP PARIBAS,"29 rue De La Republique, 83270  St Cyr Sur Mer",83270,43.1816455,5.7109894
AGENCE AUBAGNE GARLABAN - BNP PARIBAS,"265 route De La Ciotat, 13400  Aubagne",13400,43.286015374405,5.5812286464391
Cash Services - Venelles 30 AVENUE DE LA GRANDE BEGUDE,"30 AVENUE DE LA GRANDE BEGUDE, 13770  Venelles",13770,43.588687,5.477653
AGENCE MONTAUROUX - BNP PARIBAS,"quartier Les Chaumettes, 83440  Montauroux",83440,43.602759576758,6.7767170188713
AGENCE PERTUIS ROUTE D'AIX - BNP PARIBAS,"43 a route D'Aix En Provence, 84120  Pertuis",84120,43.684640167323,5.5018817793762
AGENCE AUBAGNE - BNP PARIBAS,"1 Avenue Jeanne D'arc, 13400  Aubagne",13400,43.2947016,5.5669117
AGENCE LA SEYNE SUR MER - BNP PARIBAS,"15 avenue Garibaldi, 83500  La Seyne Sur Mer",83500,43.099105322822,5.8837017495912
AGENCE SAINT RAPHAEL - BNP PARIBAS,"171 boulevard De La Liberation, 83700  Saint-Raphael",83700,43.42179318287,6.769219610334
AGENCE SANARY SUR MER - BNP PARIBAS,"boulevard De L Avenir, L Empire, 83110  Sanary Sur Mer",83110,43.116810968486,5.8053338334129
AGENCE GARDANNE - BNP PARIBAS,"6 rue Jules Ferry, 13120  Gardanne",13120,43.453677159145,5.4693585004939
AGENCE SAINT RAPHAEL CERCERON - BNP PARIBAS,"boulevard Du Cerceron, Espace Baudino, 83700  St Raphael",83700,43.437605945006,6.783695099768
AGENCE BANDOL - BNP PARIBAS,"2 rue Des Ecoles, 83150  Bandol",83150,43.1362084,5.7530735
AGENCE AIX EN PROVENCE JUSTICE - BNP PARIBAS,"1 rue Rifle Rafle, 13100  Aix En Provence",13100,43.529564607392,5.4493696964151
Cash Services - La Seyne Sur Mer AVENUE CHARLES DE GAULLE,"AVENUE CHARLES DE GAULLE, 83500  La Seyne Sur Mer",83500,43.080187,5.890165
AGENCE AIX EN PROVENCE COURS MIRABEAU - BNP PARIBAS,"6 Cours Mirabeau, 13100  Aix-En-Provence",13100,43.5262151,5.4468037
AGENCE SIX FOURS LES PLAGES - BNP PARIBAS,"90 avenue De La Mer, 83140  Six Fours Les Plages",83140,43.095225416918,5.8332099221249
AGENCE AIX EN PROVENCE COURS SEXTIUS - BNP PARIBAS,"6 cours Sextius, 13100  Aix-En-Provence",13100,43.5276519,5.4431758
Cash Services - Aix En Provence 30 AVENUE DE L EUROPE,"30 AVENUE DE L EUROPE, 13090  Aix En Provence",13090,43.52426,5.43479
Cash Services - La Ciotat 14 AVENUE DE SAINT JEAN,"14 AVENUE DE SAINT JEAN, 13600  La Ciotat",13600,43.187549,5.626588
AGENCE LA CIOTAT DULAC - BNP PARIBAS,"avenue Guillaume Dulac, 13600  La Ciotat",13600,43.195036407399,5.6125685059346
Cash Services - Aix En Provence ALLEE D ESTIENNE D ORVES,"ALLEE D ESTIENNE D ORVES, 13090  Aix En Provence",13090,43.522268,5.420993
AGENCE ALLAUCH - BNP PARIBAS,"386 boulevard Henri Tasso, 13190  Allauch",13190,43.341559480725,5.4724832825257
AGENCE MARSEILLE LA VALENTINE 4 SAISONS - BNP PARIBAS,"111 route Des Camoins, 13011  Marseille",13011,43.298291955856,5.4980296459632
AGENCE PLAN DE CUQUES - BNP PARIBAS,"avenue Du 18 Juin, 13380  Plan-De-Cuques",13380,43.346991163253,5.4642178747299
AGENCE AIX LES DEUX ORMES - BNP PARIBAS,"645 route De Berre, Centre Commercial Les Deux Ormes, 13100  Aix En Provence",13100,43.534691811729,5.409231801611
Cash Services - La Ciotat 9 BOULEVARD ANATOLE FRANCE,"9 BOULEVARD ANATOLE FRANCE, 13600  La Ciotat",13600,43.175038,5.610194
AGENCE LA CIOTAT - BNP PARIBAS,"6 quai Francois Mitterrand, 13600  La Ciotat",13600,43.174386998792,5.6064795656414
AGENCE CHATEAU - GOMBERT - BNP PARIBAS,"107 Boulevard Bara, 13013  Marseille",13013,43.3473555,5.4500661
AGENCE AIX LA PIOLINE - BNP PARIBAS,"za La Pioline Lot37, 13100  Aix-En-Provence",13100,43.507569531383,5.3996572821091
Cash Services - Marseille ROUTE DE LA SABLIERE,"ROUTE DE LA SABLIERE, 13011  Marseille",13011,43.292554,5.479475
Cash Services - Marseille 8 ROUTE DE LA SABLIERE,"8 ROUTE DE LA SABLIERE, 13011  Marseille",13011,43.290112,5.477909
AGENCE BOUC BEL AIR - BNP PARIBAS,"route Nationale 8, Quartier San Baquis, 13320  Bouc Bel Air",13320,43.449256810808,5.3978899263582
AGENCE CASSIS - BNP PARIBAS,"37 avenue Victor Hugo, 13260  Cassis",13260,43.214697481673,5.5394849380287
AGENCE PEYMEINADE - BNP PARIBAS,"5 Avenue De Boutiny, Quartier Saint Marc, 06530  Peymeinade",06530,43.6404666,6.8771965
AGENCE MARSEILLE BEAUMONT - BNP PARIBAS,"117 avenue Du 24 Avril 1915, 13012  Marseille",13012,43.308268420355,5.4350965870636
AGENCE DIGNE - BNP PARIBAS,"3 Boulevard Thiers, 04000  Digne-Les-Bains",04000,44.0910236,6.2320705
AGENCE MARSEILLE SAINT BARNABE - BNP PARIBAS,"134 rue Montaigne, 13012  Marseille",13012,43.303772624375,5.4172690471339
AGENCE MARSEILLE BLANCARDE SAKAKINI - BNP PARIBAS,"7-9 Boulevard Sakakini, 13004  Marseille",13004,43.2987203,5.4013383
AGENCE PEGOMAS - BNP PARIBAS,"77 avenue De Grasse, Quartier Du Logis, 06580  Pegomas",06580,43.593522555891,6.9287843109889
AGENCE MANDELIEU LA NAPOULE - BNP PARIBAS,"437 avenue De Cannes, 06210  Mandelieu La Napoule",06210,43.543858255654,6.9371253328646
AGENCE MARSEILLE ROUVIERE - BNP PARIBAS,"83 boulevard Du Redon, La Rouviere, 13009  Marseille",13009,43.252793086382,5.4231302961709
Cash Services - Marseille 88 BOULEVARD DU CABOT,"88 BOULEVARD DU CABOT, 13009  Marseille",13009,43.25734,5.418557
AGENCE MARSEILLE CHAVE - BNP PARIBAS,"71 Boulevard Chave, 13005  Marseille",13005,43.295447,5.3917261
AGENCE MARSEILLE SAINTE MARGUERITE - BNP PARIBAS,"158 boulevard Sainte Marguerite, 13009  Marseille",13009,43.266132537865,5.4080986179833
AGENCE MARSEILLE SAINT LOUIS - BNP PARIBAS,"102 Av. de Saint-Louis, 13015  Marseille",13015,43.3462519,5.3594245
Cash Services - Marseille 19 BOULEVARD DE SAINTE MARGUERITE,"19 BOULEVARD DE SAINTE MARGUERITE, 13009  Marseille",13009,43.269068,5.403755
AGENCE MARSEILLE CASTELLANE - BNP PARIBAS,"3 Place Castellane, 13006  Marseille",13006,43.2864012,5.3839557
AGENCE MARSEILLE SAINT FERREOL - BNP PARIBAS,"59 rue Saint Ferreol, 13001  Marseille",13001,43.292877187721,5.3787746436021
AGENCE GRASSE QUATRE CHEMINS - BNP PARIBAS,"2 route De Cannes, 06130  Grasse",06130,43.644703499643,6.9410419074918
AGENCE MARSEILLE ROND POINT DU PRADO - BNP PARIBAS,"294 avenue Du Prado, 13008  Marseille",13008,43.273348064625,5.3903681724631
AGENCE MARSEILLE CAP JOLIETTE - BNP PARIBAS,"5 boulevard De Dunkerque, 13002  Marseille",13002,43.3056192,5.3669135
AGENCE MARSEILLE PARADIS - BNP PARIBAS,"425 rue Paradis, 13008  Marseille",13008,43.2745077901,5.3849783114673
AGENCE MARSEILLE SAINTE ANNE - BNP PARIBAS,"325 avenue De Mazargues, 13008  Marseille",13008,43.260844033542,5.3940666185143
AGENCE MARSEILLE SAINT VICTOR - BNP PARIBAS,"112 boulevard De La Corderie, 13007  Marseille",13007,43.290192677138,5.3674509784628
AGENCE MARSEILLE PRADO - BNP PARIBAS,"475 avenue Du Prado, 13008  Marseille",13008,43.2658094,5.3818088
AGENCE MARSEILLE INTERNATIONAL - BNP PARIBAS,"475 Avenue Du Prado, 13008  Marseille",13008,43.2658094,5.3818088
Cash Services - Marseille 490 AVENUE DU PRADO,"490 AVENUE DU PRADO, 13008  Marseille",13008,43.266689,5.381114
AGENCE MARSEILLE BONNEVEINE - BNP PARIBAS,"141 avenue De Hambourg, 13008  Marseille",13008,43.247604297802,5.3931721189796
Cash Services - Mouans Sartoux 27 AVENUE DE CANNES,"27 AVENUE DE CANNES, 06370  Mouans Sartoux",06370,43.62032,6.971092
AGENCE MOUANS SARTOUX - BNP PARIBAS,"116 avenue De Cannes, 06370  Mouans Sartoux",06370,43.619458125315,6.9713652798893
AGENCE CANNES LA BOCCA - BNP PARIBAS,"10 rue Monseigneur Jeancard, 06400  Cannes",06400,43.550361236452,6.9778000094174
AGENCE MOUGINS TOURNAMY - BNP PARIBAS,"Place Du Marché Neuf, 06250  Mougins",06250,43.604710302348,6.987575266201
AGENCE APT - BNP PARIBAS,"79 place De La Bouquerie, 84400  Apt",84400,43.876276623716,5.3933019882209
AGENCE CHATEAUNEUF DE GRASSE - BNP PARIBAS,"45 rue D'Opio, 06740  Chateauneuf Grasse",06740,43.678104520595,6.9743497668691
AGENCE LE CANNET ROCHEVILLE - BNP PARIBAS,"73 avenue Franklin Roosevelt, Le Mercurey, 06110  Le Cannet",06110,43.572948341349,6.9998198842219
AGENCE LAMBESC - BNP PARIBAS,"8 route D Aix, 13410  Lambesc",13410,43.651985334932,5.2635944169563
Cash Services - Le Cannet 113 BOULEVARD PAUL DOUMER,"113 BOULEVARD PAUL DOUMER, 06110  Le Cannet",06110,43.569173,7.005737
AGENCE VITROLLES - BNP PARIBAS,"Centre Urbain Arcade Des Citeaux, 13127  Vitrolles",13127,43.447224858046,5.2499792675285
AGENCE LE CANNET - BNP PARIBAS,"100-102 Boulevard Sidi Carnot, 06110  Le Cannet",06110,43.5673998,7.0157481
AGENCE VALBONNE - BNP PARIBAS,"16 rue D Opio, 06560  Valbonne",06560,43.642771075037,7.007835814753
AGENCE CANNES BUTTURA - BNP PARIBAS,"23 rue D'Antibes, 06400  Cannes",06400,43.5525863,7.0182957
AGENCE CANNES INTERNATIONAL - BNP PARIBAS,"23 Rue D'antibes, 06405  Cannes",06405,43.5525863,7.0182957
Cash Services - La Roquette Sur Siagne 938 BD DE LA REPUBL,"938 BD DE LA REPUBL, 06550  La Roquette Sur Siagne",06550,43.558679,7.022076
AGENCE ROGNAC - BNP PARIBAS,"85 boulevard Jean Jaures, 13340  Rognac",13340,43.48821468357,5.2298521149044
AGENCE CANNES CALIFORNIE - BNP PARIBAS,"42 avenue Du Marechal Juin, 06400  Cannes",06400,43.548853864585,7.0353438380982
AGENCE SOPHIA ANTIPOLIS - BNP PARIBAS,"695 route Des Dolines, Parc De Sophia Antipolis, 06560  Valbonne",06560,43.62209312059,7.0391449321052
AGENCE SISTERON - BNP PARIBAS,"151 rue De Provence, 04200  Sisteron",04200,44.196246808557,5.9418899668648
AGENCE MARIGNANE - BNP PARIBAS,"4-8 avenue Jean Jaures, 13700  Marignane",13700,43.418192381486,5.2174167407296
Cash Services - Vallauris 1 AVENUE DU TAPIS VERT,"1 AVENUE DU TAPIS VERT, 06220  Vallauris",06220,43.576174,7.056478
AGENCE GOLFE JUAN - BNP PARIBAS,"24 avenue De La Gare, 06220  Vallauris",06220,43.567214393502,7.0741255354696
Cash Services - Tourrettes Sur Loup PLACE DE LA LIBERATION,"PLACE DE LA LIBERATION, 06140  Tourrettes Sur Loup",06140,43.716652,7.058921
Cash Services - Berre L Etang 14 AVENUE DE LA LIBERATION,"14 AVENUE DE LA LIBERATION, 13130  Berre L Etang",13130,43.477215,5.168149
AGENCE ANTIBES CROIX ROUGE - BNP PARIBAS,"1160 route De Grasse, Riviera Park, 06600  Antibes",06600,43.594640145836,7.09423487155
AGENCE BIOT - BNP PARIBAS,"495 route De La Mer, Centre Commercial De Biot 3000, 06410  Biot",06410,43.625003801152,7.1032554067806
AGENCE JUAN LES PINS - BNP PARIBAS,"14 Avenue Du Marechal Joffre, 06160  Juan Les Pins",06160,43.5692457,7.1108566
AGENCE ANTIBES - BNP PARIBAS,"9 avenue Robert Soleau, 06600  Antibes",06600,43.581418538951,7.1205567388574
AGENCE LA COLLE SUR LOUP - BNP PARIBAS,"boulevard Honore Teisseire, 06480  La Colle Sur Loup",06480,43.685026726012,7.107953220546
Cash Services - Vence 69 AVENUE EMILE HUGUES,"69 AVENUE EMILE HUGUES, 06140  Vence",06140,43.722595,7.108464
Cash Services - Colmars RD 208 ECOLE COMMUNALE,"RD 208 ECOLE COMMUNALE, 04370  Colmars",04370,44.180599,6.626832
Cash Services - Villeneuve Loubet 8 AVENUE DOCTEUR JULIEN LEFEBVRE,"8 AVENUE DOCTEUR JULIEN LEFEBVRE, 06270  Villeneuve Loubet",06270,43.635242,7.13215
AGENCE VENCE - BNP PARIBAS,"28 place Du Grand Jardin, 06140  Vence",06140,43.72247711253,7.1111982714015
AGENCE SAINT PAUL DE VENCE - BNP PARIBAS,"rond point Sainte Claire, 06570  Saint Paul De Vence",06570,43.699100994805,7.1215887711639
AGENCE CARRY LE ROUET - BNP PARIBAS,"1 rue Colonel Rozanoff, 13620  Carry-Le-Rouet",13620,43.333349050968,5.150993446627
AGENCE VILLENEUVE LOUBET - BNP PARIBAS,"1 route Du Bord De Mer, 06270  Villeneuve Loubet",06270,43.642775024739,7.1433015513362
AGENCE CAGNES SUR MER - BNP PARIBAS,"11 place Du General De Gaulle, 06800  Cagnes Sur Mer",06800,43.663905949869,7.1508664426087
AGENCE SALON DE PROVENCE - BNP PARIBAS,"82 Cours Carnot, 13300  Salon-De-Provence",13300,43.6409935,5.0960089
AGENCE CROS DE CAGNES - BNP PARIBAS,"18 avenue Des Oliviers, 06800  Cagnes Sur Mer",06800,43.658231337722,7.1652211882695
AGENCE SAINT LAURENT DU VAR SAINT EXUPERY - BNP PARIBAS,"1 avenue Marc Moschetti, Centre Saint Exupery, 06700  St Laurent Du Var",06700,43.666184289637,7.186618573576
AGENCE SAINT LAURENT DU VAR - BNP PARIBAS,"927 avenue Du General De Gaulle, Le Bellissime, 06700  St Laurent Du Var",06700,43.670295,7.1908549
AGENCE MARTIGUES - BNP PARIBAS,"9 esplanade Des Belges, 13500  Martigues",13500,43.402397874136,5.0568907893964
AGENCE NICE SAINT ISIDORE - BNP PARIBAS,"9 avenue Auguste Verola, 06000  Nice",06000,43.710767271607,7.195425582209
Cash Services - Nice 40 AVENUE SAINTE MARGUERITE,"40 AVENUE SAINTE MARGUERITE, 06200  Nice",06200,43.678482,7.220365
AGENCE LARAGNE MONTEGLIN - BNP PARIBAS,"54-56 place De La Fontaine, 05300  Laragne Monteglin",05300,44.314258091482,5.8235455923844
AGENCE NICE FABRON - BNP PARIBAS,"66 boulevard Napoleon Iii, Residence Orion, 06000  Nice",06000,43.6869132,7.2263445
Cash Services - Nice 254 AVENUE DE LA CALIFORNIE,"254 AVENUE DE LA CALIFORNIE, 06200  Nice",06200,43.679185,7.229351
AGENCE CARROS - BNP PARIBAS,"890 route Departementale 1, 06510  Carros",06510,43.7719993,7.200186
AGENCE NICE CARRAS - BNP PARIBAS,"230 avenue De La Californie, Immeuble Le Kappas, 06000  Nice",06000,43.68059810562,7.2302257418789
AGENCE ISTRES - BNP PARIBAS,"68 avenue Helene Boucher, 13800  Istres",13800,43.510739736851,4.988353143586
AGENCE NICE CHERET - BNP PARIBAS,"144 rue De France, Palais Des Arts, 06000  Nice",06000,43.693263222213,7.249730747756
AGENCE NICE PROMENADE DES ANGLAIS - BNP PARIBAS,"45 promenade Des Anglais, 06000  Nice",06000,43.694070288955,7.256078816008
Cash Services - Port De Bouc 48 PLACE DU DOCTEUR GILBERT IGONET,"48 PLACE DU DOCTEUR GILBERT IGONET, 13110  Port De Bouc",13110,43.428012,4.992344
AGENCE NICE FONTAINE DU TEMPLE - BNP PARIBAS,"6 place Fontaine Du Temple, 06000  Nice",06000,43.725824694266,7.2566767593313
AGENCE NICE LIBERATION - BNP PARIBAS,"27 avenue Malaussena, 06000  Nice",06000,43.708333249352,7.2627801274523
AGENCE NICE BORRIGLIONE - BNP PARIBAS,"49 avenue Borriglione, 06000  Nice",06000,43.714588565353,7.2614283727734
AGENCE CAVAILLON - BNP PARIBAS,"12 place Gambetta, 84300  Cavaillon",84300,43.836412719666,5.0407871749553
AGENCE NICE VICTOR HUGO - BNP PARIBAS,"2 Boulevard Victor Hugo, 06000  Nice",06000,43.7006209,7.2674353
AGENCE NICE INTERNATIONALE - BNP PARIBAS,"2 Boulevard Victor Hugo, 06000  Nice",06000,43.7006209,7.2674353
Cash Services - Nice 39 T BOULEVARD DE CIMIEZ,"39 T BOULEVARD DE CIMIEZ, 06000  Nice",06000,43.714961,7.271713
AGENCE NICE GARIBALDI - BNP PARIBAS,"4 Boulevard Jean Jaurès, 06300  Nice",06300,43.6999115,7.2785631
AGENCE NICE CIMIEZ - BNP PARIBAS,"1 place Du Commandant Marcel Gerome, 06000  Nice",06000,43.725052874171,7.2753325393435
AGENCE NICE PORT - BNP PARIBAS,"1 place De L Ile De Beaute, 06000  Nice",06000,43.698664176913,7.2862479285494
Cash Services - Nice 35 RUE BARBERIS,"35 RUE BARBERIS, 06300  Nice",06300,43.704373,7.286448
AGENCE NICE SAINT ROCH - BNP PARIBAS,"46 boulevard Saint-Roch, 06000  Nice",06000,43.712461587386,7.293035258197
Cash Services - Istres 54 AVENUE DE LA CRAU,"54 AVENUE DE LA CRAU, ENTRESSEN, 13118  Istres",13118,43.594496,4.938971
AGENCE L'ISLE SUR LA SORGUE - BNP PARIBAS,"177 boulevard De La Liberation, 84800  L Isle Sur La Sorgue",84800,43.9176329,5.0502237
Cash Services - Fos Sur Mer 8 AVENUE JEAN JAURES,"8 AVENUE JEAN JAURES, 13270  Fos Sur Mer",13270,43.435748,4.944712
AGENCE FOS SUR MER - BNP PARIBAS,"13 avenue Camille Pelletan, 13270  Fos Sur Mer",13270,43.436519824835,4.9441642687173
Cash Services - La Trinite 80 BOULEVARD GENERAL DE GAULLE,"80 BOULEVARD GENERAL DE GAULLE, 06340  La Trinite",06340,43.740978,7.311378
AGENCE BEAULIEU SUR MER - BNP PARIBAS,"30 boulevard Marinoni, 06310  Beaulieu Sur Mer",06310,43.707787380732,7.3309067055263
Cash Services - Pernes Les Fontaines 139 AVENUE DU BARRIOT,"139 AVENUE DU BARRIOT, 84210  Pernes Les Fontaines",84210,43.996736,5.058982
Cash Services - Eze PLACE DE LA COLETTE,"PLACE DE LA COLETTE, 06360  Eze",06360,43.729714,7.362085
AGENCE BARCELONNETTE - BNP PARIBAS,"9 rue Manuel, 04400  Barcelonnette",04400,44.387286322109,6.652863006293
AGENCE CAP D'AIL - BNP PARIBAS,"118 avenue Du 3 Septembre, 06320  Cap D Ail",06320,43.7230565,7.3964172
AGENCE CARPENTRAS MISTRAL - BNP PARIBAS,"692 avenue Frederic Mistral, 84200  Carpentras",84200,44.048811488715,5.0352021023455
AGENCE AVIGNON MONTFAVET - BNP PARIBAS,"15 Rue Marcel Demonque, Residence De L'esplanade, 84140  Montfavet",84140,43.915499957161,4.8889324828728
AGENCE SAINT REMY DE PROVENCE - BNP PARIBAS,"7-8-9 Place De La Republique, 13210  Saint-Remy-De-Provence",13210,43.788003010302,4.8292680264587
Cash Services - Roquebrune Cap Martin 13 AVENUE DE FRANCE,"13 AVENUE DE FRANCE, 06190  Roquebrune Cap Martin",06190,43.752957,7.439605
AGENCE PORT SAINT LOUIS DU RHONE - BNP PARIBAS,"64 avenue Du Port, 13230  Port St Louis Du Rhone",13230,43.389923538945,4.8018074196434
AGENCE CHATEAURENARD - BNP PARIBAS,"16 avenue Victor Hugo, 13160  Chateaurenard",13160,43.882905292883,4.8534898273204
AGENCE LE PONTET - BNP PARIBAS,"32 Avenue Gustave Goutarel, 84130  Le Pontet",84130,43.962738,4.8594834
AGENCE ROQUEBRUNE CAP MARTIN - BNP PARIBAS,"256 avenue Aristide Briand, Residence Mer Et Monts, 06190  Roquebrune Cap Martin",06190,43.765614695525,7.4873104447746
AGENCE VEYNES - BNP PARIBAS,"9 place De La Republique, 05400  Veynes",05400,44.534411992315,5.8244042818212
AGENCE GAP - BNP PARIBAS,"12 rue Carnot, 05000  Gap",05000,44.559054451894,6.0806211909093
AGENCE SORGUES - BNP PARIBAS,"25 Avenue D'avignon, 84700  Sorgues",84700,44.008096245783,4.872097327578
AGENCE MENTON - BNP PARIBAS,"18 avenue Felix Faure, 06500  Menton",06500,43.774144609087,7.5011814169418
AGENCE VAISON LA ROMAINE - BNP PARIBAS,"22 Rue Jules Ferry, 84110  Vaison-La-Romaine",84110,44.2412055,5.0728213
AGENCE AVIGNON - BNP PARIBAS,"39 rue De La Republique, 84000  Avignon",84000,43.945339031204,4.8056866250352
Cash Services - Avignon 20 BOULEVARD SAINT ROCH,"20 BOULEVARD SAINT ROCH, BP 30918, 84000  Avignon",84000,43.942739,4.802288
AGENCE EMBRUN - BNP PARIBAS,"58 rue Clovis Hugues, 05200  Embrun",05200,44.565227258795,6.4969837024021
AGENCE MAISON DE LA VITICULTURE CHATEAUNEUF - BNP PARIBAS,"26 Avenue Baron Leroy, Maison Des Viticulteurs, 84230  Chateauneuf-Du-Pape",84230,44.055308946829,4.8339684778404
AGENCE ARLES LAMARTINE - BNP PARIBAS,"place Lamartine, 13200  Arles",13200,43.682262213107,4.6323199812597
AGENCE ORANGE - BNP PARIBAS,"24 place Georges Clemenceau, 84100  Orange",84100,44.137755347301,4.8081208202377
AGENCE BOLLENE - BNP PARIBAS,"Avenue Pasteur, Immeuble Pasteur, 84500  Bollene",84500,44.280954411219,4.7469242957009
AGENCE BRIANCON SERRE CHEVALIER - BNP PARIBAS,"5 rue Centrale, 05100  Briancon",05100,44.896372647083,6.6356283169434
